{"type":"FeatureCollection","features":[{"type":"Feature","properties":{"id":"node/6983499376","name":"Hatfield","network":"Gautrain"},"geometry":{"type":"Point","coordinates":[28.237873,-25.74764]}},{"type":"Feature","properties":{"id":"node/6983501555","name":"Pretoria Gautrain Station","network":"Gautrain"},"geometry":{"type":"Point","coordinates":[28.190451,-25.759557]}},{"type":"Feature","properties":{"id":"node/6983528224","name":"Centurion","network":"Gautrain"},"geometry":{"type":"Point","coordinates":[28.189587,-25.851672]}},{"type":"Feature","properties":{"id":"way/29598349","name":"Gautrain","network":"Gautrain"},"geometry":{"type":"LineString","coordinates":[[28.189872,-25.758696],[28.190507,-25.759498],[28.19104,-25.760187]]}},{"type":"Feature","properties":{"id":"way/64241251","name":"Gautrain","network":"Gautrain"},"geometry":{"type":"LineString","coordinates":[[28.196944,-25.763397],[28.196741,-25.763527],[28.196541,-25.763632],[28.196419,-25.76369],[28.196237,-25.763758],[28.196106,-25.763799],[28.195997,-25.763828],[28.195858,-25.763864],[28.195698,-25.763887],[28.195563,-25.763902],[28.1954,-25.763911],[28.195249,-25.763911],[28.19514,-25.763906],[28.195036,-25.763898],[28.194875,-25.763879],[28.194741,-25.763853],[28.194595,-25.763821],[28.194448,-25.763764],[28.194265,-25.763691],[28.194059,-25.763588],[28.193876,-25.763482],[28.193757,-25.763404],[28.193614,-25.763294],[28.193491,-25.763185],[28.193343,-25.763025],[28.193203,-25.762885],[28.1931,-25.762764]]}},{"type":"Feature","properties":{"id":"way/64241257","name":"Gautrain","network":"Gautrain"},"geometry":{"type":"LineString","coordinates":[[28.193014,-25.762813],[28.193117,-25.76295],[28.193209,-25.763085],[28.193291,-25.763223],[28.193405,-25.763427],[28.193497,-25.763716],[28.193541,-25.763936],[28.193569,-25.764157],[28.193576,-25.764333],[28.193573,-25.764546],[28.193552,-25.764756],[28.19353,-25.764957],[28.193457,-25.765539],[28.1934,-25.766135]]}},{"type":"Feature","properties":{"id":"way/64272349","name":"Gautrain","network":"Gautrain"},"geometry":{"type":"LineString","coordinates":[[28.192087,-25.776913],[28.19146,-25.778751],[28.190817,-25.780363]]}},{"type":"Feature","properties":{"id":"way/64272351","name":"Gautrain","network":"Gautrain"},"geometry":{"type":"LineString","coordinates":[[28.192799,-25.774723],[28.192604,-25.775317],[28.192331,-25.77617],[28.192087,-25.776913]]}},{"type":"Feature","properties":{"id":"way/64794304","name":"Gautrain","network":"Gautrain"},"geometry":{"type":"LineString","coordinates":[[28.183564,-25.834526],[28.183743,-25.835727],[28.183992,-25.837453],[28.184178,-25.838752],[28.184378,-25.840051],[28.184832,-25.842948],[28.18498,-25.843661],[28.185098,-25.84412],[28.185238,-25.844626],[28.185419,-25.845157],[28.185597,-25.845598],[28.185773,-25.846038],[28.186146,-25.846804],[28.186505,-25.847465],[28.186933,-25.848144],[28.187286,-25.848651],[28.188916,-25.850869],[28.18916,-25.851192]]}},{"type":"Feature","properties":{"id":"way/65502778","name":"Gautrain","network":"Gautrain"},"geometry":{"type":"LineString","coordinates":[[28.239342,-25.747272],[28.238974,-25.747366],[28.238609,-25.747467]]}},{"type":"Feature","properties":{"id":"way/65502813","name":"Gautrain","network":"Gautrain"},"geometry":{"type":"LineString","coordinates":[[28.1934,-25.766135],[28.193262,-25.767298],[28.193189,-25.767935],[28.19311,-25.7686],[28.193042,-25.769391],[28.193009,-25.769862]]}},{"type":"Feature","properties":{"id":"way/65582285","name":"Gautrain","network":"Gautrain"},"geometry":{"type":"LineString","coordinates":[[28.187618,-25.869799],[28.18698,-25.870108],[28.185493,-25.87081],[28.183979,-25.871525],[28.182521,-25.872226],[28.18175,-25.872602],[28.181026,-25.872919],[28.180209,-25.873301],[28.179398,-25.873655],[28.178545,-25.874041],[28.177691,-25.874422],[28.176842,-25.87481],[28.175892,-25.875261],[28.175603,-25.875402],[28.175326,-25.875561],[28.174812,-25.875858],[28.174185,-25.876258],[28.173838,-25.87648],[28.173519,-25.876718],[28.172993,-25.877094],[28.172498,-25.877514],[28.17208,-25.877881],[28.171595,-25.87834],[28.171237,-25.878701],[28.170869,-25.879099],[28.170212,-25.87988],[28.1699,-25.88029],[28.169646,-25.880666],[28.169364,-25.881111],[28.169125,-25.881504],[28.168668,-25.882362],[28.168446,-25.882808],[28.168241,-25.88326],[28.168001,-25.88385],[28.167802,-25.884507],[28.167463,-25.885651],[28.167123,-25.886896],[28.166792,-25.888123],[28.166476,-25.889353],[28.166336,-25.889869],[28.166212,-25.890291],[28.165928,-25.891383],[28.165629,-25.892466],[28.165444,-25.893147],[28.165256,-25.893864],[28.16487,-25.895242],[28.164675,-25.895963],[28.164505,-25.896657],[28.1643,-25.897373],[28.164113,-25.898036],[28.163471,-25.900435],[28.163235,-25.901399],[28.163015,-25.902145],[28.162802,-25.902935],[28.162591,-25.90373],[28.162197,-25.905233]]}},{"type":"Feature","properties":{"id":"way/65582290","name":"Gautrain","network":"Gautrain"},"geometry":{"type":"LineString","coordinates":[[28.151925,-25.926051],[28.150632,-25.928097],[28.150307,-25.928655],[28.150014,-25.929188],[28.149769,-25.929715]]}},{"type":"Feature","properties":{"id":"way/65582291","name":"Gautrain","network":"Gautrain"},"geometry":{"type":"LineString","coordinates":[[28.143122,-25.948207],[28.143004,-25.948566]]}},{"type":"Feature","properties":{"id":"way/65582293","name":"Gautrain","network":"Gautrain"},"geometry":{"type":"LineString","coordinates":[[28.219609,-25.760128],[28.219485,-25.760149]]}},{"type":"Feature","properties":{"id":"way/65582294","name":"Gautrain","network":"Gautrain"},"geometry":{"type":"LineString","coordinates":[[28.219971,-25.760037],[28.219747,-25.760099],[28.219609,-25.760128]]}},{"type":"Feature","properties":{"id":"way/65582297","name":"Gautrain","network":"Gautrain"},"geometry":{"type":"LineString","coordinates":[[28.190817,-25.780363],[28.190593,-25.78097],[28.190359,-25.781568],[28.18992,-25.782781]]}},{"type":"Feature","properties":{"id":"way/65582308","name":"Gautrain","network":"Gautrain"},"geometry":{"type":"LineString","coordinates":[[28.149348,-25.930696],[28.149114,-25.931368],[28.148914,-25.931913]]}},{"type":"Feature","properties":{"id":"way/65582314","name":"Gautrain","network":"Gautrain"},"geometry":{"type":"LineString","coordinates":[[28.189253,-25.784706],[28.189146,-25.785017],[28.189026,-25.785322],[28.188925,-25.785574],[28.18878,-25.785931],[28.188392,-25.786688],[28.188197,-25.787069],[28.18798,-25.787411],[28.187759,-25.787731],[28.187479,-25.788123],[28.18717,-25.788514],[28.186588,-25.789146],[28.186306,-25.789432],[28.185846,-25.789847],[28.185132,-25.790447],[28.184954,-25.790591],[28.184799,-25.790714],[28.184526,-25.790911],[28.183984,-25.791338],[28.183468,-25.791749],[28.18302,-25.792135],[28.182787,-25.79234],[28.182384,-25.792762],[28.182174,-25.792986],[28.181969,-25.79322],[28.181654,-25.793619],[28.181392,-25.793978],[28.181126,-25.794379],[28.18097,-25.794623],[28.18072,-25.795078],[28.180503,-25.795507],[28.180298,-25.795966],[28.180106,-25.796454],[28.179948,-25.796944],[28.179863,-25.797254],[28.179795,-25.797541],[28.179683,-25.798184],[28.179605,-25.798952],[28.179595,-25.799143]]}},{"type":"Feature","properties":{"id":"way/65582318","name":"Gautrain","network":"Gautrain"},"geometry":{"type":"LineString","coordinates":[[28.224394,-25.756081],[28.222109,-25.758624],[28.221743,-25.759011],[28.221375,-25.759348],[28.221106,-25.759528],[28.220853,-25.759676],[28.220521,-25.759845],[28.220145,-25.759978]]}},{"type":"Feature","properties":{"id":"way/65582334","name":"Gautrain","network":"Gautrain"},"geometry":{"type":"LineString","coordinates":[[28.143004,-25.948566],[28.142697,-25.949516],[28.142447,-25.950417]]}},{"type":"Feature","properties":{"id":"way/65582343","name":"Gautrain","network":"Gautrain"},"geometry":{"type":"LineString","coordinates":[[28.152164,-25.925676],[28.151925,-25.926051]]}},{"type":"Feature","properties":{"id":"way/65582346","name":"Gautrain","network":"Gautrain"},"geometry":{"type":"LineString","coordinates":[[28.224726,-25.755727],[28.224394,-25.756081]]}},{"type":"Feature","properties":{"id":"way/65582352","name":"Gautrain","network":"Gautrain"},"geometry":{"type":"LineString","coordinates":[[28.220145,-25.759978],[28.219971,-25.760037]]}},{"type":"Feature","properties":{"id":"way/65582369","name":"Gautrain","network":"Gautrain"},"geometry":{"type":"LineString","coordinates":[[28.219485,-25.760149],[28.219039,-25.760215],[28.218643,-25.760232],[28.217996,-25.760166],[28.217299,-25.760072],[28.216341,-25.75996],[28.21543,-25.759831],[28.215106,-25.759818]]}},{"type":"Feature","properties":{"id":"way/65582374","name":"Gautrain","network":"Gautrain"},"geometry":{"type":"LineString","coordinates":[[28.149769,-25.929715],[28.149577,-25.930151],[28.149452,-25.93043],[28.149348,-25.930696]]}},{"type":"Feature","properties":{"id":"way/164088828","name":"Gautrain","network":"Gautrain"},"geometry":{"type":"LineString","coordinates":[[28.180044,-25.818013],[28.180085,-25.819462],[28.180136,-25.820418],[28.180227,-25.821212],[28.180296,-25.821671]]}},{"type":"Feature","properties":{"id":"way/164088832","name":"Gautrain","network":"Gautrain"},"geometry":{"type":"LineString","coordinates":[[28.180023,-25.817636],[28.180044,-25.818013]]}},{"type":"Feature","properties":{"id":"way/164088838","name":"Gautrain","network":"Gautrain"},"geometry":{"type":"LineString","coordinates":[[28.179884,-25.811803],[28.179903,-25.812107]]}},{"type":"Feature","properties":{"id":"way/164088839","name":"Gautrain","network":"Gautrain"},"geometry":{"type":"LineString","coordinates":[[28.18934,-25.784468],[28.189253,-25.784706]]}},{"type":"Feature","properties":{"id":"way/164088840","name":"Gautrain","network":"Gautrain"},"geometry":{"type":"LineString","coordinates":[[28.193009,-25.769862],[28.193002,-25.770099]]}},{"type":"Feature","properties":{"id":"way/164088847","name":"Gautrain","network":"Gautrain"},"geometry":{"type":"LineString","coordinates":[[28.189513,-25.783988],[28.189424,-25.784235]]}},{"type":"Feature","properties":{"id":"way/164088853","name":"Gautrain","network":"Gautrain"},"geometry":{"type":"LineString","coordinates":[[28.148914,-25.931913],[28.148777,-25.932323]]}},{"type":"Feature","properties":{"id":"way/164088858","name":"Gautrain","network":"Gautrain"},"geometry":{"type":"LineString","coordinates":[[28.18992,-25.782781],[28.189513,-25.783988]]}},{"type":"Feature","properties":{"id":"way/164088859","name":"Gautrain","network":"Gautrain"},"geometry":{"type":"LineString","coordinates":[[28.189424,-25.784235],[28.18934,-25.784468]]}},{"type":"Feature","properties":{"id":"way/164088869","name":"Gautrain","network":"Gautrain"},"geometry":{"type":"LineString","coordinates":[[28.179903,-25.812107],[28.179934,-25.813824],[28.179956,-25.814754],[28.179971,-25.815588],[28.180004,-25.816598],[28.180023,-25.817636]]}},{"type":"Feature","properties":{"id":"way/164088873","name":"Gautrain","network":"Gautrain"},"geometry":{"type":"LineString","coordinates":[[28.148777,-25.932323],[28.148236,-25.933865],[28.147973,-25.93463],[28.147718,-25.935359],[28.147087,-25.937215],[28.146754,-25.938127],[28.146428,-25.939059],[28.145607,-25.941362],[28.145188,-25.942522],[28.144765,-25.943704],[28.14393,-25.945991],[28.143522,-25.947129],[28.143122,-25.948207]]}},{"type":"Feature","properties":{"id":"way/164088875","name":"Gautrain","network":"Gautrain"},"geometry":{"type":"LineString","coordinates":[[28.193002,-25.770099],[28.193,-25.770814],[28.193034,-25.771841],[28.193048,-25.772383],[28.19305,-25.772649],[28.193046,-25.77287],[28.193039,-25.773075],[28.193032,-25.773179],[28.193019,-25.773336],[28.193001,-25.77356],[28.192977,-25.773763],[28.192942,-25.774001],[28.192903,-25.774237],[28.192852,-25.774481],[28.192799,-25.774723]]}},{"type":"Feature","properties":{"id":"way/165511776","name":"Gautrain","network":"Gautrain"},"geometry":{"type":"LineString","coordinates":[[28.180296,-25.821671],[28.180387,-25.822235]]}},{"type":"Feature","properties":{"id":"way/165511778","name":"Gautrain","network":"Gautrain"},"geometry":{"type":"LineString","coordinates":[[28.180387,-25.822235],[28.180523,-25.822889],[28.180686,-25.82353],[28.180873,-25.824173],[28.181053,-25.824732],[28.181246,-25.825268],[28.181431,-25.825802],[28.181614,-25.826308],[28.182026,-25.827475],[28.182416,-25.82856],[28.182595,-25.829107],[28.182741,-25.829647],[28.182861,-25.830102],[28.182959,-25.830558],[28.183105,-25.831426],[28.183341,-25.832984],[28.183564,-25.834526]]}},{"type":"Feature","properties":{"id":"way/194557912","name":"Gautrain","network":"Gautrain"},"geometry":{"type":"LineString","coordinates":[[28.192979,-25.762831],[28.193097,-25.762991],[28.193181,-25.763113],[28.19326,-25.763245],[28.193349,-25.763406],[28.193388,-25.763507],[28.19345,-25.763701],[28.193494,-25.763924],[28.193526,-25.764159],[28.193526,-25.764523],[28.193445,-25.765289],[28.193353,-25.766148]]}},{"type":"Feature","properties":{"id":"way/242668439","name":"Gautrain","network":"Gautrain"},"geometry":{"type":"LineString","coordinates":[[28.213967,-25.760059],[28.213337,-25.760303],[28.21271,-25.760542],[28.212228,-25.760723],[28.211992,-25.760776],[28.211801,-25.760803],[28.211433,-25.76083],[28.210923,-25.760813],[28.209074,-25.760573],[28.207179,-25.760321],[28.205241,-25.760061],[28.203758,-25.759853],[28.203258,-25.759791],[28.202957,-25.759765],[28.202753,-25.759755],[28.202585,-25.759757],[28.202409,-25.759769],[28.202215,-25.759791],[28.202055,-25.759818],[28.201884,-25.759856],[28.20172,-25.759904],[28.201592,-25.759943],[28.201424,-25.760007],[28.201313,-25.760056],[28.20119,-25.760115],[28.201097,-25.760168],[28.20096,-25.760247],[28.200785,-25.760364],[28.200504,-25.760573],[28.200229,-25.760788],[28.199899,-25.761053]]}},{"type":"Feature","properties":{"id":"way/242668440","name":"Gautrain","network":"Gautrain"},"geometry":{"type":"LineString","coordinates":[[28.215106,-25.759818],[28.214901,-25.75982],[28.214698,-25.759841],[28.214339,-25.759927],[28.213967,-25.760059]]}},{"type":"Feature","properties":{"id":"way/427825937","name":"Gautrain","network":"Gautrain"},"geometry":{"type":"LineString","coordinates":[[28.161284,-25.908661],[28.160997,-25.909661],[28.160852,-25.910181],[28.160719,-25.910726],[28.160464,-25.911453],[28.160174,-25.912233],[28.159901,-25.912895],[28.159626,-25.91353],[28.158955,-25.914834],[28.158512,-25.915643],[28.158067,-25.916374],[28.157125,-25.917896],[28.156201,-25.919408],[28.155183,-25.921],[28.154523,-25.922029],[28.153649,-25.923375],[28.152164,-25.925676]]}},{"type":"Feature","properties":{"id":"way/427825938","name":"Gautrain","network":"Gautrain"},"geometry":{"type":"LineString","coordinates":[[28.162197,-25.905233],[28.161888,-25.906403]]}},{"type":"Feature","properties":{"id":"way/537266054","name":"Gautrain","network":"Gautrain"},"geometry":{"type":"LineString","coordinates":[[28.192814,-25.762432],[28.1931,-25.762764]]}},{"type":"Feature","properties":{"id":"way/537266055","name":"Gautrain","network":"Gautrain"},"geometry":{"type":"LineString","coordinates":[[28.191013,-25.760344],[28.191288,-25.760669],[28.191361,-25.760744],[28.191441,-25.760836],[28.191599,-25.761007],[28.191847,-25.761297]]}},{"type":"Feature","properties":{"id":"way/537266056","name":"Gautrain","network":"Gautrain"},"geometry":{"type":"LineString","coordinates":[[28.191847,-25.761297],[28.192119,-25.761648],[28.192276,-25.76185]]}},{"type":"Feature","properties":{"id":"way/537266825","name":"Gautrain","network":"Gautrain"},"geometry":{"type":"LineString","coordinates":[[28.192276,-25.76185],[28.192743,-25.762521]]}},{"type":"Feature","properties":{"id":"way/537266827","name":"Gautrain","network":"Gautrain"},"geometry":{"type":"LineString","coordinates":[[28.193047,-25.762797],[28.193214,-25.762973],[28.193329,-25.763078],[28.193492,-25.763242],[28.193617,-25.76335],[28.19372,-25.763429],[28.193872,-25.763529],[28.19402,-25.763619],[28.194208,-25.76371],[28.194374,-25.763784],[28.194527,-25.763843],[28.194669,-25.763885],[28.194878,-25.763921],[28.195029,-25.763941],[28.195169,-25.763949],[28.195297,-25.763953],[28.195467,-25.763949],[28.195643,-25.763934],[28.195853,-25.763905],[28.19602,-25.763868],[28.196244,-25.763799],[28.196476,-25.763708],[28.19661,-25.763647],[28.196765,-25.763561],[28.196969,-25.76343]]}},{"type":"Feature","properties":{"id":"way/537267722","name":"Gautrain","network":"Gautrain"},"geometry":{"type":"LineString","coordinates":[[28.19993,-25.761085],[28.200258,-25.760821],[28.200514,-25.760615],[28.200793,-25.760411],[28.200956,-25.7603],[28.201054,-25.760239],[28.201204,-25.760154],[28.201354,-25.760085],[28.201502,-25.76002],[28.201674,-25.759959],[28.201826,-25.759914],[28.201969,-25.759877],[28.202142,-25.759844],[28.202274,-25.759825],[28.202415,-25.759809],[28.202574,-25.759802],[28.202753,-25.759799],[28.202958,-25.759806],[28.203247,-25.759835],[28.203764,-25.759898],[28.205244,-25.760105],[28.207183,-25.760361],[28.209079,-25.76061],[28.210922,-25.760846],[28.211453,-25.760863],[28.21181,-25.760839],[28.212022,-25.76081],[28.212247,-25.760752],[28.212722,-25.760576],[28.213357,-25.760329],[28.213977,-25.7601]]}},{"type":"Feature","properties":{"id":"way/537268862","name":"Gautrain","network":"Gautrain"},"geometry":{"type":"LineString","coordinates":[[28.192961,-25.770094],[28.19295,-25.770819],[28.19301,-25.772391],[28.193009,-25.77263],[28.193007,-25.77286],[28.192996,-25.773094],[28.192985,-25.773318],[28.192969,-25.77349],[28.192933,-25.773772],[28.192916,-25.773927],[28.19287,-25.774198],[28.192825,-25.774421],[28.192759,-25.774719]]}},{"type":"Feature","properties":{"id":"way/537268864","name":"Gautrain","network":"Gautrain"},"geometry":{"type":"LineString","coordinates":[[28.192627,-25.762308],[28.19281,-25.762542],[28.193014,-25.762813]]}},{"type":"Feature","properties":{"id":"way/537274084","name":"Gautrain","network":"Gautrain"},"geometry":{"type":"LineString","coordinates":[[28.231853,-25.749867],[28.232574,-25.749633],[28.233986,-25.749175],[28.234196,-25.749107],[28.234847,-25.748877],[28.235484,-25.748643],[28.235983,-25.748472],[28.236481,-25.748305],[28.237077,-25.748102]]}},{"type":"Feature","properties":{"id":"way/537274776","name":"Gautrain","network":"Gautrain"},"geometry":{"type":"LineString","coordinates":[[28.224775,-25.75575],[28.225414,-25.755024],[28.225612,-25.754822],[28.226449,-25.753889],[28.226607,-25.753722],[28.227106,-25.753176],[28.227337,-25.752923],[28.228311,-25.751848],[28.228633,-25.751502],[28.228962,-25.751205],[28.229367,-25.750891],[28.229754,-25.750659],[28.229976,-25.750548],[28.230207,-25.750447],[28.230599,-25.750289],[28.231853,-25.749867]]}},{"type":"Feature","properties":{"id":"way/537276025","name":"Gautrain","network":"Gautrain"},"geometry":{"type":"LineString","coordinates":[[28.215133,-25.759849],[28.215428,-25.759863],[28.216335,-25.759994],[28.217314,-25.760105],[28.218,-25.760197],[28.218657,-25.760264],[28.219046,-25.76025],[28.219484,-25.76018]]}},{"type":"Feature","properties":{"id":"way/537276026","name":"Gautrain","network":"Gautrain"},"geometry":{"type":"LineString","coordinates":[[28.213977,-25.7601],[28.214361,-25.75996],[28.214709,-25.759875],[28.214913,-25.759853],[28.215133,-25.759849]]}},{"type":"Feature","properties":{"id":"way/537276027","name":"Gautrain","network":"Gautrain"},"geometry":{"type":"LineString","coordinates":[[28.219988,-25.760066],[28.220173,-25.760006]]}},{"type":"Feature","properties":{"id":"way/537276028","name":"Gautrain","network":"Gautrain"},"geometry":{"type":"LineString","coordinates":[[28.219622,-25.760153],[28.21976,-25.760126],[28.219988,-25.760066]]}},{"type":"Feature","properties":{"id":"way/537276029","name":"Gautrain","network":"Gautrain"},"geometry":{"type":"LineString","coordinates":[[28.219484,-25.76018],[28.219622,-25.760153]]}},{"type":"Feature","properties":{"id":"way/537276030","name":"Gautrain","network":"Gautrain"},"geometry":{"type":"LineString","coordinates":[[28.224441,-25.756104],[28.224775,-25.75575]]}},{"type":"Feature","properties":{"id":"way/537276031","name":"Gautrain","network":"Gautrain"},"geometry":{"type":"LineString","coordinates":[[28.220173,-25.760006],[28.220562,-25.75987],[28.220881,-25.759709],[28.221136,-25.759554],[28.221417,-25.759361],[28.22179,-25.759022],[28.222152,-25.758648],[28.224441,-25.756104]]}},{"type":"Feature","properties":{"id":"way/539423297","name":"Gautrain","network":"Gautrain"},"geometry":{"type":"LineString","coordinates":[[28.192969,-25.76986],[28.192961,-25.770094]]}},{"type":"Feature","properties":{"id":"way/539423298","name":"Gautrain","network":"Gautrain"},"geometry":{"type":"LineString","coordinates":[[28.193353,-25.766148],[28.193333,-25.766327],[28.193221,-25.76731],[28.193145,-25.76794],[28.193068,-25.768599],[28.192995,-25.769393],[28.192969,-25.76986]]}},{"type":"Feature","properties":{"id":"way/539423299","name":"Gautrain","network":"Gautrain"},"geometry":{"type":"LineString","coordinates":[[28.192048,-25.776903],[28.191409,-25.778746],[28.190787,-25.780353]]}},{"type":"Feature","properties":{"id":"way/539423300","name":"Gautrain","network":"Gautrain"},"geometry":{"type":"LineString","coordinates":[[28.192759,-25.774719],[28.192048,-25.776903]]}},{"type":"Feature","properties":{"id":"way/539425914","name":"Gautrain","network":"Gautrain"},"geometry":{"type":"LineString","coordinates":[[28.189224,-25.784678],[28.189102,-25.785022],[28.188992,-25.785317],[28.188896,-25.785559],[28.18874,-25.785924],[28.188363,-25.786675],[28.188163,-25.787053],[28.187941,-25.787398],[28.187724,-25.787714],[28.187442,-25.788109],[28.187133,-25.788497],[28.186554,-25.78913],[28.186259,-25.789415],[28.185816,-25.789817],[28.1851,-25.79042],[28.184915,-25.790574],[28.184777,-25.790684],[28.184502,-25.790885],[28.183952,-25.791316],[28.183436,-25.791724],[28.182984,-25.792109],[28.182757,-25.792316],[28.182347,-25.792741],[28.182139,-25.792964],[28.18193,-25.793207],[28.181613,-25.793601],[28.181351,-25.793961],[28.18108,-25.794363],[28.180923,-25.794622],[28.180683,-25.795065],[28.180463,-25.795498],[28.180255,-25.795958],[28.18006,-25.79645],[28.179908,-25.796928],[28.179816,-25.797254],[28.179752,-25.79754],[28.179639,-25.798178],[28.179556,-25.798955],[28.179547,-25.799143]]}},{"type":"Feature","properties":{"id":"way/539425915","name":"Gautrain","network":"Gautrain"},"geometry":{"type":"LineString","coordinates":[[28.18931,-25.784431],[28.189224,-25.784678]]}},{"type":"Feature","properties":{"id":"way/539425916","name":"Gautrain","network":"Gautrain"},"geometry":{"type":"LineString","coordinates":[[28.189393,-25.784201],[28.18931,-25.784431]]}},{"type":"Feature","properties":{"id":"way/539425917","name":"Gautrain","network":"Gautrain"},"geometry":{"type":"LineString","coordinates":[[28.189476,-25.783973],[28.189393,-25.784201]]}},{"type":"Feature","properties":{"id":"way/539425918","name":"Gautrain","network":"Gautrain"},"geometry":{"type":"LineString","coordinates":[[28.189885,-25.78278],[28.189476,-25.783973]]}},{"type":"Feature","properties":{"id":"way/539425919","name":"Gautrain","network":"Gautrain"},"geometry":{"type":"LineString","coordinates":[[28.190321,-25.781568],[28.189885,-25.78278]]}},{"type":"Feature","properties":{"id":"way/539429407","name":"Gautrain","network":"Gautrain"},"geometry":{"type":"LineString","coordinates":[[28.179573,-25.799479],[28.179595,-25.799143]]}},{"type":"Feature","properties":{"id":"way/539429408","name":"Gautrain","network":"Gautrain"},"geometry":{"type":"LineString","coordinates":[[28.179573,-25.799479],[28.179566,-25.799712],[28.179566,-25.800054],[28.179615,-25.801891],[28.179636,-25.802718],[28.179685,-25.804339],[28.179717,-25.805493],[28.179729,-25.806057],[28.179749,-25.807049],[28.17978,-25.808052],[28.1798,-25.80919]]}},{"type":"Feature","properties":{"id":"way/539430416","name":"Gautrain","network":"Gautrain"},"geometry":{"type":"LineString","coordinates":[[28.179824,-25.809787],[28.179884,-25.811803]]}},{"type":"Feature","properties":{"id":"way/539430417","name":"Gautrain","network":"Gautrain"},"geometry":{"type":"LineString","coordinates":[[28.1798,-25.80919],[28.179824,-25.809787]]}},{"type":"Feature","properties":{"id":"way/539434570","name":"Gautrain","network":"Gautrain"},"geometry":{"type":"LineString","coordinates":[[28.180003,-25.818013],[28.180042,-25.819474],[28.180099,-25.820422],[28.180182,-25.821223],[28.180252,-25.821675]]}},{"type":"Feature","properties":{"id":"way/539434571","name":"Gautrain","network":"Gautrain"},"geometry":{"type":"LineString","coordinates":[[28.179985,-25.817634],[28.180003,-25.818013]]}},{"type":"Feature","properties":{"id":"way/539434572","name":"Gautrain","network":"Gautrain"},"geometry":{"type":"LineString","coordinates":[[28.179776,-25.809789],[28.179845,-25.811803]]}},{"type":"Feature","properties":{"id":"way/539434573","name":"Gautrain","network":"Gautrain"},"geometry":{"type":"LineString","coordinates":[[28.179776,-25.809789],[28.179753,-25.809196]]}},{"type":"Feature","properties":{"id":"way/539434574","name":"Gautrain","network":"Gautrain"},"geometry":{"type":"LineString","coordinates":[[28.179855,-25.81211],[28.179895,-25.813824],[28.179912,-25.814761],[28.17993,-25.815599],[28.179954,-25.816604],[28.179985,-25.817634]]}},{"type":"Feature","properties":{"id":"way/539434575","name":"Gautrain","network":"Gautrain"},"geometry":{"type":"LineString","coordinates":[[28.179845,-25.811803],[28.179855,-25.81211]]}},{"type":"Feature","properties":{"id":"way/539434576","name":"Gautrain","network":"Gautrain"},"geometry":{"type":"LineString","coordinates":[[28.179537,-25.799468],[28.179525,-25.799706],[28.179529,-25.800077],[28.179572,-25.801886],[28.179594,-25.80272],[28.179639,-25.804343],[28.179673,-25.805501],[28.179686,-25.806061],[28.179709,-25.807053],[28.17974,-25.808055],[28.179753,-25.809196]]}},{"type":"Feature","properties":{"id":"way/539434577","name":"Gautrain","network":"Gautrain"},"geometry":{"type":"LineString","coordinates":[[28.179547,-25.799143],[28.179537,-25.799468]]}},{"type":"Feature","properties":{"id":"way/539437986","name":"Gautrain","network":"Gautrain"},"geometry":{"type":"LineString","coordinates":[[28.1876,-25.869768],[28.186956,-25.87009],[28.185464,-25.870782],[28.183956,-25.871496],[28.1825,-25.872202],[28.181725,-25.872571],[28.181009,-25.872888],[28.180191,-25.873269],[28.179378,-25.873628],[28.178522,-25.874016],[28.177675,-25.874395],[28.176823,-25.87478],[28.17586,-25.875228],[28.175574,-25.875377],[28.175305,-25.875529],[28.174793,-25.875832],[28.174157,-25.876231],[28.173808,-25.876454],[28.17349,-25.876693],[28.172958,-25.877079],[28.172466,-25.877495],[28.172041,-25.877865],[28.171556,-25.878327],[28.171206,-25.878673],[28.17083,-25.879084],[28.170176,-25.879866],[28.169859,-25.880276],[28.169609,-25.880649],[28.169316,-25.881099],[28.169074,-25.88151],[28.168615,-25.882352],[28.168405,-25.88279],[28.168204,-25.883258],[28.167964,-25.88385],[28.167752,-25.884507],[28.167425,-25.885647],[28.167081,-25.886894],[28.166749,-25.888112],[28.166428,-25.889362],[28.166287,-25.889875],[28.166173,-25.890284],[28.165886,-25.891387],[28.165582,-25.89247],[28.165404,-25.893137],[28.165214,-25.893863],[28.164825,-25.895239],[28.164631,-25.895963],[28.164458,-25.896647],[28.164261,-25.897372],[28.164073,-25.898046],[28.163427,-25.900447],[28.1632,-25.901399],[28.162979,-25.902149],[28.162771,-25.902936],[28.162554,-25.903721],[28.162154,-25.905222]]}},{"type":"Feature","properties":{"id":"way/539437987","name":"Gautrain","network":"Gautrain"},"geometry":{"type":"LineString","coordinates":[[28.18352,-25.834533],[28.183696,-25.835695],[28.183943,-25.837472],[28.184135,-25.838757],[28.184331,-25.84006],[28.184791,-25.842957],[28.184937,-25.843671],[28.185057,-25.844137],[28.185205,-25.844639],[28.185377,-25.845161],[28.185548,-25.845619],[28.185721,-25.846019],[28.186111,-25.846834],[28.186474,-25.847495],[28.1869,-25.848181],[28.187254,-25.848683],[28.188888,-25.850891],[28.189123,-25.851213]]}},{"type":"Feature","properties":{"id":"way/539437988","name":"Gautrain","network":"Gautrain"},"geometry":{"type":"LineString","coordinates":[[28.180343,-25.822237],[28.180479,-25.822905],[28.180645,-25.823537],[28.180826,-25.824183],[28.181013,-25.824752],[28.181202,-25.825287],[28.181388,-25.825813],[28.181569,-25.826321],[28.181985,-25.827482],[28.182371,-25.828571],[28.18255,-25.829122],[28.182698,-25.829658],[28.182812,-25.830113],[28.182912,-25.830568],[28.183065,-25.831436],[28.183303,-25.832994],[28.18352,-25.834533]]}},{"type":"Feature","properties":{"id":"way/539437989","name":"Gautrain","network":"Gautrain"},"geometry":{"type":"LineString","coordinates":[[28.180252,-25.821675],[28.180343,-25.822237]]}},{"type":"Feature","properties":{"id":"way/539451991","name":"Gautrain","network":"Gautrain"},"geometry":{"type":"LineString","coordinates":[[28.161404,-25.908216],[28.161284,-25.908661]]}},{"type":"Feature","properties":{"id":"way/539451992","name":"Gautrain","network":"Gautrain"},"geometry":{"type":"LineString","coordinates":[[28.161888,-25.906403],[28.161642,-25.90736],[28.161404,-25.908216]]}},{"type":"Feature","properties":{"id":"way/539466737","name":"Gautrain","network":"Gautrain"},"geometry":{"type":"LineString","coordinates":[[28.148735,-25.93231],[28.148205,-25.933848],[28.147932,-25.934621],[28.147674,-25.935349],[28.147044,-25.937205],[28.146384,-25.939049],[28.145578,-25.941344],[28.145149,-25.94251],[28.144722,-25.943695],[28.143896,-25.945981],[28.143479,-25.947115],[28.143092,-25.948195]]}},{"type":"Feature","properties":{"id":"way/539466738","name":"Gautrain","network":"Gautrain"},"geometry":{"type":"LineString","coordinates":[[28.149737,-25.929702],[28.149309,-25.930697]]}},{"type":"Feature","properties":{"id":"way/539466739","name":"Gautrain","network":"Gautrain"},"geometry":{"type":"LineString","coordinates":[[28.151885,-25.926035],[28.150595,-25.92808],[28.150254,-25.928658],[28.149981,-25.929179],[28.149737,-25.929702]]}},{"type":"Feature","properties":{"id":"way/539466740","name":"Gautrain","network":"Gautrain"},"geometry":{"type":"LineString","coordinates":[[28.152127,-25.925664],[28.151885,-25.926035]]}},{"type":"Feature","properties":{"id":"way/539466741","name":"Gautrain","network":"Gautrain"},"geometry":{"type":"LineString","coordinates":[[28.161246,-25.908661],[28.160964,-25.909655],[28.160801,-25.910204],[28.160661,-25.910723],[28.160419,-25.911466],[28.160136,-25.912223],[28.159869,-25.912883],[28.159582,-25.913518],[28.158914,-25.914831],[28.158474,-25.915632],[28.158021,-25.916371],[28.15709,-25.917876],[28.156163,-25.919392],[28.155141,-25.920986],[28.154479,-25.922018],[28.153608,-25.923357],[28.152127,-25.925664]]}},{"type":"Feature","properties":{"id":"way/539466742","name":"Gautrain","network":"Gautrain"},"geometry":{"type":"LineString","coordinates":[[28.161364,-25.908217],[28.161246,-25.908661]]}},{"type":"Feature","properties":{"id":"way/539466743","name":"Gautrain","network":"Gautrain"},"geometry":{"type":"LineString","coordinates":[[28.161836,-25.906396],[28.161591,-25.907342],[28.161364,-25.908217]]}},{"type":"Feature","properties":{"id":"way/539466744","name":"Gautrain","network":"Gautrain"},"geometry":{"type":"LineString","coordinates":[[28.162154,-25.905222],[28.161836,-25.906396]]}},{"type":"Feature","properties":{"id":"way/539493014","name":"Gautrain","network":"Gautrain"},"geometry":{"type":"LineString","coordinates":[[28.148881,-25.931903],[28.148735,-25.93231]]}},{"type":"Feature","properties":{"id":"way/539493015","name":"Gautrain","network":"Gautrain"},"geometry":{"type":"LineString","coordinates":[[28.149309,-25.930697],[28.14907,-25.93137],[28.148881,-25.931903]]}},{"type":"Feature","properties":{"id":"way/539493016","name":"Gautrain","network":"Gautrain"},"geometry":{"type":"LineString","coordinates":[[28.142968,-25.948551],[28.143092,-25.948195]]}},{"type":"Feature","properties":{"id":"way/539493017","name":"Gautrain","network":"Gautrain"},"geometry":{"type":"LineString","coordinates":[[28.14241,-25.950409],[28.142662,-25.949518],[28.142968,-25.948551]]}},{"type":"Feature","properties":{"id":"way/688736651","name":"Gautrain","network":"Gautrain"},"geometry":{"type":"LineString","coordinates":[[28.191113,-25.760282],[28.191408,-25.760667],[28.19215,-25.761626],[28.192814,-25.762432]]}},{"type":"Feature","properties":{"id":"way/688736652","name":"Gautrain","network":"Gautrain"},"geometry":{"type":"LineString","coordinates":[[28.191013,-25.760344],[28.191339,-25.760766],[28.191408,-25.760858],[28.191587,-25.761085],[28.191916,-25.761479],[28.192072,-25.761662],[28.19222,-25.761848],[28.192449,-25.762139],[28.192743,-25.762521]]}},{"type":"Feature","properties":{"id":"way/722661547","name":"Gautrain","network":"Gautrain"},"geometry":{"type":"LineString","coordinates":[[28.238609,-25.747467],[28.23826,-25.747581],[28.237875,-25.747732],[28.237054,-25.747986]]}},{"type":"Feature","properties":{"id":"way/722661548","name":"Gautrain","network":"Gautrain"},"geometry":{"type":"LineString","coordinates":[[28.238649,-25.747577],[28.238893,-25.747491]]}},{"type":"Feature","properties":{"id":"way/722661549","name":"Gautrain","network":"Gautrain"},"geometry":{"type":"LineString","coordinates":[[28.237054,-25.747986],[28.236585,-25.748154],[28.236031,-25.748365],[28.235384,-25.748619],[28.234174,-25.749071],[28.233559,-25.749266],[28.23184,-25.749827],[28.230561,-25.750266],[28.230188,-25.750413],[28.229957,-25.75052],[28.229722,-25.750637],[28.229346,-25.750865],[28.228917,-25.751196],[28.2286,-25.751481],[28.228272,-25.75183],[28.227299,-25.752896],[28.226401,-25.753884],[28.225559,-25.754807],[28.224726,-25.755727]]}},{"type":"Feature","properties":{"id":"way/722661550","name":"Gautrain","network":"Gautrain"},"geometry":{"type":"LineString","coordinates":[[28.237077,-25.748102],[28.237918,-25.747826],[28.238649,-25.747577]]}},{"type":"Feature","properties":{"id":"way/744423347","name":"Gautrain","network":"Gautrain"},"geometry":{"type":"LineString","coordinates":[[28.18916,-25.851192],[28.189653,-25.851845],[28.190106,-25.852478]]}},{"type":"Feature","properties":{"id":"way/744423348","name":"Gautrain","network":"Gautrain"},"geometry":{"type":"LineString","coordinates":[[28.189123,-25.851213],[28.189602,-25.851868],[28.190064,-25.8525]]}},{"type":"Feature","properties":{"id":"way/744423349","name":"Gautrain","network":"Gautrain"},"geometry":{"type":"LineString","coordinates":[[28.190106,-25.852478],[28.190281,-25.852721],[28.190937,-25.8536],[28.191302,-25.854087],[28.191618,-25.854526],[28.19194,-25.854995],[28.192225,-25.855454],[28.192503,-25.855953],[28.192705,-25.856355],[28.192926,-25.856845],[28.193171,-25.857513],[28.193348,-25.858138],[28.193477,-25.858717],[28.193563,-25.859328],[28.193613,-25.859826],[28.19363,-25.86016],[28.193643,-25.860498],[28.193619,-25.861056],[28.193603,-25.861306],[28.193581,-25.861523],[28.193522,-25.861957],[28.193436,-25.862421],[28.193258,-25.863213],[28.193128,-25.863614],[28.192999,-25.863981],[28.192777,-25.86448],[28.192639,-25.864783],[28.192393,-25.865255],[28.192091,-25.865759],[28.191849,-25.866131],[28.191649,-25.866397],[28.191461,-25.86664],[28.190964,-25.867218],[28.190749,-25.867465],[28.190386,-25.867822],[28.189784,-25.868367],[28.189485,-25.868612],[28.188913,-25.869021],[28.18845,-25.869327],[28.188161,-25.8695],[28.187618,-25.869799]]}},{"type":"Feature","properties":{"id":"way/744423350","name":"Gautrain","network":"Gautrain"},"geometry":{"type":"LineString","coordinates":[[28.190064,-25.8525],[28.19025,-25.852755],[28.190909,-25.853635],[28.19126,-25.854115],[28.191568,-25.854545],[28.192189,-25.855482],[28.192479,-25.855994],[28.192669,-25.856366],[28.192881,-25.856858],[28.193117,-25.857524],[28.193302,-25.858147],[28.193434,-25.858729],[28.193528,-25.859339],[28.193571,-25.859839],[28.193595,-25.86017],[28.193598,-25.860508],[28.193581,-25.86106],[28.193557,-25.861311],[28.193533,-25.861545],[28.193477,-25.861965],[28.193394,-25.862417],[28.193203,-25.863223],[28.193085,-25.863623],[28.192954,-25.863978],[28.192726,-25.86448],[28.192586,-25.864782],[28.192353,-25.865231],[28.192053,-25.865733],[28.191814,-25.866101],[28.191436,-25.866604],[28.190925,-25.867204],[28.19072,-25.867442],[28.190357,-25.867796],[28.189755,-25.868339],[28.189452,-25.868583],[28.188877,-25.868997],[28.188413,-25.869302],[28.188131,-25.869469],[28.1876,-25.869768]]}},{"type":"Feature","properties":{"id":"way/746239490","name":"Gautrain","network":"Gautrain"},"geometry":{"type":"LineString","coordinates":[[28.192276,-25.76185],[28.192627,-25.762308]]}},{"type":"Feature","properties":{"id":"way/746239492","name":"Gautrain","network":"Gautrain"},"geometry":{"type":"LineString","coordinates":[[28.19104,-25.760187],[28.191113,-25.760282]]}},{"type":"Feature","properties":{"id":"way/754502372","name":"Gautrain","network":"Gautrain"},"geometry":{"type":"LineString","coordinates":[[28.189749,-25.7588],[28.190377,-25.759576],[28.191013,-25.760344]]}},{"type":"Feature","properties":{"id":"way/754502373","name":"Gautrain","network":"Gautrain"},"geometry":{"type":"LineString","coordinates":[[28.191113,-25.760282],[28.191422,-25.760733],[28.191534,-25.760892],[28.191847,-25.761297]]}},{"type":"Feature","properties":{"id":"way/818541697","name":"Gautrain","network":"Gautrain"},"geometry":{"type":"LineString","coordinates":[[28.190787,-25.780353],[28.190552,-25.780964],[28.190321,-25.781568]]}},{"type":"Feature","properties":{"id":"way/868619712","name":"Gautrain","network":"Gautrain"},"geometry":{"type":"LineString","coordinates":[[28.199378,-25.761471],[28.19905,-25.761732],[28.198546,-25.762136],[28.19827,-25.762357],[28.197988,-25.762579],[28.19727,-25.763157],[28.196944,-25.763397]]}},{"type":"Feature","properties":{"id":"way/868619713","name":"Gautrain","network":"Gautrain"},"geometry":{"type":"LineString","coordinates":[[28.199899,-25.761053],[28.199378,-25.761471]]}},{"type":"Feature","properties":{"id":"way/868619714","name":"Gautrain","network":"Gautrain"},"geometry":{"type":"LineString","coordinates":[[28.19935,-25.761547],[28.19993,-25.761085]]}},{"type":"Feature","properties":{"id":"way/868619715","name":"Gautrain","network":"Gautrain"},"geometry":{"type":"LineString","coordinates":[[28.196969,-25.76343],[28.19708,-25.763353],[28.197296,-25.76319],[28.198029,-25.76261],[28.198316,-25.762377],[28.198592,-25.762154],[28.198667,-25.762093],[28.199083,-25.761762],[28.19935,-25.761547]]}},{"type":"Feature","properties":{"id":"way/1133617128","name":"Unnamed","network":"Gautrain"},"geometry":{"type":"LineString","coordinates":[[28.23184,-25.749827],[28.232574,-25.749633]]}},{"type":"Feature","properties":{"id":"way/1435659590","name":"Gautrain","network":"Gautrain"},"geometry":{"type":"LineString","coordinates":[[28.192743,-25.762521],[28.192979,-25.762831]]}},{"type":"Feature","properties":{"id":"way/1435659591","name":"Gautrain","network":"Gautrain"},"geometry":{"type":"LineString","coordinates":[[28.192627,-25.762308],[28.192871,-25.762594],[28.193047,-25.762797]]}}]}