{"type":"FeatureCollection","features":[{"type":"Feature","properties":{"id":"atteridgeville","name":"Atteridgeville","labelPriority":"primary","selectionBasis":"census-main-place","subPlaceCount":3},"geometry":{"type":"MultiPolygon","coordinates":[[[[28.02648,-25.784296],[28.026731,-25.78418],[28.02701,-25.784788],[28.026949,-25.784946],[28.027159,-25.785442],[28.027498,-25.786631],[28.027807,-25.788113],[28.028677,-25.787962],[28.029009,-25.789112],[28.031767,-25.787415],[28.032441,-25.78588],[28.034746,-25.786661],[28.036077,-25.787149],[28.036928,-25.787315],[28.038221,-25.787262],[28.042948,-25.78577],[28.047308,-25.783958],[28.049662,-25.783035],[28.050249,-25.782774],[28.051294,-25.782093],[28.052305,-25.781082],[28.050133,-25.779254],[28.051207,-25.778151],[28.049631,-25.776836],[28.048151,-25.77515],[28.044088,-25.771754],[28.043846,-25.771762],[28.042727,-25.772825],[28.041647,-25.772008],[28.041291,-25.772408],[28.039175,-25.772969],[28.038969,-25.773102],[28.038221,-25.774275],[28.038008,-25.774979],[28.038004,-25.775431],[28.037558,-25.776417],[28.036169,-25.775938],[28.036318,-25.776655],[28.036091,-25.777148],[28.035284,-25.777811],[28.034348,-25.778655],[28.033454,-25.779352],[28.033495,-25.779399],[28.031124,-25.781509],[28.028303,-25.78323],[28.026861,-25.780519],[28.025049,-25.78121],[28.02648,-25.784296]]],[[[28.0571,-25.762798],[28.057512,-25.763647],[28.058271,-25.763313],[28.058363,-25.763105],[28.059725,-25.763556],[28.059858,-25.763403],[28.06035,-25.763447],[28.062025,-25.763889],[28.0641,-25.76469],[28.064329,-25.764902],[28.064756,-25.764996],[28.064428,-25.765804],[28.066126,-25.773195],[28.066595,-25.775291],[28.068041,-25.78161],[28.067976,-25.78199],[28.068129,-25.782558],[28.068068,-25.783394],[28.068239,-25.784224],[28.095415,-25.778738],[28.094784,-25.776634],[28.09962,-25.77555],[28.099144,-25.774151],[28.098898,-25.773237],[28.098562,-25.772314],[28.096308,-25.763973],[28.095358,-25.760538],[28.094118,-25.760626],[28.093317,-25.760616],[28.090532,-25.760427],[28.087622,-25.760206],[28.086897,-25.760189],[28.085577,-25.760286],[28.08042,-25.761],[28.079058,-25.761395],[28.07601,-25.76255],[28.075937,-25.762405],[28.075491,-25.762606],[28.073378,-25.763399],[28.073454,-25.76354],[28.072756,-25.763788],[28.072714,-25.76355],[28.072977,-25.761789],[28.073298,-25.760941],[28.070543,-25.760933],[28.067049,-25.760965],[28.064089,-25.760954],[28.062662,-25.760996],[28.061956,-25.761135],[28.058767,-25.762211],[28.0571,-25.762798]]]]}},{"type":"Feature","properties":{"id":"bosplaas-mathabe","name":"Bosplaas Mathabe","labelPriority":"secondary","selectionBasis":"census-main-place","subPlaceCount":1},"geometry":{"type":"Polygon","coordinates":[[[28.20466,-25.372536],[28.204359,-25.375746],[28.199282,-25.375412],[28.19681,-25.375235],[28.192568,-25.374691],[28.188799,-25.374485],[28.185396,-25.374514],[28.184572,-25.374853],[28.182997,-25.375103],[28.182371,-25.375254],[28.18309,-25.376153],[28.183558,-25.377106],[28.183612,-25.377628],[28.183828,-25.378347],[28.183846,-25.378761],[28.18372,-25.3793],[28.183468,-25.379822],[28.183252,-25.380541],[28.183396,-25.38117],[28.183018,-25.381224],[28.183109,-25.381929],[28.182173,-25.38192],[28.182158,-25.382013],[28.181184,-25.382261],[28.180894,-25.382887],[28.18004,-25.379183],[28.17937,-25.376556],[28.179363,-25.376257],[28.178682,-25.373638],[28.177881,-25.369577],[28.17667,-25.36587],[28.17667,-25.340441],[28.17675,-25.32859],[28.201481,-25.323709],[28.211081,-25.33462],[28.211149,-25.33469],[28.219873,-25.344591],[28.21847,-25.345228],[28.218267,-25.345409],[28.217691,-25.34487],[28.216356,-25.347067],[28.217807,-25.347946],[28.216733,-25.349519],[28.216096,-25.351431],[28.215896,-25.352497],[28.215975,-25.353788],[28.214281,-25.353788],[28.214296,-25.354862],[28.214216,-25.356312],[28.210684,-25.356199],[28.208155,-25.356041],[28.208067,-25.356524],[28.207636,-25.356447],[28.207499,-25.356968],[28.207321,-25.356948],[28.205195,-25.356251],[28.204475,-25.357232],[28.203849,-25.358265],[28.2034,-25.359381],[28.203296,-25.360706],[28.20316,-25.361541],[28.202993,-25.363513],[28.202972,-25.365026],[28.202993,-25.366644],[28.203139,-25.368313],[28.203243,-25.368751],[28.204199,-25.369526],[28.204351,-25.369942],[28.204817,-25.370754],[28.20466,-25.372536]]]}},{"type":"Feature","properties":{"id":"dilopye","name":"Dilopye","labelPriority":"secondary","selectionBasis":"census-main-place","subPlaceCount":1},"geometry":{"type":"Polygon","coordinates":[[[28.20112,-25.41291],[28.187849,-25.411442],[28.187654,-25.41087],[28.187468,-25.409624],[28.187021,-25.407497],[28.186468,-25.405067],[28.186338,-25.404802],[28.186384,-25.404129],[28.186155,-25.402695],[28.186068,-25.40243],[28.185743,-25.400072],[28.185759,-25.399446],[28.186018,-25.398951],[28.186071,-25.398455],[28.186457,-25.398287],[28.186323,-25.397768],[28.18667,-25.397408],[28.186441,-25.397205],[28.186651,-25.396883],[28.18675,-25.396444],[28.186579,-25.396006],[28.186285,-25.395763],[28.186079,-25.395061],[28.186243,-25.394756],[28.186014,-25.394398],[28.186083,-25.394081],[28.185732,-25.393736],[28.18572,-25.393488],[28.185289,-25.392578],[28.185518,-25.392382],[28.185537,-25.391783],[28.183161,-25.391903],[28.183054,-25.390411],[28.182909,-25.38946],[28.182558,-25.387825],[28.182089,-25.385891],[28.181833,-25.384512],[28.182158,-25.382013],[28.182173,-25.38192],[28.183109,-25.381929],[28.183018,-25.381224],[28.183396,-25.38117],[28.183252,-25.380541],[28.183468,-25.379822],[28.18372,-25.3793],[28.183846,-25.378761],[28.183828,-25.378347],[28.183612,-25.377628],[28.183558,-25.377106],[28.18309,-25.376153],[28.182371,-25.375254],[28.182997,-25.375103],[28.184572,-25.374853],[28.185396,-25.374514],[28.188799,-25.374485],[28.192568,-25.374691],[28.19681,-25.375235],[28.199282,-25.375412],[28.204359,-25.375746],[28.204226,-25.377399],[28.20381,-25.382002],[28.203478,-25.384802],[28.203321,-25.386797],[28.203192,-25.388977],[28.202921,-25.392256],[28.201167,-25.412085],[28.20112,-25.41291]]]}},{"type":"Feature","properties":{"id":"eersterust","name":"Eersterust","labelPriority":"secondary","selectionBasis":"census-main-place","subPlaceCount":5},"geometry":{"type":"Polygon","coordinates":[[[28.331007,-25.71632],[28.330912,-25.7155],[28.330351,-25.715397],[28.327052,-25.71534],[28.326292,-25.712187],[28.32493,-25.706438],[28.323732,-25.70145],[28.323153,-25.698845],[28.322321,-25.698944],[28.321336,-25.694782],[28.31131,-25.693265],[28.305575,-25.693193],[28.303905,-25.691233],[28.300566,-25.692902],[28.299656,-25.692578],[28.299071,-25.696929],[28.297548,-25.697258],[28.297609,-25.697554],[28.297258,-25.697714],[28.296778,-25.697672],[28.296366,-25.698719],[28.29685,-25.699055],[28.296892,-25.699457],[28.297201,-25.699484],[28.297365,-25.699837],[28.298098,-25.700991],[28.298658,-25.701523],[28.298872,-25.701572],[28.298861,-25.701872],[28.299246,-25.701994],[28.299498,-25.702778],[28.300104,-25.703753],[28.300322,-25.703766],[28.30057,-25.704475],[28.301607,-25.704866],[28.302126,-25.705154],[28.302603,-25.705729],[28.303324,-25.706738],[28.303904,-25.707018],[28.304331,-25.707373],[28.304701,-25.707878],[28.30514,-25.708086],[28.305258,-25.708397],[28.305994,-25.708792],[28.306967,-25.709219],[28.307207,-25.709223],[28.307859,-25.709522],[28.307432,-25.711451],[28.307177,-25.715],[28.301638,-25.714909],[28.29944,-25.714828],[28.299402,-25.714987],[28.298964,-25.714655],[28.298883,-25.714756],[28.298857,-25.715658],[28.298502,-25.716707],[28.300741,-25.717327],[28.302378,-25.717651],[28.304338,-25.717926],[28.306814,-25.718002],[28.30805,-25.717878],[28.308699,-25.717754],[28.312521,-25.717163],[28.313406,-25.717083],[28.319269,-25.716713],[28.320364,-25.716471],[28.321417,-25.71631],[28.322466,-25.716297],[28.323843,-25.71644],[28.325922,-25.716455],[28.329195,-25.716387],[28.331007,-25.71632]]]}},{"type":"Feature","properties":{"id":"ekangala","name":"Ekangala","labelPriority":"secondary","selectionBasis":"census-main-place","subPlaceCount":6},"geometry":{"type":"Polygon","coordinates":[[[28.706611,-25.709492],[28.709798,-25.71022],[28.710738,-25.710403],[28.713281,-25.71037],[28.718641,-25.71037],[28.724902,-25.710326],[28.725869,-25.710203],[28.726359,-25.710026],[28.729337,-25.70813],[28.72993,-25.707714],[28.730553,-25.707433],[28.731294,-25.70721],[28.731991,-25.707121],[28.733326,-25.707225],[28.733933,-25.707418],[28.734971,-25.707877],[28.736469,-25.708708],[28.73976,-25.710339],[28.740887,-25.707062],[28.741451,-25.705579],[28.742192,-25.703474],[28.743111,-25.701057],[28.743364,-25.700681],[28.74458,-25.701075],[28.745757,-25.701958],[28.746234,-25.702088],[28.74673,-25.702554],[28.747215,-25.702708],[28.748845,-25.702916],[28.749613,-25.703058],[28.751067,-25.703216],[28.75153,-25.703848],[28.75262,-25.704006],[28.753736,-25.704381],[28.753976,-25.704583],[28.755273,-25.704812],[28.756346,-25.704795],[28.757274,-25.704588],[28.757339,-25.703659],[28.756969,-25.7017],[28.75692,-25.700979],[28.75699,-25.699539],[28.757429,-25.69533],[28.75285,-25.693911],[28.756599,-25.684019],[28.759001,-25.67802],[28.765209,-25.650789],[28.76631,-25.64698],[28.73818,-25.633869],[28.723869,-25.631769],[28.722059,-25.64418],[28.719261,-25.65329],[28.714861,-25.6663],[28.708799,-25.682819],[28.708674,-25.683089],[28.71214,-25.684121],[28.71493,-25.684994],[28.7167,-25.685522],[28.714316,-25.69046],[28.713662,-25.691738],[28.712213,-25.694691],[28.711418,-25.696483],[28.710684,-25.698433],[28.708972,-25.703123],[28.706611,-25.709492]]]}},{"type":"Feature","properties":{"id":"ga-rankuwa","name":"Ga-Rankuwa","labelPriority":"secondary","selectionBasis":"census-main-place","subPlaceCount":22},"geometry":{"type":"Polygon","coordinates":[[[28.026851,-25.622614],[28.026617,-25.621934],[28.02801,-25.620503],[28.028215,-25.620224],[28.032288,-25.61533],[28.033028,-25.614509],[28.033743,-25.613595],[28.035236,-25.611854],[28.035873,-25.610986],[28.035074,-25.610817],[28.030878,-25.609228],[28.030802,-25.608969],[28.029818,-25.608631],[28.031309,-25.605644],[28.031149,-25.604324],[28.033079,-25.60322],[28.036924,-25.592861],[28.038233,-25.591553],[28.039011,-25.590628],[28.038992,-25.590358],[28.039415,-25.58926],[28.040479,-25.587157],[28.041118,-25.585541],[28.041471,-25.584803],[28.041695,-25.584643],[28.041981,-25.583725],[28.042921,-25.581625],[28.043862,-25.579849],[28.046213,-25.57661],[28.047101,-25.574938],[28.047937,-25.573057],[28.04898,-25.571733],[28.047529,-25.571514],[28.04756,-25.571339],[28.048372,-25.569603],[28.047728,-25.569441],[28.04624,-25.568953],[28.045313,-25.568744],[28.043379,-25.568051],[28.046252,-25.564049],[28.048697,-25.560787],[28.048808,-25.560545],[28.049509,-25.559561],[28.040079,-25.558969],[28.030649,-25.558359],[28.0151,-25.55344],[28.009687,-25.551722],[28.006586,-25.555954],[28.0049,-25.555683],[28.003229,-25.555326],[28.001703,-25.55508],[27.999613,-25.554945],[27.996809,-25.55444],[27.994925,-25.553947],[27.994014,-25.553663],[27.994235,-25.553057],[27.99514,-25.551158],[27.994862,-25.551032],[27.995035,-25.550632],[27.994795,-25.55045],[27.994803,-25.550042],[27.994336,-25.549495],[27.99399,-25.549229],[27.991535,-25.548383],[27.991333,-25.547962],[27.990457,-25.547431],[27.990093,-25.54734],[27.990573,-25.546323],[27.990768,-25.545709],[27.981461,-25.542749],[27.97546,-25.55567],[27.974356,-25.558062],[27.96834,-25.570999],[27.96456,-25.58025],[27.95763,-25.592621],[27.97216,-25.59791],[27.976231,-25.614571],[27.977011,-25.617849],[27.97716,-25.61828],[27.983545,-25.618814],[27.993021,-25.619707],[27.998465,-25.620136],[28.009859,-25.62113],[28.013296,-25.621445],[28.014692,-25.62154],[28.017981,-25.62184],[28.019472,-25.621944],[28.026851,-25.622614]]]}},{"type":"Feature","properties":{"id":"hebron","name":"Hebron","labelPriority":"secondary","selectionBasis":"census-main-place","subPlaceCount":1},"geometry":{"type":"Polygon","coordinates":[[[27.990768,-25.545709],[28.009687,-25.551722],[28.006586,-25.555954],[28.0049,-25.555683],[28.003229,-25.555326],[28.001703,-25.55508],[27.999613,-25.554945],[27.996809,-25.55444],[27.994925,-25.553947],[27.994014,-25.553663],[27.994235,-25.553057],[27.99514,-25.551158],[27.994862,-25.551032],[27.995035,-25.550632],[27.994795,-25.55045],[27.994803,-25.550042],[27.994336,-25.549495],[27.99399,-25.549229],[27.991535,-25.548383],[27.991333,-25.547962],[27.990457,-25.547431],[27.990093,-25.54734],[27.990573,-25.546323],[27.990768,-25.545709]]]}},{"type":"Feature","properties":{"id":"kekana-garden","name":"Kekana Garden","labelPriority":"secondary","selectionBasis":"census-main-place","subPlaceCount":1},"geometry":{"type":"Polygon","coordinates":[[[28.303624,-25.382538],[28.302524,-25.383343],[28.301765,-25.384012],[28.300943,-25.385135],[28.300519,-25.386108],[28.300323,-25.387095],[28.299143,-25.387092],[28.299547,-25.38162],[28.299787,-25.378116],[28.299841,-25.376923],[28.299797,-25.374701],[28.299468,-25.369275],[28.299255,-25.366128],[28.300801,-25.365853],[28.303839,-25.365134],[28.304972,-25.364895],[28.30621,-25.364485],[28.307691,-25.364152],[28.31063,-25.363432],[28.31157,-25.363247],[28.311205,-25.364478],[28.312125,-25.366267],[28.312416,-25.366916],[28.312763,-25.369799],[28.315185,-25.370081],[28.315503,-25.369151],[28.316626,-25.369244],[28.316345,-25.370212],[28.319693,-25.37061],[28.319807,-25.370725],[28.31934,-25.371049],[28.315159,-25.374156],[28.313024,-25.375669],[28.310756,-25.377391],[28.309949,-25.377962],[28.309783,-25.37821],[28.308983,-25.378687],[28.308036,-25.379354],[28.303624,-25.382538]]]}},{"type":"Feature","properties":{"id":"laudium","name":"Laudium","labelPriority":"secondary","selectionBasis":"census-main-place","subPlaceCount":3},"geometry":{"type":"Polygon","coordinates":[[[28.09962,-25.77555],[28.094784,-25.776634],[28.095415,-25.778738],[28.068239,-25.784224],[28.068146,-25.784777],[28.067705,-25.784925],[28.067686,-25.787525],[28.06771,-25.788024],[28.074591,-25.787205],[28.076979,-25.786905],[28.077467,-25.786912],[28.080159,-25.786592],[28.082796,-25.786137],[28.085939,-25.785759],[28.088583,-25.785242],[28.089331,-25.785149],[28.08861,-25.792738],[28.088346,-25.796064],[28.087969,-25.799139],[28.09268,-25.799465],[28.092585,-25.800278],[28.09247,-25.802032],[28.094099,-25.802141],[28.096441,-25.802336],[28.096798,-25.798074],[28.097013,-25.79718],[28.103872,-25.796421],[28.105776,-25.797186],[28.105974,-25.796692],[28.107929,-25.792857],[28.107883,-25.792811],[28.107528,-25.790366],[28.108919,-25.789499],[28.109476,-25.789246],[28.109388,-25.788866],[28.109365,-25.787601],[28.109464,-25.786952],[28.10958,-25.78691],[28.109854,-25.786058],[28.11014,-25.786457],[28.110815,-25.785702],[28.111124,-25.785461],[28.112036,-25.784983],[28.11223,-25.784803],[28.113064,-25.78441],[28.113769,-25.783805],[28.114076,-25.783327],[28.11433,-25.782568],[28.114334,-25.781947],[28.113977,-25.781088],[28.114237,-25.780556],[28.114443,-25.780441],[28.114248,-25.779751],[28.114233,-25.778849],[28.114313,-25.778265],[28.11463,-25.777537],[28.1093,-25.776143],[28.105443,-25.777406],[28.104251,-25.777967],[28.100254,-25.778528],[28.09962,-25.77555]]]}},{"type":"Feature","properties":{"id":"lotus-gardens","name":"Lotus Gardens","labelPriority":"secondary","selectionBasis":"named-sub-places","subPlaceCount":2},"geometry":{"type":"Polygon","coordinates":[[[28.063058,-25.743381],[28.063778,-25.746582],[28.063868,-25.746559],[28.064043,-25.747414],[28.065935,-25.755745],[28.065841,-25.755782],[28.06674,-25.759567],[28.072454,-25.758074],[28.072405,-25.757812],[28.076159,-25.756632],[28.080645,-25.755165],[28.086412,-25.753761],[28.090094,-25.753101],[28.094194,-25.752419],[28.100981,-25.751411],[28.107096,-25.750465],[28.106653,-25.749521],[28.106421,-25.749449],[28.105864,-25.748322],[28.105604,-25.747545],[28.105238,-25.746979],[28.104155,-25.746037],[28.101244,-25.743727],[28.100512,-25.743608],[28.098276,-25.744186],[28.094896,-25.745117],[28.093523,-25.745451],[28.092009,-25.745672],[28.091665,-25.744394],[28.090689,-25.742573],[28.090326,-25.742422],[28.085001,-25.741014],[28.084093,-25.741093],[28.07688,-25.741913],[28.072821,-25.742321],[28.064779,-25.743208],[28.063058,-25.743381]]]}},{"type":"Feature","properties":{"id":"mabopane","name":"Mabopane","labelPriority":"secondary","selectionBasis":"census-main-place","subPlaceCount":19},"geometry":{"type":"Polygon","coordinates":[[[28.002535,-25.498546],[28.003942,-25.499269],[28.00463,-25.499848],[28.005972,-25.500425],[28.007063,-25.501093],[28.0077,-25.501163],[28.00839,-25.501081],[28.009134,-25.499695],[28.01243,-25.494427],[28.012506,-25.494402],[28.013399,-25.493147],[28.01248,-25.492496],[28.015203,-25.490154],[28.016699,-25.489141],[28.016672,-25.489464],[28.017496,-25.489325],[28.017698,-25.488918],[28.018419,-25.488611],[28.018763,-25.488779],[28.019354,-25.489244],[28.019667,-25.489672],[28.020426,-25.490168],[28.021093,-25.490202],[28.021692,-25.490759],[28.021521,-25.491325],[28.02165,-25.491732],[28.021498,-25.492119],[28.021658,-25.492296],[28.02178,-25.493055],[28.021715,-25.49325],[28.022043,-25.493883],[28.022318,-25.49481],[28.020319,-25.495821],[28.01763,-25.497221],[28.018476,-25.498407],[28.017424,-25.499727],[28.015196,-25.503269],[28.014999,-25.50367],[28.013949,-25.505445],[28.013361,-25.506374],[28.012362,-25.507732],[28.011415,-25.509375],[28.010584,-25.510883],[28.008959,-25.513372],[28.008249,-25.514406],[28.007349,-25.515881],[28.006693,-25.517092],[28.005289,-25.519911],[28.003801,-25.522532],[28.01512,-25.52702],[28.024422,-25.530701],[28.03632,-25.532881],[28.038389,-25.533251],[28.046659,-25.534769],[28.0497,-25.53528],[28.052401,-25.535801],[28.050722,-25.549644],[28.051389,-25.54969],[28.058322,-25.549914],[28.060163,-25.549987],[28.065006,-25.550095],[28.06698,-25.550152],[28.0674,-25.550339],[28.068117,-25.550447],[28.068407,-25.550812],[28.068964,-25.550919],[28.072035,-25.551182],[28.072317,-25.550169],[28.072741,-25.548956],[28.07387,-25.546864],[28.077501,-25.540468],[28.081251,-25.533941],[28.082529,-25.531418],[28.083101,-25.529285],[28.0832,-25.527411],[28.082869,-25.523907],[28.082735,-25.521494],[28.083055,-25.519215],[28.083754,-25.517193],[28.083906,-25.516851],[28.085321,-25.513098],[28.086306,-25.510614],[28.086615,-25.509373],[28.087782,-25.504389],[28.088903,-25.49992],[28.090029,-25.495199],[28.091772,-25.495518],[28.092363,-25.495687],[28.09366,-25.490265],[28.094927,-25.484922],[28.089788,-25.485462],[28.087786,-25.485744],[28.084967,-25.486048],[28.084129,-25.486195],[28.082827,-25.488608],[28.082496,-25.488933],[28.082465,-25.489754],[28.082746,-25.489953],[28.082478,-25.490692],[28.082563,-25.490931],[28.082758,-25.492559],[28.082987,-25.494164],[28.081068,-25.49453],[28.080332,-25.494967],[28.079645,-25.495058],[28.079184,-25.494991],[28.068472,-25.497189],[28.066407,-25.497644],[28.065969,-25.497636],[28.063829,-25.497051],[28.064024,-25.49637],[28.064067,-25.495783],[28.063935,-25.49452],[28.06307,-25.494627],[28.060896,-25.494715],[28.047544,-25.494907],[28.046,-25.494871],[28.045507,-25.494814],[28.048059,-25.486574],[28.047937,-25.486559],[28.043406,-25.48653],[28.038286,-25.486546],[28.027826,-25.486423],[28.022799,-25.486391],[28.022398,-25.486448],[28.021624,-25.485598],[28.02136,-25.485188],[28.021124,-25.484524],[28.021669,-25.484209],[28.022768,-25.484144],[28.02294,-25.48428],[28.023752,-25.484037],[28.024031,-25.48378],[28.025145,-25.483152],[28.026495,-25.482975],[28.026812,-25.482996],[28.027613,-25.482796],[28.027987,-25.482866],[28.028715,-25.482759],[28.029043,-25.482452],[28.029882,-25.482231],[28.030134,-25.482038],[28.031191,-25.481668],[28.032217,-25.48164],[28.032511,-25.481482],[28.032755,-25.480953],[28.033182,-25.480698],[28.033304,-25.480068],[28.033575,-25.479912],[28.034075,-25.479055],[28.03356,-25.47821],[28.03224,-25.476213],[28.030626,-25.473963],[28.0301,-25.472994],[28.01193,-25.480459],[28.011746,-25.480611],[28.008398,-25.48694],[28.007868,-25.48749],[28.007418,-25.488962],[28.006254,-25.491262],[28.00506,-25.493431],[28.004068,-25.495506],[28.002535,-25.498546]]]}},{"type":"Feature","properties":{"id":"majaneng","name":"Majaneng","labelPriority":"secondary","selectionBasis":"census-main-place","subPlaceCount":1},"geometry":{"type":"Polygon","coordinates":[[[28.271688,-25.35723],[28.267653,-25.358265],[28.266397,-25.358494],[28.261786,-25.359583],[28.258707,-25.360334],[28.25443,-25.361347],[28.252187,-25.360814],[28.251359,-25.360906],[28.250758,-25.361105],[28.249663,-25.361604],[28.249489,-25.361599],[28.248791,-25.361957],[28.249024,-25.362815],[28.245139,-25.363801],[28.244545,-25.364285],[28.243921,-25.364048],[28.241074,-25.364745],[28.240889,-25.363345],[28.24062,-25.361833],[28.240248,-25.361905],[28.240094,-25.361279],[28.23944,-25.361497],[28.238176,-25.36206],[28.237064,-25.362639],[28.237412,-25.363771],[28.237722,-25.365567],[28.235998,-25.365999],[28.230648,-25.367272],[28.230646,-25.366022],[28.230471,-25.365908],[28.230158,-25.365271],[28.229982,-25.364447],[28.22975,-25.362108],[28.229471,-25.361085],[28.229241,-25.360473],[28.228801,-25.358226],[28.228668,-25.357274],[28.228662,-25.35597],[28.228544,-25.354144],[28.251711,-25.349257],[28.269503,-25.345494],[28.269703,-25.346205],[28.270252,-25.345948],[28.270969,-25.345995],[28.270644,-25.346309],[28.27077,-25.346691],[28.270388,-25.347376],[28.270346,-25.348301],[28.270556,-25.349609],[28.27111,-25.349671],[28.271099,-25.350063],[28.270817,-25.350351],[28.270367,-25.350571],[28.270409,-25.350921],[28.270242,-25.351245],[28.270503,-25.351512],[28.270289,-25.35171],[28.270048,-25.351496],[28.269745,-25.351501],[28.269703,-25.3517],[28.269996,-25.351841],[28.270179,-25.352244],[28.270828,-25.352552],[28.270796,-25.353138],[28.271167,-25.35398],[28.271241,-25.354314],[28.27175,-25.35419],[28.271528,-25.35375],[28.271994,-25.353823],[28.271962,-25.35341],[28.272255,-25.35341],[28.272658,-25.353697],[28.272945,-25.354785],[28.272726,-25.355193],[28.272459,-25.354869],[28.272009,-25.355031],[28.272114,-25.355454],[28.271675,-25.356003],[28.271512,-25.356375],[28.271688,-25.35723]]]}},{"type":"Feature","properties":{"id":"makanyaneng","name":"Makanyaneng","labelPriority":"secondary","selectionBasis":"census-main-place","subPlaceCount":1},"geometry":{"type":"Polygon","coordinates":[[[28.00043,-25.500176],[28.007509,-25.484091],[28.011746,-25.480611],[28.008398,-25.48694],[28.007868,-25.48749],[28.007418,-25.488962],[28.006254,-25.491262],[28.00506,-25.493431],[28.004068,-25.495506],[28.002535,-25.498546],[28.002325,-25.499441],[28.001646,-25.500933],[28.00043,-25.500176]]]}},{"type":"Feature","properties":{"id":"mamelodi","name":"Mamelodi","labelPriority":"primary","selectionBasis":"census-main-place","subPlaceCount":54},"geometry":{"type":"Polygon","coordinates":[[[28.321336,-25.694782],[28.322321,-25.698944],[28.323153,-25.698845],[28.323732,-25.70145],[28.32493,-25.706438],[28.326292,-25.712187],[28.327052,-25.71534],[28.330351,-25.715397],[28.330912,-25.7155],[28.331007,-25.71632],[28.331345,-25.717526],[28.332926,-25.71806],[28.335352,-25.718729],[28.334943,-25.719051],[28.3359,-25.719425],[28.335965,-25.719275],[28.338099,-25.719931],[28.338243,-25.719591],[28.344488,-25.72155],[28.349112,-25.723032],[28.350336,-25.723269],[28.351797,-25.723282],[28.352789,-25.723167],[28.354803,-25.722872],[28.355211,-25.723246],[28.355669,-25.723442],[28.356337,-25.723883],[28.356749,-25.723967],[28.357821,-25.724503],[28.359018,-25.725555],[28.359446,-25.725983],[28.360415,-25.726093],[28.364187,-25.725943],[28.364805,-25.725992],[28.365065,-25.726561],[28.365503,-25.728027],[28.365751,-25.728325],[28.365774,-25.728704],[28.36603,-25.72908],[28.367323,-25.728994],[28.367284,-25.72865],[28.368444,-25.727516],[28.369158,-25.727394],[28.370591,-25.72748],[28.370619,-25.727026],[28.371641,-25.726973],[28.374018,-25.727379],[28.374854,-25.727577],[28.37718,-25.728506],[28.379225,-25.729597],[28.379624,-25.729932],[28.380899,-25.730671],[28.381337,-25.730782],[28.383993,-25.732264],[28.384922,-25.732922],[28.386396,-25.733608],[28.387636,-25.7344],[28.389803,-25.735615],[28.391649,-25.736578],[28.392138,-25.737036],[28.392443,-25.737526],[28.391466,-25.738306],[28.39065,-25.738817],[28.389063,-25.739481],[28.388216,-25.739738],[28.387289,-25.739874],[28.386217,-25.739958],[28.38413,-25.739874],[28.382093,-25.740068],[28.380766,-25.740345],[28.418515,-25.753742],[28.419494,-25.753512],[28.417082,-25.74855],[28.408922,-25.73138],[28.408392,-25.7304],[28.413721,-25.73103],[28.417063,-25.73139],[28.419992,-25.73173],[28.420813,-25.731909],[28.422472,-25.732519],[28.423292,-25.732969],[28.424379,-25.73349],[28.42676,-25.73456],[28.427382,-25.73488],[28.429201,-25.735689],[28.43054,-25.73604],[28.43117,-25.73616],[28.432032,-25.736219],[28.433561,-25.736139],[28.434572,-25.73591],[28.43643,-25.73531],[28.439013,-25.73451],[28.440512,-25.73427],[28.44124,-25.73424],[28.442942,-25.73436],[28.44348,-25.734449],[28.445211,-25.734579],[28.445303,-25.734472],[28.44507,-25.73134],[28.446162,-25.732178],[28.447213,-25.731172],[28.447274,-25.731239],[28.44789,-25.730606],[28.446973,-25.730286],[28.446421,-25.729795],[28.446196,-25.729838],[28.445337,-25.728881],[28.445745,-25.728595],[28.445242,-25.727989],[28.444871,-25.72709],[28.444999,-25.726914],[28.444653,-25.726311],[28.44401,-25.71859],[28.443781,-25.715939],[28.443121,-25.70801],[28.437952,-25.703539],[28.4345,-25.700569],[28.42885,-25.69574],[28.425081,-25.69253],[28.421419,-25.688549],[28.420252,-25.68726],[28.417501,-25.68541],[28.417391,-25.68531],[28.41556,-25.686228],[28.414768,-25.686542],[28.412781,-25.687677],[28.410439,-25.688963],[28.410475,-25.689016],[28.409182,-25.68976],[28.406905,-25.69101],[28.406881,-25.690971],[28.405458,-25.691733],[28.405081,-25.692103],[28.404627,-25.691913],[28.404095,-25.692178],[28.403063,-25.692534],[28.403034,-25.692769],[28.401629,-25.693359],[28.40173,-25.694025],[28.400475,-25.694472],[28.399871,-25.694767],[28.399383,-25.694298],[28.395414,-25.69595],[28.395074,-25.695574],[28.394546,-25.695878],[28.394725,-25.696082],[28.394491,-25.696212],[28.393724,-25.696302],[28.394144,-25.697332],[28.39472,-25.697332],[28.394957,-25.697596],[28.394823,-25.698301],[28.395247,-25.698435],[28.394293,-25.700706],[28.393366,-25.701378],[28.392992,-25.701496],[28.391626,-25.700226],[28.390585,-25.699965],[28.390295,-25.699627],[28.389921,-25.699406],[28.389311,-25.699379],[28.389338,-25.699135],[28.388693,-25.698954],[28.386816,-25.699104],[28.386316,-25.698887],[28.385431,-25.698944],[28.38542,-25.699402],[28.383684,-25.699459],[28.382326,-25.699171],[28.382326,-25.698788],[28.382021,-25.698727],[28.382296,-25.697977],[28.381289,-25.697763],[28.380857,-25.698252],[28.380861,-25.698761],[28.380411,-25.69866],[28.380205,-25.698965],[28.379803,-25.699085],[28.379776,-25.699515],[28.380663,-25.699545],[28.381475,-25.699717],[28.381763,-25.700425],[28.382235,-25.700575],[28.382392,-25.701026],[28.383493,-25.701071],[28.383867,-25.701181],[28.383909,-25.7015],[28.384642,-25.701328],[28.385077,-25.701372],[28.385218,-25.701851],[28.382944,-25.702425],[28.38146,-25.702406],[28.380201,-25.702551],[28.380098,-25.702995],[28.379068,-25.70277],[28.379034,-25.702398],[28.378502,-25.70214],[28.378149,-25.701788],[28.377871,-25.701746],[28.376284,-25.701822],[28.375082,-25.701544],[28.373472,-25.70163],[28.370497,-25.7015],[28.370268,-25.701664],[28.369703,-25.701687],[28.369215,-25.70199],[28.368341,-25.701956],[28.367449,-25.701548],[28.366861,-25.701479],[28.366423,-25.701603],[28.366175,-25.702078],[28.365664,-25.702265],[28.365244,-25.702183],[28.364187,-25.702791],[28.363459,-25.702896],[28.362177,-25.702398],[28.361837,-25.70219],[28.360765,-25.701748],[28.360117,-25.701195],[28.359514,-25.700453],[28.357927,-25.699223],[28.357679,-25.699154],[28.357615,-25.69949],[28.357241,-25.699963],[28.356951,-25.700108],[28.355932,-25.700872],[28.354307,-25.701443],[28.353765,-25.701485],[28.352301,-25.701731],[28.351549,-25.701763],[28.350729,-25.701698],[28.350286,-25.701588],[28.349222,-25.701529],[28.347506,-25.70118],[28.346315,-25.700848],[28.345179,-25.700415],[28.345263,-25.70014],[28.344441,-25.69997],[28.344459,-25.699866],[28.343793,-25.699654],[28.343852,-25.699461],[28.34296,-25.699231],[28.34278,-25.699776],[28.342279,-25.699703],[28.341265,-25.700403],[28.340036,-25.700745],[28.33882,-25.701008],[28.336294,-25.701086],[28.334023,-25.700681],[28.334829,-25.694581],[28.327002,-25.695428],[28.326064,-25.695497],[28.321336,-25.694782]]]}},{"type":"Feature","properties":{"id":"mandela-village","name":"Mandela Village","labelPriority":"secondary","selectionBasis":"census-main-place","subPlaceCount":1},"geometry":{"type":"Polygon","coordinates":[[[28.283102,-25.402058],[28.283846,-25.401978],[28.291155,-25.396282],[28.292051,-25.39562],[28.292585,-25.395119],[28.293364,-25.39422],[28.296133,-25.390503],[28.296305,-25.390331],[28.298716,-25.387058],[28.299143,-25.387092],[28.300323,-25.387095],[28.300519,-25.386108],[28.300943,-25.385135],[28.301765,-25.384012],[28.302524,-25.383343],[28.303624,-25.382538],[28.305604,-25.383452],[28.305844,-25.383739],[28.306065,-25.383661],[28.310934,-25.385887],[28.310665,-25.386367],[28.310704,-25.386876],[28.310934,-25.387742],[28.311219,-25.388532],[28.312483,-25.38879],[28.315962,-25.38942],[28.31608,-25.389849],[28.31584,-25.390299],[28.315382,-25.390869],[28.315222,-25.39127],[28.314772,-25.392],[28.314371,-25.392809],[28.314199,-25.39332],[28.312952,-25.39455],[28.312292,-25.39572],[28.311819,-25.397449],[28.311892,-25.3985],[28.312101,-25.399319],[28.312693,-25.400789],[28.312768,-25.401599],[28.310696,-25.401143],[28.309879,-25.401042],[28.308849,-25.401025],[28.307541,-25.401203],[28.299177,-25.402765],[28.298094,-25.402981],[28.298189,-25.400646],[28.289877,-25.40184],[28.287136,-25.402184],[28.283007,-25.402773],[28.283102,-25.402058]]]}},{"type":"Feature","properties":{"id":"marokolong","name":"Marokolong","labelPriority":"secondary","selectionBasis":"census-main-place","subPlaceCount":1},"geometry":{"type":"Polygon","coordinates":[[[28.299547,-25.38162],[28.299143,-25.387092],[28.298716,-25.387058],[28.296305,-25.390331],[28.296133,-25.390503],[28.293364,-25.39422],[28.292585,-25.395119],[28.292051,-25.39562],[28.291155,-25.396282],[28.283846,-25.401978],[28.283102,-25.402058],[28.281042,-25.402042],[28.280359,-25.402166],[28.279799,-25.402456],[28.279474,-25.402807],[28.279173,-25.403782],[28.27891,-25.404228],[28.278067,-25.404966],[28.277964,-25.404194],[28.277567,-25.403296],[28.277895,-25.402536],[28.277685,-25.402277],[28.277086,-25.401907],[28.276888,-25.401512],[28.276865,-25.40106],[28.276651,-25.400482],[28.275976,-25.400414],[28.275629,-25.400864],[28.275152,-25.400414],[28.275209,-25.400063],[28.275461,-25.399584],[28.275167,-25.399008],[28.274744,-25.398684],[28.273787,-25.398642],[28.273691,-25.398291],[28.27376,-25.397194],[28.273752,-25.396013],[28.274931,-25.395428],[28.274931,-25.394871],[28.275133,-25.394398],[28.274874,-25.39395],[28.274401,-25.39225],[28.273928,-25.392344],[28.27239,-25.392504],[28.272272,-25.392107],[28.273428,-25.390966],[28.273447,-25.390829],[28.273054,-25.390387],[28.273371,-25.390011],[28.273527,-25.389576],[28.274084,-25.389532],[28.276152,-25.389172],[28.277067,-25.388973],[28.276228,-25.387821],[28.276491,-25.386284],[28.276205,-25.386034],[28.27561,-25.385944],[28.275297,-25.385365],[28.275862,-25.384413],[28.275663,-25.383839],[28.275854,-25.383064],[28.275839,-25.382692],[28.276014,-25.382013],[28.276594,-25.380972],[28.276144,-25.380369],[28.275698,-25.380447],[28.275126,-25.380392],[28.274767,-25.380192],[28.274675,-25.379946],[28.274801,-25.379623],[28.274305,-25.379061],[28.273581,-25.377918],[28.274469,-25.377222],[28.274618,-25.377251],[28.27458,-25.377741],[28.2749,-25.37797],[28.27548,-25.377964],[28.275728,-25.377462],[28.275583,-25.377056],[28.275694,-25.376671],[28.275068,-25.376392],[28.275187,-25.375692],[28.275381,-25.375162],[28.275015,-25.373865],[28.276125,-25.37348],[28.279497,-25.373545],[28.279654,-25.368679],[28.283045,-25.368773],[28.284166,-25.368608],[28.284708,-25.368584],[28.284979,-25.36875],[28.291394,-25.373994],[28.293724,-25.376013],[28.2949,-25.376969],[28.297632,-25.379248],[28.297731,-25.379393],[28.298088,-25.381505],[28.299547,-25.38162]]]}},{"type":"Feature","properties":{"id":"mashemong","name":"Mashemong","labelPriority":"secondary","selectionBasis":"census-main-place","subPlaceCount":1},"geometry":{"type":"Polygon","coordinates":[[[28.219873,-25.344591],[28.228331,-25.354191],[28.228544,-25.354144],[28.228662,-25.35597],[28.228668,-25.357274],[28.228801,-25.358226],[28.229241,-25.360473],[28.229471,-25.361085],[28.22975,-25.362108],[28.229982,-25.364447],[28.230158,-25.365271],[28.230471,-25.365908],[28.2274,-25.367443],[28.224474,-25.368885],[28.218893,-25.371658],[28.217535,-25.37232],[28.215651,-25.373308],[28.212576,-25.375254],[28.212405,-25.375411],[28.212124,-25.375256],[28.210207,-25.374498],[28.209486,-25.374264],[28.209047,-25.374033],[28.207907,-25.372667],[28.207827,-25.372225],[28.207026,-25.372469],[28.206587,-25.372522],[28.20466,-25.372536],[28.204817,-25.370754],[28.204351,-25.369942],[28.204199,-25.369526],[28.203243,-25.368751],[28.203139,-25.368313],[28.202993,-25.366644],[28.202972,-25.365026],[28.202993,-25.363513],[28.20316,-25.361541],[28.203296,-25.360706],[28.2034,-25.359381],[28.203849,-25.358265],[28.204475,-25.357232],[28.205195,-25.356251],[28.207321,-25.356948],[28.207499,-25.356968],[28.207636,-25.356447],[28.208067,-25.356524],[28.208155,-25.356041],[28.210684,-25.356199],[28.214216,-25.356312],[28.214296,-25.354862],[28.214281,-25.353788],[28.215975,-25.353788],[28.215896,-25.352497],[28.216096,-25.351431],[28.216733,-25.349519],[28.217807,-25.347946],[28.216356,-25.347067],[28.217691,-25.34487],[28.218267,-25.345409],[28.21847,-25.345228],[28.219873,-25.344591]]]}},{"type":"Feature","properties":{"id":"nellmapius","name":"Nellmapius","labelPriority":"secondary","selectionBasis":"census-main-place","subPlaceCount":7},"geometry":{"type":"Polygon","coordinates":[[[28.380766,-25.740345],[28.382093,-25.740068],[28.38413,-25.739874],[28.386217,-25.739958],[28.387289,-25.739874],[28.388216,-25.739738],[28.389063,-25.739481],[28.39065,-25.738817],[28.391466,-25.738306],[28.392443,-25.737526],[28.392138,-25.737036],[28.391649,-25.736578],[28.389803,-25.735615],[28.387636,-25.7344],[28.386396,-25.733608],[28.384922,-25.732922],[28.383993,-25.732264],[28.381337,-25.730782],[28.380899,-25.730671],[28.379624,-25.729932],[28.379225,-25.729597],[28.37718,-25.728506],[28.374854,-25.727577],[28.374018,-25.727379],[28.371641,-25.726973],[28.370619,-25.727026],[28.370591,-25.72748],[28.369158,-25.727394],[28.368444,-25.727516],[28.367284,-25.72865],[28.367323,-25.728994],[28.36603,-25.72908],[28.365774,-25.728704],[28.365751,-25.728325],[28.365503,-25.728027],[28.365065,-25.726561],[28.364805,-25.725992],[28.364187,-25.725943],[28.360415,-25.726093],[28.359446,-25.725983],[28.359018,-25.725555],[28.357821,-25.724503],[28.356749,-25.723967],[28.356337,-25.723883],[28.355669,-25.723442],[28.355211,-25.723246],[28.354803,-25.722872],[28.352789,-25.723167],[28.351797,-25.723282],[28.350336,-25.723269],[28.349112,-25.723032],[28.344488,-25.72155],[28.344143,-25.722141],[28.345148,-25.72404],[28.345169,-25.724146],[28.343831,-25.727716],[28.343656,-25.728086],[28.342736,-25.730492],[28.342567,-25.730666],[28.339352,-25.729895],[28.336404,-25.729096],[28.335178,-25.728857],[28.334502,-25.731739],[28.333399,-25.736556],[28.333152,-25.737495],[28.333292,-25.737709],[28.33299,-25.738927],[28.336195,-25.740034],[28.340315,-25.741436],[28.343561,-25.742556],[28.343706,-25.743383],[28.345026,-25.744326],[28.346334,-25.745209],[28.346388,-25.745422],[28.346033,-25.746218],[28.344973,-25.748423],[28.344339,-25.749985],[28.344072,-25.750526],[28.343107,-25.753107],[28.341864,-25.755442],[28.343325,-25.756109],[28.352457,-25.757933],[28.362022,-25.759909],[28.36841,-25.751379],[28.377481,-25.73918],[28.380766,-25.740345]]]}},{"type":"Feature","properties":{"id":"new-eersterus","name":"New Eersterus","labelPriority":"secondary","selectionBasis":"census-main-place","subPlaceCount":1},"geometry":{"type":"Polygon","coordinates":[[[28.156361,-25.438993],[28.128431,-25.444658],[28.125875,-25.445087],[28.125517,-25.44416],[28.124662,-25.440159],[28.12319,-25.433708],[28.123018,-25.433229],[28.122545,-25.431353],[28.121702,-25.427315],[28.121325,-25.42576],[28.120996,-25.423923],[28.119921,-25.419172],[28.119207,-25.416336],[28.118715,-25.414017],[28.118311,-25.412405],[28.118097,-25.411114],[28.117842,-25.410339],[28.117598,-25.409019],[28.11688,-25.40645],[28.116838,-25.405817],[28.116507,-25.404463],[28.116407,-25.403374],[28.116304,-25.403238],[28.115268,-25.399195],[28.110729,-25.378901],[28.14345,-25.37252],[28.144037,-25.372402],[28.14423,-25.373884],[28.144332,-25.376186],[28.144332,-25.377338],[28.144128,-25.378455],[28.144162,-25.379438],[28.144602,-25.380725],[28.145551,-25.382384],[28.145957,-25.38384],[28.145957,-25.384788],[28.145652,-25.385567],[28.144941,-25.386143],[28.144738,-25.386685],[28.145077,-25.388548],[28.145585,-25.389225],[28.147075,-25.390817],[28.147718,-25.391596],[28.148172,-25.393299],[28.149164,-25.394274],[28.149633,-25.394976],[28.150328,-25.396193],[28.149611,-25.397116],[28.148958,-25.398378],[28.14847,-25.399817],[28.147127,-25.405342],[28.146761,-25.406919],[28.145529,-25.411985],[28.145338,-25.412706],[28.14562,-25.412666],[28.146444,-25.4123],[28.14694,-25.412169],[28.147581,-25.411804],[28.148035,-25.412544],[28.147943,-25.414177],[28.148359,-25.41444],[28.148584,-25.41441],[28.148603,-25.414898],[28.14889,-25.415436],[28.149202,-25.415466],[28.149374,-25.4158],[28.149832,-25.416317],[28.150156,-25.417414],[28.150309,-25.417698],[28.150438,-25.418377],[28.150583,-25.418579],[28.156361,-25.438993]]]}},{"type":"Feature","properties":{"id":"olievenhoutbosch","name":"Olievenhoutbosch","labelPriority":"secondary","selectionBasis":"census-main-place","subPlaceCount":11},"geometry":{"type":"Polygon","coordinates":[[[28.077196,-25.92071],[28.07723,-25.920891],[28.080481,-25.92522],[28.083361,-25.924971],[28.09016,-25.924259],[28.09856,-25.923313],[28.098037,-25.926173],[28.105074,-25.924966],[28.104597,-25.922699],[28.108255,-25.921627],[28.110888,-25.920931],[28.112669,-25.922487],[28.114397,-25.922068],[28.115694,-25.922323],[28.116205,-25.921961],[28.116945,-25.921627],[28.117754,-25.921124],[28.1182,-25.921038],[28.120649,-25.9209],[28.121058,-25.917732],[28.121408,-25.917717],[28.121622,-25.916477],[28.121516,-25.916176],[28.121696,-25.915473],[28.122029,-25.91513],[28.122676,-25.91474],[28.12305,-25.914386],[28.123394,-25.914724],[28.124821,-25.91582],[28.124987,-25.91422],[28.125267,-25.913393],[28.126531,-25.912298],[28.125235,-25.91223],[28.123991,-25.911524],[28.121588,-25.909649],[28.119478,-25.908178],[28.120382,-25.907263],[28.120972,-25.907231],[28.121817,-25.907326],[28.124559,-25.906898],[28.124517,-25.906563],[28.124525,-25.904854],[28.124582,-25.901934],[28.123713,-25.90196],[28.123121,-25.901909],[28.122419,-25.901659],[28.122313,-25.901978],[28.121439,-25.901808],[28.121538,-25.900991],[28.121367,-25.900555],[28.120607,-25.899883],[28.120337,-25.900391],[28.119871,-25.899611],[28.119524,-25.899858],[28.117086,-25.9021],[28.117464,-25.902857],[28.116729,-25.902664],[28.11328,-25.901542],[28.112842,-25.904331],[28.111979,-25.904248],[28.111067,-25.90334],[28.110771,-25.903151],[28.109749,-25.903047],[28.108468,-25.902823],[28.107249,-25.902042],[28.1064,-25.901808],[28.102641,-25.901332],[28.103175,-25.898458],[28.103487,-25.89647],[28.103496,-25.896048],[28.103102,-25.894628],[28.103019,-25.894069],[28.103112,-25.893409],[28.09775,-25.893705],[28.095999,-25.893763],[28.091795,-25.894173],[28.090464,-25.894436],[28.087061,-25.895239],[28.085733,-25.895575],[28.085535,-25.898325],[28.085554,-25.899202],[28.085268,-25.903345],[28.08531,-25.90448],[28.083952,-25.907129],[28.082594,-25.909966],[28.080362,-25.914547],[28.078615,-25.918068],[28.077196,-25.92071]]]}},{"type":"Feature","properties":{"id":"ramotse","name":"Ramotse","labelPriority":"secondary","selectionBasis":"census-main-place","subPlaceCount":1},"geometry":{"type":"Polygon","coordinates":[[[28.299255,-25.366128],[28.299468,-25.369275],[28.299797,-25.374701],[28.299841,-25.376923],[28.299787,-25.378116],[28.299547,-25.38162],[28.298088,-25.381505],[28.297731,-25.379393],[28.297632,-25.379248],[28.2949,-25.376969],[28.293724,-25.376013],[28.291394,-25.373994],[28.284979,-25.36875],[28.284708,-25.368584],[28.284166,-25.368608],[28.283045,-25.368773],[28.28301,-25.3671],[28.2829,-25.358831],[28.282679,-25.354557],[28.282492,-25.351242],[28.282373,-25.348812],[28.282312,-25.343555],[28.282415,-25.342692],[28.282642,-25.342644],[28.2834,-25.338079],[28.289505,-25.338291],[28.289627,-25.341152],[28.291599,-25.340719],[28.297773,-25.339399],[28.297773,-25.339639],[28.298067,-25.345219],[28.298293,-25.348615],[28.298622,-25.35468],[28.298847,-25.357816],[28.299142,-25.363638],[28.299255,-25.366128]]]}},{"type":"Feature","properties":{"id":"refilwe","name":"Refilwe","labelPriority":"secondary","selectionBasis":"census-main-place","subPlaceCount":1},"geometry":{"type":"Polygon","coordinates":[[[28.538587,-25.645467],[28.538805,-25.648869],[28.538049,-25.648927],[28.537838,-25.648848],[28.537236,-25.648154],[28.536948,-25.647466],[28.536899,-25.647065],[28.536526,-25.64659],[28.535757,-25.646283],[28.535212,-25.646427],[28.535016,-25.64659],[28.534639,-25.646447],[28.534128,-25.647237],[28.53353,-25.646987],[28.532969,-25.64779],[28.532188,-25.647532],[28.531553,-25.647851],[28.529462,-25.648465],[28.529007,-25.647069],[28.528753,-25.647094],[28.528287,-25.647614],[28.528135,-25.647941],[28.527517,-25.648322],[28.526883,-25.648125],[28.526461,-25.648371],[28.526187,-25.648187],[28.526113,-25.647835],[28.527018,-25.646218],[28.52561,-25.644654],[28.524337,-25.643373],[28.524026,-25.642387],[28.524366,-25.641703],[28.52392,-25.641347],[28.522863,-25.640955],[28.519965,-25.639765],[28.518393,-25.639073],[28.517384,-25.638685],[28.518582,-25.636364],[28.519467,-25.634598],[28.520186,-25.633077],[28.520595,-25.63277],[28.521037,-25.631715],[28.521638,-25.630533],[28.521771,-25.630166],[28.524498,-25.631244],[28.527691,-25.632623],[28.533463,-25.635063],[28.538047,-25.636975],[28.538587,-25.645467]]]}},{"type":"Feature","properties":{"id":"rethabiseng","name":"Rethabiseng","labelPriority":"secondary","selectionBasis":"census-main-place","subPlaceCount":4},"geometry":{"type":"Polygon","coordinates":[[[28.706609,-25.722515],[28.707738,-25.72408],[28.708863,-25.725418],[28.709039,-25.725492],[28.710345,-25.72552],[28.712192,-25.725511],[28.711326,-25.727237],[28.711572,-25.727358],[28.711486,-25.727597],[28.71196,-25.728179],[28.712453,-25.728367],[28.71418,-25.729226],[28.715657,-25.729754],[28.715997,-25.729262],[28.716641,-25.729369],[28.717286,-25.72919],[28.717375,-25.729539],[28.717823,-25.729593],[28.719389,-25.729629],[28.719729,-25.729351],[28.719685,-25.72911],[28.719899,-25.728922],[28.721,-25.72868],[28.72211,-25.728519],[28.723148,-25.728832],[28.725517,-25.727762],[28.724943,-25.727107],[28.724573,-25.726808],[28.724046,-25.723809],[28.723697,-25.721943],[28.723442,-25.7217],[28.721845,-25.721909],[28.721595,-25.719136],[28.720511,-25.718946],[28.719382,-25.718867],[28.719155,-25.718955],[28.719085,-25.719515],[28.717382,-25.719316],[28.717007,-25.719163],[28.717053,-25.718663],[28.716321,-25.718446],[28.714261,-25.717927],[28.713928,-25.717548],[28.713497,-25.717372],[28.712937,-25.716626],[28.712854,-25.716145],[28.711169,-25.715349],[28.709914,-25.716386],[28.70946,-25.716242],[28.708928,-25.716335],[28.708747,-25.716649],[28.708738,-25.717214],[28.709567,-25.717362],[28.709294,-25.718737],[28.709423,-25.71902],[28.710997,-25.720089],[28.710377,-25.720932],[28.709997,-25.721319],[28.709511,-25.72096],[28.709368,-25.720372],[28.708752,-25.720242],[28.707947,-25.720265],[28.707095,-25.72096],[28.706947,-25.721177],[28.706609,-25.722515]]]}},{"type":"Feature","properties":{"id":"saulsville","name":"Saulsville","labelPriority":"secondary","selectionBasis":"census-main-place","subPlaceCount":6},"geometry":{"type":"Polygon","coordinates":[[[28.067705,-25.784925],[28.068146,-25.784777],[28.068239,-25.784224],[28.068068,-25.783394],[28.068129,-25.782558],[28.067976,-25.78199],[28.068041,-25.78161],[28.066595,-25.775291],[28.066126,-25.773195],[28.064428,-25.765804],[28.064756,-25.764996],[28.064329,-25.764902],[28.0641,-25.76469],[28.062025,-25.763889],[28.06035,-25.763447],[28.059858,-25.763403],[28.059725,-25.763556],[28.058363,-25.763105],[28.058271,-25.763313],[28.057512,-25.763647],[28.0571,-25.762798],[28.0553,-25.76338],[28.05057,-25.764637],[28.049055,-25.765322],[28.048299,-25.765529],[28.047817,-25.765557],[28.044935,-25.765326],[28.044069,-25.765295],[28.042856,-25.765532],[28.042017,-25.765879],[28.039812,-25.767216],[28.037997,-25.767899],[28.041647,-25.772008],[28.042727,-25.772825],[28.043846,-25.771762],[28.044088,-25.771754],[28.048151,-25.77515],[28.049631,-25.776836],[28.051207,-25.778151],[28.050133,-25.779254],[28.052305,-25.781082],[28.051294,-25.782093],[28.050249,-25.782774],[28.049662,-25.783035],[28.047308,-25.783958],[28.042948,-25.78577],[28.038221,-25.787262],[28.036928,-25.787315],[28.036077,-25.787149],[28.034746,-25.786661],[28.032441,-25.78588],[28.031767,-25.787415],[28.029009,-25.789112],[28.028677,-25.787962],[28.027807,-25.788113],[28.027498,-25.786631],[28.027159,-25.785442],[28.026949,-25.784946],[28.02701,-25.784788],[28.026731,-25.78418],[28.02648,-25.784296],[28.024652,-25.785233],[28.023149,-25.786156],[28.023252,-25.786371],[28.023847,-25.786826],[28.024009,-25.787276],[28.023046,-25.78772],[28.021395,-25.787945],[28.020254,-25.787849],[28.020056,-25.788614],[28.020056,-25.789537],[28.020124,-25.790588],[28.020058,-25.791335],[28.017847,-25.791431],[28.018236,-25.793283],[28.019861,-25.792825],[28.020212,-25.794039],[28.020342,-25.7953],[28.020613,-25.796135],[28.020742,-25.796909],[28.021177,-25.797892],[28.021681,-25.798752],[28.022211,-25.798561],[28.023393,-25.798278],[28.024454,-25.798307],[28.024809,-25.798725],[28.025496,-25.798759],[28.025942,-25.798464],[28.026011,-25.798126],[28.026548,-25.798334],[28.027365,-25.798265],[28.027975,-25.798473],[28.028662,-25.798517],[28.029131,-25.798864],[28.02952,-25.799368],[28.029879,-25.799568],[28.030321,-25.800394],[28.031679,-25.800098],[28.032862,-25.799673],[28.03253,-25.799368],[28.032946,-25.798813],[28.033903,-25.798168],[28.03393,-25.797604],[28.034399,-25.797144],[28.03406,-25.796804],[28.034258,-25.796709],[28.034773,-25.796909],[28.03525,-25.796726],[28.036589,-25.795856],[28.037435,-25.795886],[28.037669,-25.796406],[28.03791,-25.7966],[28.038113,-25.79716],[28.03866,-25.797],[28.03867,-25.79688],[28.039417,-25.796659],[28.03934,-25.79642],[28.03969,-25.796305],[28.03963,-25.79613],[28.04131,-25.79561],[28.042868,-25.794683],[28.043729,-25.794281],[28.044173,-25.79504],[28.04528,-25.79455],[28.04494,-25.79384],[28.04595,-25.79346],[28.046075,-25.792958],[28.046582,-25.792545],[28.047799,-25.792038],[28.048259,-25.791586],[28.048618,-25.791391],[28.048423,-25.791095],[28.048828,-25.7909],[28.048878,-25.790646],[28.049395,-25.790459],[28.050413,-25.79031],[28.050795,-25.790649],[28.051813,-25.790327],[28.052523,-25.790285],[28.053949,-25.789125],[28.05456,-25.789303],[28.055334,-25.789429],[28.056231,-25.789368],[28.056494,-25.78923],[28.057344,-25.789364],[28.057837,-25.78924],[28.058245,-25.788815],[28.058626,-25.788807],[28.058977,-25.789057],[28.059965,-25.789057],[28.060759,-25.78924],[28.061464,-25.789106],[28.061449,-25.788149],[28.061655,-25.787815],[28.061209,-25.787474],[28.060976,-25.786644],[28.060781,-25.786472],[28.061369,-25.786129],[28.061277,-25.785816],[28.061716,-25.785405],[28.061507,-25.785215],[28.061117,-25.785178],[28.061312,-25.784772],[28.061594,-25.785038],[28.062265,-25.785001],[28.063276,-25.78446],[28.063856,-25.784027],[28.0642,-25.783914],[28.06506,-25.783895],[28.0652,-25.784199],[28.065828,-25.784204],[28.066639,-25.784434],[28.066868,-25.784756],[28.067568,-25.784801],[28.067705,-25.784925]]]}},{"type":"Feature","properties":{"id":"soshanguve","name":"Soshanguve","labelPriority":"primary","selectionBasis":"census-main-place","subPlaceCount":62},"geometry":{"type":"Polygon","coordinates":[[[28.026851,-25.622614],[28.029846,-25.622883],[28.034723,-25.623253],[28.037378,-25.623469],[28.041298,-25.62384],[28.043212,-25.623994],[28.04457,-25.624179],[28.045271,-25.624344],[28.046003,-25.623976],[28.047518,-25.62344],[28.048174,-25.623333],[28.049898,-25.623299],[28.051256,-25.623327],[28.063414,-25.623798],[28.067099,-25.623924],[28.067579,-25.613949],[28.066397,-25.613003],[28.062231,-25.607805],[28.066454,-25.606359],[28.070051,-25.605061],[28.073492,-25.603853],[28.074797,-25.603418],[28.075983,-25.603254],[28.076967,-25.603176],[28.078939,-25.603403],[28.081972,-25.603931],[28.083235,-25.607166],[28.0837,-25.608051],[28.08412,-25.608679],[28.084764,-25.609428],[28.08552,-25.610136],[28.091116,-25.613911],[28.093859,-25.615774],[28.094919,-25.616467],[28.099161,-25.619316],[28.099997,-25.6199],[28.101019,-25.620758],[28.101595,-25.621393],[28.101923,-25.621607],[28.102266,-25.621571],[28.104658,-25.622057],[28.105978,-25.6222],[28.107069,-25.622133],[28.105696,-25.612867],[28.104898,-25.60771],[28.104406,-25.606424],[28.104106,-25.605904],[28.104418,-25.605881],[28.109804,-25.605881],[28.113787,-25.605913],[28.113741,-25.600985],[28.113661,-25.598749],[28.112253,-25.591219],[28.109755,-25.580114],[28.108263,-25.58013],[28.104886,-25.579809],[28.104258,-25.577862],[28.104444,-25.577769],[28.104351,-25.577463],[28.104098,-25.577529],[28.103432,-25.57565],[28.102537,-25.573359],[28.102339,-25.572763],[28.102182,-25.572779],[28.101816,-25.571487],[28.100309,-25.56735],[28.099737,-25.565699],[28.099138,-25.564213],[28.098574,-25.562454],[28.096773,-25.557495],[28.096796,-25.557487],[28.095636,-25.554283],[28.095465,-25.553944],[28.098082,-25.554516],[28.104143,-25.555986],[28.104998,-25.554024],[28.105658,-25.55267],[28.105986,-25.552761],[28.107866,-25.548483],[28.111101,-25.541595],[28.112577,-25.538347],[28.114271,-25.534195],[28.115591,-25.531301],[28.115938,-25.530489],[28.116869,-25.528688],[28.11751,-25.527075],[28.116968,-25.525612],[28.115915,-25.523344],[28.117811,-25.519106],[28.118246,-25.518297],[28.120901,-25.512848],[28.122089,-25.510255],[28.126867,-25.508953],[28.128302,-25.508331],[28.130941,-25.506922],[28.132583,-25.50609],[28.132541,-25.505583],[28.139536,-25.501945],[28.1392,-25.501307],[28.13933,-25.500408],[28.139349,-25.499447],[28.139189,-25.498827],[28.139383,-25.498346],[28.139883,-25.49794],[28.140078,-25.497395],[28.140139,-25.496691],[28.140451,-25.496466],[28.140718,-25.495846],[28.140547,-25.495718],[28.140417,-25.495184],[28.140512,-25.493057],[28.140448,-25.490961],[28.140558,-25.490562],[28.140776,-25.488001],[28.140745,-25.486504],[28.140837,-25.485113],[28.141115,-25.479322],[28.141138,-25.477514],[28.141195,-25.475977],[28.141123,-25.473886],[28.13936,-25.469852],[28.138208,-25.467165],[28.136889,-25.464321],[28.135389,-25.460787],[28.133631,-25.456581],[28.133123,-25.456924],[28.132291,-25.457188],[28.131556,-25.455391],[28.131093,-25.454452],[28.130106,-25.453683],[28.128152,-25.452845],[28.126818,-25.451967],[28.125865,-25.450633],[28.125368,-25.44949],[28.125273,-25.449108],[28.124959,-25.448843],[28.124742,-25.448135],[28.124245,-25.446876],[28.123854,-25.446039],[28.125875,-25.445087],[28.125517,-25.44416],[28.124662,-25.440159],[28.12319,-25.433708],[28.123018,-25.433229],[28.122396,-25.433538],[28.121996,-25.433834],[28.121389,-25.433975],[28.120832,-25.433975],[28.119806,-25.434122],[28.119547,-25.433969],[28.118856,-25.434042],[28.117075,-25.434362],[28.112883,-25.435032],[28.11114,-25.435349],[28.111016,-25.434168],[28.109726,-25.434256],[28.109197,-25.43419],[28.109267,-25.430688],[28.110618,-25.430627],[28.110391,-25.428668],[28.108319,-25.428813],[28.105027,-25.42918],[28.104147,-25.429339],[28.105753,-25.436218],[28.104914,-25.436325],[28.097689,-25.437431],[28.095766,-25.437689],[28.087034,-25.439034],[28.08573,-25.439255],[28.082403,-25.439754],[28.079931,-25.440151],[28.074183,-25.441042],[28.074076,-25.441074],[28.074926,-25.444231],[28.075598,-25.446819],[28.076181,-25.44916],[28.076433,-25.449703],[28.077356,-25.453751],[28.077738,-25.456163],[28.078688,-25.463474],[28.078764,-25.463676],[28.079683,-25.470821],[28.08077,-25.478422],[28.080774,-25.478762],[28.081163,-25.481726],[28.081682,-25.483097],[28.083349,-25.486332],[28.084129,-25.486195],[28.084967,-25.486048],[28.087786,-25.485744],[28.089788,-25.485462],[28.094927,-25.484922],[28.09366,-25.490265],[28.092363,-25.495687],[28.091772,-25.495518],[28.090029,-25.495199],[28.088903,-25.49992],[28.087782,-25.504389],[28.086615,-25.509373],[28.086306,-25.510614],[28.085321,-25.513098],[28.083906,-25.516851],[28.083754,-25.517193],[28.083055,-25.519215],[28.082735,-25.521494],[28.082869,-25.523907],[28.0832,-25.527411],[28.083101,-25.529285],[28.082529,-25.531418],[28.081251,-25.533941],[28.077501,-25.540468],[28.07387,-25.546864],[28.072741,-25.548956],[28.072317,-25.550169],[28.072035,-25.551182],[28.068964,-25.550919],[28.068407,-25.550812],[28.068117,-25.550447],[28.0674,-25.550339],[28.06698,-25.550152],[28.065006,-25.550095],[28.060163,-25.549987],[28.058322,-25.549914],[28.051389,-25.54969],[28.050722,-25.549644],[28.05069,-25.54991],[28.050341,-25.5499],[28.050341,-25.55163],[28.05019,-25.554041],[28.049509,-25.559561],[28.048808,-25.560545],[28.048697,-25.560787],[28.046252,-25.564049],[28.043379,-25.568051],[28.045313,-25.568744],[28.04624,-25.568953],[28.047728,-25.569441],[28.048372,-25.569603],[28.04756,-25.571339],[28.047529,-25.571514],[28.04898,-25.571733],[28.047937,-25.573057],[28.047101,-25.574938],[28.046213,-25.57661],[28.043862,-25.579849],[28.042921,-25.581625],[28.041981,-25.583725],[28.041695,-25.584643],[28.041471,-25.584803],[28.041118,-25.585541],[28.040479,-25.587157],[28.039415,-25.58926],[28.038992,-25.590358],[28.039011,-25.590628],[28.038233,-25.591553],[28.036924,-25.592861],[28.033079,-25.60322],[28.031149,-25.604324],[28.031309,-25.605644],[28.029818,-25.608631],[28.030802,-25.608969],[28.030878,-25.609228],[28.035074,-25.610817],[28.035873,-25.610986],[28.035236,-25.611854],[28.033743,-25.613595],[28.033028,-25.614509],[28.032288,-25.61533],[28.028215,-25.620224],[28.02801,-25.620503],[28.026617,-25.621934],[28.026851,-25.622614]]]}},{"type":"Feature","properties":{"id":"soutpan","name":"Soutpan","labelPriority":"secondary","selectionBasis":"census-main-place","subPlaceCount":1},"geometry":{"type":"Polygon","coordinates":[[[28.123018,-25.433229],[28.122396,-25.433538],[28.121996,-25.433834],[28.121389,-25.433975],[28.120832,-25.433975],[28.119806,-25.434122],[28.119547,-25.433969],[28.118856,-25.434042],[28.117075,-25.434362],[28.112883,-25.435032],[28.11114,-25.435349],[28.111016,-25.434168],[28.109726,-25.434256],[28.109197,-25.43419],[28.109267,-25.430688],[28.110618,-25.430627],[28.110391,-25.428668],[28.108319,-25.428813],[28.105027,-25.42918],[28.104147,-25.429339],[28.103067,-25.424641],[28.100817,-25.415163],[28.100592,-25.414068],[28.100443,-25.412634],[28.100203,-25.40658],[28.100138,-25.40569],[28.09985,-25.404218],[28.099496,-25.40304],[28.09896,-25.401784],[28.098076,-25.400265],[28.097383,-25.399317],[28.096231,-25.397942],[28.095315,-25.396706],[28.094706,-25.395737],[28.094196,-25.394782],[28.092364,-25.390973],[28.092082,-25.390345],[28.089648,-25.385247],[28.089203,-25.384358],[28.087543,-25.381353],[28.108021,-25.367006],[28.110729,-25.378901],[28.115268,-25.399195],[28.116304,-25.403238],[28.116407,-25.403374],[28.116507,-25.404463],[28.116838,-25.405817],[28.11688,-25.40645],[28.117598,-25.409019],[28.117842,-25.410339],[28.118097,-25.411114],[28.118311,-25.412405],[28.118715,-25.414017],[28.119207,-25.416336],[28.119921,-25.419172],[28.120996,-25.423923],[28.121325,-25.42576],[28.121702,-25.427315],[28.122545,-25.431353],[28.123018,-25.433229]]]}},{"type":"Feature","properties":{"id":"stinkwater","name":"Stinkwater","labelPriority":"secondary","selectionBasis":"census-main-place","subPlaceCount":5},"geometry":{"type":"Polygon","coordinates":[[[28.144037,-25.372402],[28.14423,-25.373884],[28.144332,-25.376186],[28.144332,-25.377338],[28.144128,-25.378455],[28.144162,-25.379438],[28.144602,-25.380725],[28.145551,-25.382384],[28.145957,-25.38384],[28.145957,-25.384788],[28.145652,-25.385567],[28.144941,-25.386143],[28.144738,-25.386685],[28.145077,-25.388548],[28.145585,-25.389225],[28.147075,-25.390817],[28.147718,-25.391596],[28.148172,-25.393299],[28.149164,-25.394274],[28.149633,-25.394976],[28.150328,-25.396193],[28.149611,-25.397116],[28.148958,-25.398378],[28.14847,-25.399817],[28.147127,-25.405342],[28.146761,-25.406919],[28.145529,-25.411985],[28.145338,-25.412706],[28.14562,-25.412666],[28.146444,-25.4123],[28.14694,-25.412169],[28.147581,-25.411804],[28.148035,-25.412544],[28.147943,-25.414177],[28.148359,-25.41444],[28.148584,-25.41441],[28.148603,-25.414898],[28.14889,-25.415436],[28.149202,-25.415466],[28.149374,-25.4158],[28.149832,-25.416317],[28.150156,-25.417414],[28.150309,-25.417698],[28.150438,-25.418377],[28.150583,-25.418579],[28.156361,-25.438993],[28.164375,-25.437317],[28.165029,-25.437474],[28.192448,-25.43212],[28.18786,-25.411581],[28.187849,-25.411442],[28.187654,-25.41087],[28.187468,-25.409624],[28.187021,-25.407497],[28.186468,-25.405067],[28.186338,-25.404802],[28.186384,-25.404129],[28.186155,-25.402695],[28.186068,-25.40243],[28.185743,-25.400072],[28.185759,-25.399446],[28.186018,-25.398951],[28.186071,-25.398455],[28.186457,-25.398287],[28.186323,-25.397768],[28.18667,-25.397408],[28.186441,-25.397205],[28.186651,-25.396883],[28.18675,-25.396444],[28.186579,-25.396006],[28.186285,-25.395763],[28.186079,-25.395061],[28.186243,-25.394756],[28.186014,-25.394398],[28.186083,-25.394081],[28.185732,-25.393736],[28.18572,-25.393488],[28.185289,-25.392578],[28.185518,-25.392382],[28.185537,-25.391783],[28.183161,-25.391903],[28.183054,-25.390411],[28.182909,-25.38946],[28.182558,-25.387825],[28.182089,-25.385891],[28.181833,-25.384512],[28.182158,-25.382013],[28.181184,-25.382261],[28.180894,-25.382887],[28.18004,-25.379183],[28.17937,-25.376556],[28.179363,-25.376257],[28.178682,-25.373638],[28.177881,-25.369577],[28.17667,-25.36587],[28.144037,-25.372402]]]}},{"type":"Feature","properties":{"id":"suurman","name":"Suurman","labelPriority":"secondary","selectionBasis":"census-main-place","subPlaceCount":1},"geometry":{"type":"Polygon","coordinates":[[[28.229189,-25.403275],[28.213547,-25.413831],[28.213194,-25.414029],[28.210425,-25.413841],[28.20112,-25.41291],[28.201167,-25.412085],[28.202921,-25.392256],[28.203192,-25.388977],[28.203321,-25.386797],[28.203478,-25.384802],[28.20381,-25.382002],[28.204226,-25.377399],[28.204359,-25.375746],[28.20466,-25.372536],[28.206587,-25.372522],[28.207026,-25.372469],[28.207827,-25.372225],[28.207907,-25.372667],[28.209047,-25.374033],[28.209486,-25.374264],[28.210207,-25.374498],[28.212124,-25.375256],[28.212405,-25.375411],[28.212576,-25.375254],[28.215651,-25.373308],[28.217535,-25.37232],[28.218893,-25.371658],[28.224474,-25.368885],[28.2274,-25.367443],[28.230471,-25.365908],[28.230646,-25.366022],[28.230648,-25.367272],[28.2307,-25.367682],[28.230639,-25.371134],[28.230547,-25.373823],[28.230398,-25.375805],[28.230165,-25.383368],[28.230036,-25.383879],[28.229979,-25.386646],[28.229864,-25.387798],[28.229708,-25.393023],[28.229612,-25.39488],[28.229521,-25.39535],[28.229399,-25.398943],[28.229189,-25.402672],[28.229189,-25.403275]]]}},{"type":"Feature","properties":{"id":"temba","name":"Temba","labelPriority":"primary","selectionBasis":"census-main-place","subPlaceCount":12},"geometry":{"type":"Polygon","coordinates":[[[28.229189,-25.403275],[28.23596,-25.403309],[28.244089,-25.403297],[28.245321,-25.403349],[28.2464,-25.403227],[28.246631,-25.403019],[28.247237,-25.402057],[28.249067,-25.402691],[28.250669,-25.403284],[28.251653,-25.403778],[28.252729,-25.404492],[28.253818,-25.405415],[28.255651,-25.407102],[28.256244,-25.407557],[28.257407,-25.408165],[28.258464,-25.40848],[28.259843,-25.408618],[28.26084,-25.408543],[28.265138,-25.407654],[28.2683,-25.407016],[28.27737,-25.405223],[28.278067,-25.404966],[28.277964,-25.404194],[28.277567,-25.403296],[28.277895,-25.402536],[28.277685,-25.402277],[28.277086,-25.401907],[28.276888,-25.401512],[28.276865,-25.40106],[28.276651,-25.400482],[28.275976,-25.400414],[28.275629,-25.400864],[28.275152,-25.400414],[28.275209,-25.400063],[28.275461,-25.399584],[28.275167,-25.399008],[28.274744,-25.398684],[28.273787,-25.398642],[28.273691,-25.398291],[28.27376,-25.397194],[28.273752,-25.396013],[28.274931,-25.395428],[28.274931,-25.394871],[28.275133,-25.394398],[28.274874,-25.39395],[28.274401,-25.39225],[28.273928,-25.392344],[28.27239,-25.392504],[28.272272,-25.392107],[28.273428,-25.390966],[28.273447,-25.390829],[28.273054,-25.390387],[28.273371,-25.390011],[28.273527,-25.389576],[28.274084,-25.389532],[28.276152,-25.389172],[28.277067,-25.388973],[28.276228,-25.387821],[28.276491,-25.386284],[28.276205,-25.386034],[28.27561,-25.385944],[28.275297,-25.385365],[28.275862,-25.384413],[28.275663,-25.383839],[28.275854,-25.383064],[28.275839,-25.382692],[28.276014,-25.382013],[28.276594,-25.380972],[28.276144,-25.380369],[28.275698,-25.380447],[28.275126,-25.380392],[28.274767,-25.380192],[28.274675,-25.379946],[28.274801,-25.379623],[28.274305,-25.379061],[28.273581,-25.377918],[28.274469,-25.377222],[28.274618,-25.377251],[28.27458,-25.377741],[28.2749,-25.37797],[28.27548,-25.377964],[28.275728,-25.377462],[28.275583,-25.377056],[28.275694,-25.376671],[28.275068,-25.376392],[28.275187,-25.375692],[28.275381,-25.375162],[28.275015,-25.373865],[28.274878,-25.373669],[28.274893,-25.372812],[28.275095,-25.372564],[28.275988,-25.372427],[28.276037,-25.372143],[28.275835,-25.371462],[28.2754,-25.371193],[28.274935,-25.37014],[28.27508,-25.369696],[28.274286,-25.369217],[28.274,-25.368848],[28.273876,-25.36828],[28.274264,-25.367771],[28.274123,-25.367162],[28.273856,-25.366759],[28.273674,-25.366104],[28.273634,-25.365404],[28.273841,-25.364815],[28.274198,-25.364341],[28.274077,-25.363893],[28.273528,-25.364074],[28.27306,-25.363525],[28.273141,-25.363173],[28.27374,-25.362684],[28.273513,-25.361918],[28.273473,-25.361485],[28.274057,-25.361455],[28.274254,-25.361193],[28.274082,-25.360785],[28.274249,-25.360261],[28.273538,-25.359934],[28.273256,-25.359989],[28.27305,-25.360261],[28.272501,-25.359753],[28.271962,-25.358367],[28.271688,-25.35723],[28.267653,-25.358265],[28.266397,-25.358494],[28.261786,-25.359583],[28.258707,-25.360334],[28.25443,-25.361347],[28.252187,-25.360814],[28.251359,-25.360906],[28.250758,-25.361105],[28.249663,-25.361604],[28.249489,-25.361599],[28.248791,-25.361957],[28.249024,-25.362815],[28.245139,-25.363801],[28.244545,-25.364285],[28.243921,-25.364048],[28.241074,-25.364745],[28.240889,-25.363345],[28.24062,-25.361833],[28.240248,-25.361905],[28.240094,-25.361279],[28.23944,-25.361497],[28.238176,-25.36206],[28.237064,-25.362639],[28.237412,-25.363771],[28.237722,-25.365567],[28.235998,-25.365999],[28.230648,-25.367272],[28.2307,-25.367682],[28.230639,-25.371134],[28.230547,-25.373823],[28.230398,-25.375805],[28.230165,-25.383368],[28.230036,-25.383879],[28.229979,-25.386646],[28.229864,-25.387798],[28.229708,-25.393023],[28.229612,-25.39488],[28.229521,-25.39535],[28.229399,-25.398943],[28.229189,-25.402672],[28.229189,-25.403275]]]}},{"type":"Feature","properties":{"id":"tsebe","name":"Tsebe","labelPriority":"secondary","selectionBasis":"census-main-place","subPlaceCount":1},"geometry":{"type":"Polygon","coordinates":[[[28.003801,-25.522532],[27.996531,-25.519661],[27.992439,-25.51803],[28.000231,-25.500629],[28.00043,-25.500176],[28.001646,-25.500933],[28.002325,-25.499441],[28.002535,-25.498546],[28.003942,-25.499269],[28.00463,-25.499848],[28.005972,-25.500425],[28.007063,-25.501093],[28.0077,-25.501163],[28.00839,-25.501081],[28.009134,-25.499695],[28.01243,-25.494427],[28.012506,-25.494402],[28.013399,-25.493147],[28.01248,-25.492496],[28.015203,-25.490154],[28.016699,-25.489141],[28.016672,-25.489464],[28.017496,-25.489325],[28.017698,-25.488918],[28.018419,-25.488611],[28.018763,-25.488779],[28.019354,-25.489244],[28.019667,-25.489672],[28.020426,-25.490168],[28.021093,-25.490202],[28.021692,-25.490759],[28.021521,-25.491325],[28.02165,-25.491732],[28.021498,-25.492119],[28.021658,-25.492296],[28.02178,-25.493055],[28.021715,-25.49325],[28.022043,-25.493883],[28.022318,-25.49481],[28.020319,-25.495821],[28.01763,-25.497221],[28.018476,-25.498407],[28.017424,-25.499727],[28.015196,-25.503269],[28.014999,-25.50367],[28.013949,-25.505445],[28.013361,-25.506374],[28.012362,-25.507732],[28.011415,-25.509375],[28.010584,-25.510883],[28.008959,-25.513372],[28.008249,-25.514406],[28.007349,-25.515881],[28.006693,-25.517092],[28.005289,-25.519911],[28.003801,-25.522532]]]}},{"type":"Feature","properties":{"id":"winterveld","name":"Winterveld","labelPriority":"secondary","selectionBasis":"census-main-place","subPlaceCount":6},"geometry":{"type":"Polygon","coordinates":[[[28.0301,-25.472994],[28.030626,-25.473963],[28.03224,-25.476213],[28.03356,-25.47821],[28.034075,-25.479055],[28.033575,-25.479912],[28.033304,-25.480068],[28.033182,-25.480698],[28.032755,-25.480953],[28.032511,-25.481482],[28.032217,-25.48164],[28.031191,-25.481668],[28.030134,-25.482038],[28.029882,-25.482231],[28.029043,-25.482452],[28.028715,-25.482759],[28.027987,-25.482866],[28.027613,-25.482796],[28.026812,-25.482996],[28.026495,-25.482975],[28.025145,-25.483152],[28.024031,-25.48378],[28.023752,-25.484037],[28.02294,-25.48428],[28.022768,-25.484144],[28.021669,-25.484209],[28.021124,-25.484524],[28.02136,-25.485188],[28.021624,-25.485598],[28.022398,-25.486448],[28.022799,-25.486391],[28.027826,-25.486423],[28.038286,-25.486546],[28.043406,-25.48653],[28.047937,-25.486559],[28.048059,-25.486574],[28.045507,-25.494814],[28.046,-25.494871],[28.047544,-25.494907],[28.060896,-25.494715],[28.06307,-25.494627],[28.063935,-25.49452],[28.064067,-25.495783],[28.064024,-25.49637],[28.063829,-25.497051],[28.065969,-25.497636],[28.066407,-25.497644],[28.068472,-25.497189],[28.079184,-25.494991],[28.079645,-25.495058],[28.080332,-25.494967],[28.081068,-25.49453],[28.082987,-25.494164],[28.082758,-25.492559],[28.082563,-25.490931],[28.082478,-25.490692],[28.082746,-25.489953],[28.082465,-25.489754],[28.082496,-25.488933],[28.082827,-25.488608],[28.084129,-25.486195],[28.083349,-25.486332],[28.081682,-25.483097],[28.081163,-25.481726],[28.080774,-25.478762],[28.08077,-25.478422],[28.079683,-25.470821],[28.078764,-25.463676],[28.078688,-25.463474],[28.077738,-25.456163],[28.077356,-25.453751],[28.076433,-25.449703],[28.076181,-25.44916],[28.075598,-25.446819],[28.074926,-25.444231],[28.074076,-25.441074],[28.074183,-25.441042],[28.073786,-25.439737],[28.07168,-25.43298],[28.070719,-25.429865],[28.068903,-25.424067],[28.067614,-25.419983],[28.067533,-25.419674],[28.060373,-25.407854],[28.057928,-25.403875],[28.056475,-25.401459],[28.055574,-25.400026],[28.055531,-25.400049],[28.044729,-25.401739],[28.039419,-25.396589],[28.039171,-25.396332],[28.03076,-25.388201],[28.021191,-25.378929],[28.01128,-25.36932],[28.00041,-25.359421],[27.99905,-25.359591],[27.97076,-25.362949],[27.966169,-25.37096],[27.959419,-25.38266],[27.956659,-25.387501],[27.95277,-25.394279],[27.9527,-25.394461],[27.94825,-25.402149],[27.945641,-25.4067],[27.94931,-25.41247],[27.95298,-25.418209],[27.95817,-25.42635],[27.960409,-25.427311],[27.96442,-25.432409],[27.969721,-25.43911],[27.97876,-25.433069],[27.98617,-25.42811],[27.98778,-25.427019],[27.991199,-25.42474],[27.991657,-25.424517],[27.99259,-25.42547],[28.00016,-25.433439],[28.003691,-25.437059],[28.013571,-25.44721],[28.03595,-25.470591],[28.0301,-25.472994]]]}},{"type":"Feature","properties":{"id":"zithobeni","name":"Zithobeni","labelPriority":"secondary","selectionBasis":"census-main-place","subPlaceCount":1},"geometry":{"type":"Polygon","coordinates":[[[28.716896,-25.768007],[28.716937,-25.768914],[28.718514,-25.768816],[28.721572,-25.768808],[28.722062,-25.769421],[28.723853,-25.769445],[28.724419,-25.770861],[28.724051,-25.771409],[28.723552,-25.771852],[28.723546,-25.77288],[28.723378,-25.77523],[28.723534,-25.775492],[28.723465,-25.776421],[28.723247,-25.7772],[28.723104,-25.779263],[28.723104,-25.780155],[28.723197,-25.780435],[28.724169,-25.78061],[28.725927,-25.781034],[28.728084,-25.7818],[28.729968,-25.782678],[28.730772,-25.783134],[28.732179,-25.784062],[28.733462,-25.784982],[28.73439,-25.785577],[28.735596,-25.786226],[28.737253,-25.786942],[28.736722,-25.787572],[28.735789,-25.78856],[28.734776,-25.789829],[28.731837,-25.793381],[28.731057,-25.79425],[28.730695,-25.794351],[28.729893,-25.794351],[28.728469,-25.794095],[28.725905,-25.793312],[28.72486,-25.792766],[28.72324,-25.792101],[28.722771,-25.792261],[28.722522,-25.79257],[28.721222,-25.792125],[28.719536,-25.791715],[28.718159,-25.79149],[28.715975,-25.791324],[28.715935,-25.790905],[28.715608,-25.79056],[28.715472,-25.789469],[28.715596,-25.788315],[28.715701,-25.787865],[28.715775,-25.78604],[28.715516,-25.785781],[28.715102,-25.784998],[28.714887,-25.784412],[28.715084,-25.783746],[28.715275,-25.783431],[28.715916,-25.78144],[28.716225,-25.780681],[28.716614,-25.7793],[28.717524,-25.778488],[28.71764,-25.778255],[28.718301,-25.777713],[28.717312,-25.776863],[28.716625,-25.776409],[28.715547,-25.775822],[28.71231,-25.77453],[28.711116,-25.774089],[28.710062,-25.77386],[28.709081,-25.773786],[28.708239,-25.773876],[28.709154,-25.772585],[28.710863,-25.770418],[28.708639,-25.769789],[28.709955,-25.768154],[28.711721,-25.766502],[28.714991,-25.766249],[28.716806,-25.767794],[28.716896,-25.768007]]]}}]}