{"type":"FeatureCollection","features":[{"type":"Feature","properties":{"id":"node/326083326","name":"Marlboro","network":"Gautrain"},"geometry":{"type":"Point","coordinates":[28.111649,-26.083342]}},{"type":"Feature","properties":{"id":"node/6983349354","name":"O.R. Tambo International Airport","network":"Gautrain"},"geometry":{"type":"Point","coordinates":[28.2311,-26.132169]}},{"type":"Feature","properties":{"id":"node/6983349355","name":"Rhodesfield","network":"Gautrain"},"geometry":{"type":"Point","coordinates":[28.22456,-26.127279]}},{"type":"Feature","properties":{"id":"node/6983463551","name":"Park Station","network":"Gautrain"},"geometry":{"type":"Point","coordinates":[28.041684,-26.196779]}},{"type":"Feature","properties":{"id":"node/6983499376","name":"Hatfield","network":"Gautrain"},"geometry":{"type":"Point","coordinates":[28.237873,-25.74764]}},{"type":"Feature","properties":{"id":"node/6983501555","name":"Pretoria Gautrain Station","network":"Gautrain"},"geometry":{"type":"Point","coordinates":[28.190451,-25.759557]}},{"type":"Feature","properties":{"id":"node/6983509221","name":"Sandton","network":"Gautrain"},"geometry":{"type":"Point","coordinates":[28.056931,-26.108283]}},{"type":"Feature","properties":{"id":"node/6983528224","name":"Centurion","network":"Gautrain"},"geometry":{"type":"Point","coordinates":[28.189587,-25.851672]}},{"type":"Feature","properties":{"id":"node/6983544367","name":"Rosebank","network":"Gautrain"},"geometry":{"type":"Point","coordinates":[28.044142,-26.145068]}},{"type":"Feature","properties":{"id":"node/6983563278","name":"Midrand","network":"Gautrain"},"geometry":{"type":"Point","coordinates":[28.135671,-25.995619]}},{"type":"Feature","properties":{"id":"way/24582629","name":"Gautrain","network":"Gautrain"},"geometry":{"type":"LineString","coordinates":[[28.041517,-26.195643],[28.041602,-26.195518],[28.042926,-26.193594],[28.043032,-26.193413],[28.043123,-26.193193],[28.043218,-26.192902],[28.044081,-26.190092],[28.044162,-26.189849],[28.044265,-26.189607],[28.048627,-26.181957],[28.049936,-26.17953],[28.050126,-26.179049],[28.05026,-26.178594],[28.050322,-26.178132],[28.050338,-26.177565],[28.050311,-26.177027],[28.050256,-26.176462],[28.050189,-26.175973],[28.044204,-26.145512],[28.043664,-26.142867],[28.043525,-26.141898],[28.043448,-26.141226],[28.043413,-26.140609],[28.043429,-26.14005],[28.043498,-26.139594],[28.043654,-26.138926],[28.043805,-26.138316],[28.046226,-26.127478],[28.046253,-26.127318],[28.046556,-26.121372],[28.046605,-26.120768],[28.046655,-26.120255],[28.046722,-26.119731],[28.046831,-26.119132],[28.047038,-26.118293],[28.047302,-26.117509],[28.047586,-26.116922],[28.047994,-26.116213],[28.048517,-26.115507],[28.048925,-26.115042],[28.049293,-26.114629],[28.04985,-26.113978],[28.050508,-26.113326],[28.051387,-26.112569],[28.052263,-26.111775],[28.053421,-26.110851],[28.054567,-26.110032],[28.057218,-26.108069]]}},{"type":"Feature","properties":{"id":"way/29591408","name":"Gautrain","network":"Gautrain"},"geometry":{"type":"LineString","coordinates":[[28.231218,-26.132214],[28.230916,-26.132147],[28.229503,-26.131848],[28.228405,-26.131612],[28.228109,-26.131548],[28.227797,-26.131474],[28.227583,-26.131404],[28.227438,-26.131349],[28.22732,-26.131295],[28.227194,-26.131231],[28.227071,-26.131159],[28.226944,-26.131072],[28.22675,-26.130918],[28.226548,-26.130722],[28.22641,-26.130556],[28.226263,-26.130341],[28.22603,-26.129939],[28.225708,-26.129341],[28.225664,-26.129261],[28.225527,-26.129014],[28.225329,-26.128669],[28.224972,-26.128032],[28.224548,-26.127302]]}},{"type":"Feature","properties":{"id":"way/29598349","name":"Gautrain","network":"Gautrain"},"geometry":{"type":"LineString","coordinates":[[28.189872,-25.758696],[28.190507,-25.759498],[28.19104,-25.760187]]}},{"type":"Feature","properties":{"id":"way/29599836","name":"Gautrain","network":"Gautrain"},"geometry":{"type":"LineString","coordinates":[[28.22044,-26.124437],[28.219912,-26.124313],[28.219247,-26.124164],[28.218551,-26.123993],[28.217926,-26.123834],[28.217383,-26.12367],[28.216922,-26.123506],[28.216665,-26.1234],[28.216365,-26.123278],[28.215974,-26.123089],[28.215503,-26.122863],[28.21452,-26.122361],[28.213529,-26.121858],[28.211469,-26.12077],[28.210157,-26.120098],[28.206824,-26.118364],[28.204262,-26.117006],[28.202849,-26.116293],[28.201548,-26.115615],[28.201213,-26.11542],[28.200001,-26.114801]]}},{"type":"Feature","properties":{"id":"way/29599849","name":"Gautrain","network":"Gautrain"},"geometry":{"type":"LineString","coordinates":[[28.057218,-26.108069],[28.058622,-26.10709],[28.059422,-26.106572],[28.060166,-26.106137],[28.061772,-26.105229],[28.063666,-26.104208],[28.06448,-26.103814],[28.065102,-26.103532],[28.071521,-26.101003]]}},{"type":"Feature","properties":{"id":"way/64241251","name":"Gautrain","network":"Gautrain"},"geometry":{"type":"LineString","coordinates":[[28.196944,-25.763397],[28.196741,-25.763527],[28.196541,-25.763632],[28.196419,-25.76369],[28.196237,-25.763758],[28.196106,-25.763799],[28.195997,-25.763828],[28.195858,-25.763864],[28.195698,-25.763887],[28.195563,-25.763902],[28.1954,-25.763911],[28.195249,-25.763911],[28.19514,-25.763906],[28.195036,-25.763898],[28.194875,-25.763879],[28.194741,-25.763853],[28.194595,-25.763821],[28.194448,-25.763764],[28.194265,-25.763691],[28.194059,-25.763588],[28.193876,-25.763482],[28.193757,-25.763404],[28.193614,-25.763294],[28.193491,-25.763185],[28.193343,-25.763025],[28.193203,-25.762885],[28.1931,-25.762764]]}},{"type":"Feature","properties":{"id":"way/64241257","name":"Gautrain","network":"Gautrain"},"geometry":{"type":"LineString","coordinates":[[28.193014,-25.762813],[28.193117,-25.76295],[28.193209,-25.763085],[28.193291,-25.763223],[28.193405,-25.763427],[28.193497,-25.763716],[28.193541,-25.763936],[28.193569,-25.764157],[28.193576,-25.764333],[28.193573,-25.764546],[28.193552,-25.764756],[28.19353,-25.764957],[28.193457,-25.765539],[28.1934,-25.766135]]}},{"type":"Feature","properties":{"id":"way/64272349","name":"Gautrain","network":"Gautrain"},"geometry":{"type":"LineString","coordinates":[[28.192087,-25.776913],[28.19146,-25.778751],[28.190817,-25.780363]]}},{"type":"Feature","properties":{"id":"way/64272351","name":"Gautrain","network":"Gautrain"},"geometry":{"type":"LineString","coordinates":[[28.192799,-25.774723],[28.192604,-25.775317],[28.192331,-25.77617],[28.192087,-25.776913]]}},{"type":"Feature","properties":{"id":"way/64794304","name":"Gautrain","network":"Gautrain"},"geometry":{"type":"LineString","coordinates":[[28.183564,-25.834526],[28.183743,-25.835727],[28.183992,-25.837453],[28.184178,-25.838752],[28.184378,-25.840051],[28.184832,-25.842948],[28.18498,-25.843661],[28.185098,-25.84412],[28.185238,-25.844626],[28.185419,-25.845157],[28.185597,-25.845598],[28.185773,-25.846038],[28.186146,-25.846804],[28.186505,-25.847465],[28.186933,-25.848144],[28.187286,-25.848651],[28.188916,-25.850869],[28.18916,-25.851192]]}},{"type":"Feature","properties":{"id":"way/65502778","name":"Gautrain","network":"Gautrain"},"geometry":{"type":"LineString","coordinates":[[28.239342,-25.747272],[28.238974,-25.747366],[28.238609,-25.747467]]}},{"type":"Feature","properties":{"id":"way/65502792","name":"Gautrain","network":"Gautrain"},"geometry":{"type":"LineString","coordinates":[[28.148097,-26.09146],[28.147264,-26.090979]]}},{"type":"Feature","properties":{"id":"way/65502796","name":"Gautrain","network":"Gautrain"},"geometry":{"type":"LineString","coordinates":[[28.178352,-26.102485],[28.177816,-26.102269],[28.177477,-26.102148],[28.177158,-26.10204]]}},{"type":"Feature","properties":{"id":"way/65502798","name":"Gautrain","network":"Gautrain"},"geometry":{"type":"LineString","coordinates":[[28.200001,-26.114801],[28.19951,-26.11456],[28.199101,-26.114368],[28.198507,-26.114093],[28.197756,-26.113733],[28.196981,-26.113368],[28.196609,-26.11319],[28.196234,-26.113012],[28.195516,-26.112652],[28.194142,-26.111945]]}},{"type":"Feature","properties":{"id":"way/65502803","name":"Gautrain","network":"Gautrain"},"geometry":{"type":"LineString","coordinates":[[28.17168,-26.101063],[28.171086,-26.10098]]}},{"type":"Feature","properties":{"id":"way/65502804","name":"Gautrain","network":"Gautrain"},"geometry":{"type":"LineString","coordinates":[[28.172477,-26.10118],[28.17168,-26.101063]]}},{"type":"Feature","properties":{"id":"way/65502810","name":"Gautrain","network":"Gautrain"},"geometry":{"type":"LineString","coordinates":[[28.177158,-26.10204],[28.176748,-26.101915],[28.176318,-26.101794],[28.175931,-26.101699],[28.175529,-26.101611],[28.175223,-26.101555],[28.174825,-26.101488],[28.173567,-26.101307],[28.172477,-26.10118]]}},{"type":"Feature","properties":{"id":"way/65502813","name":"Gautrain","network":"Gautrain"},"geometry":{"type":"LineString","coordinates":[[28.1934,-25.766135],[28.193262,-25.767298],[28.193189,-25.767935],[28.19311,-25.7686],[28.193042,-25.769391],[28.193009,-25.769862]]}},{"type":"Feature","properties":{"id":"way/65502818","name":"Gautrain","network":"Gautrain"},"geometry":{"type":"LineString","coordinates":[[28.128346,-26.023315],[28.128205,-26.024332],[28.128046,-26.025289],[28.127952,-26.025868],[28.127788,-26.026554],[28.127697,-26.026926],[28.127578,-26.027362],[28.127417,-26.027873],[28.127226,-26.028392],[28.127084,-26.028748],[28.126937,-26.02909]]}},{"type":"Feature","properties":{"id":"way/65502825","name":"Gautrain","network":"Gautrain"},"geometry":{"type":"LineString","coordinates":[[28.16068,-26.098113],[28.15862,-26.097119]]}},{"type":"Feature","properties":{"id":"way/65502826","name":"Gautrain","network":"Gautrain"},"geometry":{"type":"LineString","coordinates":[[28.194142,-26.111945],[28.192825,-26.111244],[28.191432,-26.110554],[28.188744,-26.109177],[28.188466,-26.109034],[28.188063,-26.10883],[28.187414,-26.108474],[28.186732,-26.108099],[28.186215,-26.107795],[28.185875,-26.107584],[28.185521,-26.107345],[28.184777,-26.106822],[28.184017,-26.106251],[28.183256,-26.10568],[28.182496,-26.105115],[28.181727,-26.104534],[28.18079,-26.103841],[28.180515,-26.103651],[28.180223,-26.103464]]}},{"type":"Feature","properties":{"id":"way/65502828","name":"Gautrain","network":"Gautrain"},"geometry":{"type":"LineString","coordinates":[[28.171086,-26.10098],[28.169856,-26.100799],[28.168966,-26.100668],[28.168158,-26.10055],[28.167602,-26.100465],[28.166999,-26.100361],[28.166333,-26.100235],[28.165674,-26.100082],[28.165122,-26.099932],[28.164604,-26.099761],[28.163926,-26.099534],[28.163284,-26.099299],[28.162511,-26.098979],[28.161964,-26.098725],[28.161083,-26.098301]]}},{"type":"Feature","properties":{"id":"way/65502829","name":"Gautrain","network":"Gautrain"},"geometry":{"type":"LineString","coordinates":[[28.126937,-26.02909],[28.126656,-26.029756],[28.126334,-26.030373],[28.12603,-26.030931],[28.125893,-26.031189],[28.125394,-26.032111],[28.124968,-26.032895],[28.124538,-26.033683],[28.124243,-26.034228],[28.123864,-26.034933],[28.123795,-26.03506],[28.123688,-26.035256],[28.123482,-26.035632]]}},{"type":"Feature","properties":{"id":"way/65502833","name":"Gautrain","network":"Gautrain"},"geometry":{"type":"LineString","coordinates":[[28.138132,-26.085615],[28.137297,-26.085131],[28.136481,-26.08465],[28.135978,-26.084343],[28.135416,-26.084023],[28.13464,-26.083572],[28.133998,-26.083237],[28.133487,-26.082977],[28.132952,-26.082732],[28.132524,-26.082558],[28.131982,-26.082351],[28.131044,-26.082016],[28.130078,-26.081719],[28.129553,-26.081579],[28.129003,-26.081446],[28.128166,-26.081275],[28.127292,-26.081135],[28.126501,-26.081032],[28.125798,-26.080967],[28.125077,-26.08093],[28.124499,-26.08091],[28.124096,-26.080904],[28.123775,-26.08091],[28.12312,-26.08093],[28.122372,-26.080974],[28.121897,-26.081019],[28.121435,-26.081068],[28.120938,-26.081134],[28.120105,-26.081277],[28.119389,-26.081429],[28.118717,-26.081581],[28.118088,-26.081748],[28.117761,-26.081842],[28.117295,-26.081974]]}},{"type":"Feature","properties":{"id":"way/65502836","name":"Gautrain","network":"Gautrain"},"geometry":{"type":"LineString","coordinates":[[28.179079,-26.102825],[28.178649,-26.102616],[28.178352,-26.102485]]}},{"type":"Feature","properties":{"id":"way/65502848","name":"Gautrain","network":"Gautrain"},"geometry":{"type":"LineString","coordinates":[[28.161083,-26.098301],[28.16068,-26.098113]]}},{"type":"Feature","properties":{"id":"way/65582285","name":"Gautrain","network":"Gautrain"},"geometry":{"type":"LineString","coordinates":[[28.187618,-25.869799],[28.18698,-25.870108],[28.185493,-25.87081],[28.183979,-25.871525],[28.182521,-25.872226],[28.18175,-25.872602],[28.181026,-25.872919],[28.180209,-25.873301],[28.179398,-25.873655],[28.178545,-25.874041],[28.177691,-25.874422],[28.176842,-25.87481],[28.175892,-25.875261],[28.175603,-25.875402],[28.175326,-25.875561],[28.174812,-25.875858],[28.174185,-25.876258],[28.173838,-25.87648],[28.173519,-25.876718],[28.172993,-25.877094],[28.172498,-25.877514],[28.17208,-25.877881],[28.171595,-25.87834],[28.171237,-25.878701],[28.170869,-25.879099],[28.170212,-25.87988],[28.1699,-25.88029],[28.169646,-25.880666],[28.169364,-25.881111],[28.169125,-25.881504],[28.168668,-25.882362],[28.168446,-25.882808],[28.168241,-25.88326],[28.168001,-25.88385],[28.167802,-25.884507],[28.167463,-25.885651],[28.167123,-25.886896],[28.166792,-25.888123],[28.166476,-25.889353],[28.166336,-25.889869],[28.166212,-25.890291],[28.165928,-25.891383],[28.165629,-25.892466],[28.165444,-25.893147],[28.165256,-25.893864],[28.16487,-25.895242],[28.164675,-25.895963],[28.164505,-25.896657],[28.1643,-25.897373],[28.164113,-25.898036],[28.163471,-25.900435],[28.163235,-25.901399],[28.163015,-25.902145],[28.162802,-25.902935],[28.162591,-25.90373],[28.162197,-25.905233]]}},{"type":"Feature","properties":{"id":"way/65582290","name":"Gautrain","network":"Gautrain"},"geometry":{"type":"LineString","coordinates":[[28.151925,-25.926051],[28.150632,-25.928097],[28.150307,-25.928655],[28.150014,-25.929188],[28.149769,-25.929715]]}},{"type":"Feature","properties":{"id":"way/65582291","name":"Gautrain","network":"Gautrain"},"geometry":{"type":"LineString","coordinates":[[28.143122,-25.948207],[28.143004,-25.948566]]}},{"type":"Feature","properties":{"id":"way/65582293","name":"Gautrain","network":"Gautrain"},"geometry":{"type":"LineString","coordinates":[[28.219609,-25.760128],[28.219485,-25.760149]]}},{"type":"Feature","properties":{"id":"way/65582294","name":"Gautrain","network":"Gautrain"},"geometry":{"type":"LineString","coordinates":[[28.219971,-25.760037],[28.219747,-25.760099],[28.219609,-25.760128]]}},{"type":"Feature","properties":{"id":"way/65582297","name":"Gautrain","network":"Gautrain"},"geometry":{"type":"LineString","coordinates":[[28.190817,-25.780363],[28.190593,-25.78097],[28.190359,-25.781568],[28.18992,-25.782781]]}},{"type":"Feature","properties":{"id":"way/65582301","name":"Gautrain","network":"Gautrain"},"geometry":{"type":"LineString","coordinates":[[28.135004,-25.994907],[28.135301,-25.99549]]}},{"type":"Feature","properties":{"id":"way/65582304","name":"Gautrain","network":"Gautrain"},"geometry":{"type":"LineString","coordinates":[[28.120709,-26.05572],[28.120598,-26.056124],[28.120516,-26.056514],[28.120399,-26.057015],[28.120272,-26.057469]]}},{"type":"Feature","properties":{"id":"way/65582305","name":"Gautrain","network":"Gautrain"},"geometry":{"type":"LineString","coordinates":[[28.142447,-25.950417],[28.142039,-25.952107],[28.141761,-25.953208],[28.141577,-25.953902],[28.141325,-25.954994],[28.140837,-25.957071]]}},{"type":"Feature","properties":{"id":"way/65582308","name":"Gautrain","network":"Gautrain"},"geometry":{"type":"LineString","coordinates":[[28.149348,-25.930696],[28.149114,-25.931368],[28.148914,-25.931913]]}},{"type":"Feature","properties":{"id":"way/65582314","name":"Gautrain","network":"Gautrain"},"geometry":{"type":"LineString","coordinates":[[28.189253,-25.784706],[28.189146,-25.785017],[28.189026,-25.785322],[28.188925,-25.785574],[28.18878,-25.785931],[28.188392,-25.786688],[28.188197,-25.787069],[28.18798,-25.787411],[28.187759,-25.787731],[28.187479,-25.788123],[28.18717,-25.788514],[28.186588,-25.789146],[28.186306,-25.789432],[28.185846,-25.789847],[28.185132,-25.790447],[28.184954,-25.790591],[28.184799,-25.790714],[28.184526,-25.790911],[28.183984,-25.791338],[28.183468,-25.791749],[28.18302,-25.792135],[28.182787,-25.79234],[28.182384,-25.792762],[28.182174,-25.792986],[28.181969,-25.79322],[28.181654,-25.793619],[28.181392,-25.793978],[28.181126,-25.794379],[28.18097,-25.794623],[28.18072,-25.795078],[28.180503,-25.795507],[28.180298,-25.795966],[28.180106,-25.796454],[28.179948,-25.796944],[28.179863,-25.797254],[28.179795,-25.797541],[28.179683,-25.798184],[28.179605,-25.798952],[28.179595,-25.799143]]}},{"type":"Feature","properties":{"id":"way/65582318","name":"Gautrain","network":"Gautrain"},"geometry":{"type":"LineString","coordinates":[[28.224394,-25.756081],[28.222109,-25.758624],[28.221743,-25.759011],[28.221375,-25.759348],[28.221106,-25.759528],[28.220853,-25.759676],[28.220521,-25.759845],[28.220145,-25.759978]]}},{"type":"Feature","properties":{"id":"way/65582334","name":"Gautrain","network":"Gautrain"},"geometry":{"type":"LineString","coordinates":[[28.143004,-25.948566],[28.142697,-25.949516],[28.142447,-25.950417]]}},{"type":"Feature","properties":{"id":"way/65582339","name":"Gautrain","network":"Gautrain"},"geometry":{"type":"LineString","coordinates":[[28.140837,-25.957071],[28.140224,-25.959746],[28.139598,-25.962335],[28.139316,-25.963385],[28.139039,-25.964382],[28.138468,-25.966432],[28.137397,-25.969892],[28.136845,-25.971662],[28.136319,-25.973397],[28.135207,-25.977008],[28.134622,-25.978877],[28.134348,-25.979798],[28.134074,-25.980715],[28.133738,-25.981779]]}},{"type":"Feature","properties":{"id":"way/65582340","name":"Gautrain","network":"Gautrain"},"geometry":{"type":"LineString","coordinates":[[28.135301,-25.99549],[28.135585,-25.996044],[28.135827,-25.996536],[28.136354,-25.997584],[28.13687,-25.998653],[28.137074,-25.99916]]}},{"type":"Feature","properties":{"id":"way/65582343","name":"Gautrain","network":"Gautrain"},"geometry":{"type":"LineString","coordinates":[[28.152164,-25.925676],[28.151925,-25.926051]]}},{"type":"Feature","properties":{"id":"way/65582346","name":"Gautrain","network":"Gautrain"},"geometry":{"type":"LineString","coordinates":[[28.224726,-25.755727],[28.224394,-25.756081]]}},{"type":"Feature","properties":{"id":"way/65582348","name":"Gautrain","network":"Gautrain"},"geometry":{"type":"LineString","coordinates":[[28.120272,-26.057469],[28.120025,-26.058196],[28.11979,-26.058868]]}},{"type":"Feature","properties":{"id":"way/65582352","name":"Gautrain","network":"Gautrain"},"geometry":{"type":"LineString","coordinates":[[28.220145,-25.759978],[28.219971,-25.760037]]}},{"type":"Feature","properties":{"id":"way/65582369","name":"Gautrain","network":"Gautrain"},"geometry":{"type":"LineString","coordinates":[[28.219485,-25.760149],[28.219039,-25.760215],[28.218643,-25.760232],[28.217996,-25.760166],[28.217299,-25.760072],[28.216341,-25.75996],[28.21543,-25.759831],[28.215106,-25.759818]]}},{"type":"Feature","properties":{"id":"way/65582374","name":"Gautrain","network":"Gautrain"},"geometry":{"type":"LineString","coordinates":[[28.149769,-25.929715],[28.149577,-25.930151],[28.149452,-25.93043],[28.149348,-25.930696]]}},{"type":"Feature","properties":{"id":"way/124122878","name":"Gautrain","network":"Gautrain"},"geometry":{"type":"LineString","coordinates":[[28.224548,-26.127302],[28.224086,-26.126467],[28.223853,-26.126044],[28.22364,-26.12574],[28.2235,-26.125578],[28.223293,-26.125397],[28.223067,-26.125226],[28.22285,-26.125098],[28.222586,-26.124973],[28.222279,-26.124868],[28.221368,-26.12465],[28.22044,-26.124437]]}},{"type":"Feature","properties":{"id":"way/164079338","name":"Gautrain","network":"Gautrain"},"geometry":{"type":"LineString","coordinates":[[28.103718,-26.085071],[28.103956,-26.084994],[28.104184,-26.084925]]}},{"type":"Feature","properties":{"id":"way/164079339","name":"Gautrain","network":"Gautrain"},"geometry":{"type":"LineString","coordinates":[[28.103618,-26.08482],[28.103829,-26.084778],[28.104018,-26.084754]]}},{"type":"Feature","properties":{"id":"way/164079341","name":"Gautrain","network":"Gautrain"},"geometry":{"type":"LineString","coordinates":[[28.1039,-26.085203],[28.104265,-26.085114]]}},{"type":"Feature","properties":{"id":"way/164079342","name":"Gautrain","network":"Gautrain"},"geometry":{"type":"LineString","coordinates":[[28.104018,-26.084754],[28.104319,-26.084717],[28.104617,-26.084698],[28.10586,-26.084602],[28.10647,-26.084554],[28.10685,-26.084509],[28.107326,-26.084439],[28.107515,-26.084407]]}},{"type":"Feature","properties":{"id":"way/164079348","name":"Gautrain","network":"Gautrain"},"geometry":{"type":"LineString","coordinates":[[28.113308,-26.083038],[28.114566,-26.082708],[28.115905,-26.08237],[28.117295,-26.081974]]}},{"type":"Feature","properties":{"id":"way/164079351","name":"Gautrain","network":"Gautrain"},"geometry":{"type":"LineString","coordinates":[[28.104611,-26.084813],[28.104875,-26.084744],[28.105272,-26.084651],[28.105476,-26.084608],[28.105699,-26.084572],[28.105899,-26.084535]]}},{"type":"Feature","properties":{"id":"way/164079353","name":"Gautrain","network":"Gautrain"},"geometry":{"type":"LineString","coordinates":[[28.109982,-26.083709],[28.111141,-26.083424],[28.11269,-26.083045],[28.113225,-26.082916]]}},{"type":"Feature","properties":{"id":"way/164079355","name":"Gautrain","network":"Gautrain"},"geometry":{"type":"LineString","coordinates":[[28.109969,-26.083852],[28.110622,-26.083689],[28.111041,-26.083589],[28.112731,-26.083175],[28.113308,-26.083038]]}},{"type":"Feature","properties":{"id":"way/164079356","name":"Gautrain","network":"Gautrain"},"geometry":{"type":"LineString","coordinates":[[28.107592,-26.084202],[28.107744,-26.084171],[28.109215,-26.083871],[28.109982,-26.083709]]}},{"type":"Feature","properties":{"id":"way/164079358","name":"Gautrain","network":"Gautrain"},"geometry":{"type":"LineString","coordinates":[[28.107527,-26.084451],[28.108161,-26.08429],[28.108818,-26.084126],[28.109389,-26.083989],[28.109969,-26.083852]]}},{"type":"Feature","properties":{"id":"way/164079360","name":"Gautrain","network":"Gautrain"},"geometry":{"type":"LineString","coordinates":[[28.104265,-26.085114],[28.104731,-26.085012],[28.105323,-26.084898],[28.105903,-26.084789],[28.106537,-26.084664],[28.107097,-26.084547],[28.107527,-26.084451]]}},{"type":"Feature","properties":{"id":"way/164079361","name":"Gautrain","network":"Gautrain"},"geometry":{"type":"LineString","coordinates":[[28.099879,-26.086945],[28.100034,-26.086857],[28.100612,-26.086532],[28.101069,-26.086274],[28.101496,-26.086039],[28.10186,-26.085848],[28.102229,-26.085665],[28.102669,-26.085466],[28.103101,-26.085292],[28.103718,-26.085071]]}},{"type":"Feature","properties":{"id":"way/164079362","name":"Gautrain","network":"Gautrain"},"geometry":{"type":"LineString","coordinates":[[28.113225,-26.082916],[28.114531,-26.082563],[28.11588,-26.08214],[28.11659,-26.081882],[28.117031,-26.081663],[28.117345,-26.081482],[28.117728,-26.081233],[28.117947,-26.081082]]}},{"type":"Feature","properties":{"id":"way/164079364","name":"Gautrain","network":"Gautrain"},"geometry":{"type":"LineString","coordinates":[[28.099889,-26.08696],[28.100047,-26.086882],[28.100653,-26.08658],[28.101406,-26.086204],[28.101913,-26.085955],[28.102398,-26.085731],[28.102891,-26.085529],[28.103308,-26.085381],[28.103604,-26.085285],[28.1039,-26.085203]]}},{"type":"Feature","properties":{"id":"way/164079366","name":"Gautrain","network":"Gautrain"},"geometry":{"type":"LineString","coordinates":[[28.099848,-26.086882],[28.100244,-26.086628],[28.100569,-26.086422],[28.101382,-26.08591],[28.101643,-26.085745],[28.10205,-26.085485],[28.10245,-26.085252],[28.102651,-26.085149],[28.102861,-26.085056],[28.10303,-26.084991],[28.103191,-26.084936],[28.103418,-26.084869],[28.103618,-26.08482]]}},{"type":"Feature","properties":{"id":"way/164082082","name":"Gautrain","network":"Gautrain"},"geometry":{"type":"LineString","coordinates":[[28.153145,-26.094416],[28.152639,-26.094122]]}},{"type":"Feature","properties":{"id":"way/164082083","name":"Gautrain","network":"Gautrain"},"geometry":{"type":"LineString","coordinates":[[28.152639,-26.094122],[28.148097,-26.09146]]}},{"type":"Feature","properties":{"id":"way/164088826","name":"Gautrain","network":"Gautrain"},"geometry":{"type":"LineString","coordinates":[[28.123077,-26.03638],[28.122916,-26.036677],[28.122815,-26.036857],[28.12263,-26.037206],[28.122436,-26.037556],[28.122272,-26.037867],[28.122098,-26.038193],[28.121822,-26.03871],[28.121644,-26.039096],[28.12138,-26.039671],[28.121226,-26.040095],[28.121001,-26.040676],[28.120822,-26.041259],[28.12069,-26.041732],[28.120568,-26.042206],[28.120459,-26.04272],[28.120404,-26.042955],[28.120353,-26.043262],[28.120289,-26.043696],[28.120238,-26.04418],[28.12019,-26.044656],[28.120171,-26.04511],[28.120163,-26.045807],[28.120172,-26.046202],[28.120184,-26.046555],[28.120228,-26.047207],[28.1203,-26.04782],[28.120376,-26.048512],[28.120446,-26.049182],[28.12052,-26.049867],[28.120606,-26.050552],[28.120723,-26.051639],[28.120811,-26.05243],[28.120867,-26.053254]]}},{"type":"Feature","properties":{"id":"way/164088828","name":"Gautrain","network":"Gautrain"},"geometry":{"type":"LineString","coordinates":[[28.180044,-25.818013],[28.180085,-25.819462],[28.180136,-25.820418],[28.180227,-25.821212],[28.180296,-25.821671]]}},{"type":"Feature","properties":{"id":"way/164088829","name":"Gautrain","network":"Gautrain"},"geometry":{"type":"LineString","coordinates":[[28.11979,-26.058868],[28.119571,-26.059445]]}},{"type":"Feature","properties":{"id":"way/164088830","name":"Gautrain","network":"Gautrain"},"geometry":{"type":"LineString","coordinates":[[28.123482,-26.035632],[28.123077,-26.03638]]}},{"type":"Feature","properties":{"id":"way/164088832","name":"Gautrain","network":"Gautrain"},"geometry":{"type":"LineString","coordinates":[[28.180023,-25.817636],[28.180044,-25.818013]]}},{"type":"Feature","properties":{"id":"way/164088836","name":"Gautrain","network":"Gautrain"},"geometry":{"type":"LineString","coordinates":[[28.132622,-25.987578],[28.132708,-25.98847]]}},{"type":"Feature","properties":{"id":"way/164088838","name":"Gautrain","network":"Gautrain"},"geometry":{"type":"LineString","coordinates":[[28.179884,-25.811803],[28.179903,-25.812107]]}},{"type":"Feature","properties":{"id":"way/164088839","name":"Gautrain","network":"Gautrain"},"geometry":{"type":"LineString","coordinates":[[28.18934,-25.784468],[28.189253,-25.784706]]}},{"type":"Feature","properties":{"id":"way/164088840","name":"Gautrain","network":"Gautrain"},"geometry":{"type":"LineString","coordinates":[[28.193009,-25.769862],[28.193002,-25.770099]]}},{"type":"Feature","properties":{"id":"way/164088847","name":"Gautrain","network":"Gautrain"},"geometry":{"type":"LineString","coordinates":[[28.189513,-25.783988],[28.189424,-25.784235]]}},{"type":"Feature","properties":{"id":"way/164088849","name":"Gautrain","network":"Gautrain"},"geometry":{"type":"LineString","coordinates":[[28.133738,-25.981779],[28.133572,-25.982328]]}},{"type":"Feature","properties":{"id":"way/164088851","name":"Gautrain","network":"Gautrain"},"geometry":{"type":"LineString","coordinates":[[28.120867,-26.053254],[28.120876,-26.053658]]}},{"type":"Feature","properties":{"id":"way/164088853","name":"Gautrain","network":"Gautrain"},"geometry":{"type":"LineString","coordinates":[[28.148914,-25.931913],[28.148777,-25.932323]]}},{"type":"Feature","properties":{"id":"way/164088858","name":"Gautrain","network":"Gautrain"},"geometry":{"type":"LineString","coordinates":[[28.18992,-25.782781],[28.189513,-25.783988]]}},{"type":"Feature","properties":{"id":"way/164088859","name":"Gautrain","network":"Gautrain"},"geometry":{"type":"LineString","coordinates":[[28.189424,-25.784235],[28.18934,-25.784468]]}},{"type":"Feature","properties":{"id":"way/164088861","name":"Gautrain","network":"Gautrain"},"geometry":{"type":"LineString","coordinates":[[28.137531,-26.000777],[28.137602,-26.001427],[28.137639,-26.001976],[28.137627,-26.002422],[28.137601,-26.00302],[28.137572,-26.003423],[28.13747,-26.003994],[28.137415,-26.004282],[28.137357,-26.00454],[28.137181,-26.005099],[28.136968,-26.005694],[28.136761,-26.00621],[28.136405,-26.006889],[28.135709,-26.008119],[28.135378,-26.008725],[28.135003,-26.009348],[28.134601,-26.009961],[28.134183,-26.010536],[28.133751,-26.011098],[28.133056,-26.011966],[28.132466,-26.012704],[28.131894,-26.013441],[28.131467,-26.014017],[28.131077,-26.01458],[28.130906,-26.01484],[28.130694,-26.015204],[28.13035,-26.015813],[28.13001,-26.016483],[28.129722,-26.017147],[28.129458,-26.017841],[28.129235,-26.018509],[28.128978,-26.019411],[28.128868,-26.019875],[28.128789,-26.020329],[28.128701,-26.020836],[28.128634,-26.021309],[28.12853,-26.022004],[28.128429,-26.022689],[28.128346,-26.023315]]}},{"type":"Feature","properties":{"id":"way/164088864","name":"Gautrain","network":"Gautrain"},"geometry":{"type":"LineString","coordinates":[[28.119571,-26.059445],[28.119311,-26.060163],[28.119081,-26.06084],[28.118804,-26.061626],[28.118571,-26.062417],[28.118496,-26.06272],[28.118433,-26.063017],[28.118336,-26.063572],[28.118246,-26.064215],[28.118203,-26.064841],[28.11817,-26.065585],[28.118193,-26.066354],[28.118282,-26.067144],[28.118312,-26.067499],[28.118377,-26.067839],[28.118465,-26.068317],[28.118579,-26.068773],[28.118718,-26.069348],[28.118892,-26.06996],[28.119098,-26.070721],[28.119355,-26.07169],[28.1195,-26.072171],[28.119643,-26.072662],[28.119841,-26.07336],[28.120034,-26.07406],[28.120196,-26.074673],[28.120268,-26.075028],[28.120324,-26.075365],[28.120376,-26.075818],[28.120392,-26.076131],[28.120391,-26.076452],[28.120377,-26.076705],[28.120336,-26.077068],[28.120263,-26.077501],[28.120198,-26.077767],[28.120007,-26.07835],[28.119842,-26.078733],[28.119679,-26.079056],[28.119444,-26.079451],[28.119182,-26.079833],[28.118924,-26.08015],[28.118632,-26.080475]]}},{"type":"Feature","properties":{"id":"way/164088867","name":"Gautrain","network":"Gautrain"},"geometry":{"type":"LineString","coordinates":[[28.137074,-25.99916],[28.137213,-25.999593],[28.137343,-26.000015],[28.137531,-26.000777]]}},{"type":"Feature","properties":{"id":"way/164088869","name":"Gautrain","network":"Gautrain"},"geometry":{"type":"LineString","coordinates":[[28.179903,-25.812107],[28.179934,-25.813824],[28.179956,-25.814754],[28.179971,-25.815588],[28.180004,-25.816598],[28.180023,-25.817636]]}},{"type":"Feature","properties":{"id":"way/164088871","name":"Gautrain","network":"Gautrain"},"geometry":{"type":"LineString","coordinates":[[28.120876,-26.053658],[28.120868,-26.054149],[28.120837,-26.054676],[28.120789,-26.055192],[28.120709,-26.05572]]}},{"type":"Feature","properties":{"id":"way/164088873","name":"Gautrain","network":"Gautrain"},"geometry":{"type":"LineString","coordinates":[[28.148777,-25.932323],[28.148236,-25.933865],[28.147973,-25.93463],[28.147718,-25.935359],[28.147087,-25.937215],[28.146754,-25.938127],[28.146428,-25.939059],[28.145607,-25.941362],[28.145188,-25.942522],[28.144765,-25.943704],[28.14393,-25.945991],[28.143522,-25.947129],[28.143122,-25.948207]]}},{"type":"Feature","properties":{"id":"way/164088875","name":"Gautrain","network":"Gautrain"},"geometry":{"type":"LineString","coordinates":[[28.193002,-25.770099],[28.193,-25.770814],[28.193034,-25.771841],[28.193048,-25.772383],[28.19305,-25.772649],[28.193046,-25.77287],[28.193039,-25.773075],[28.193032,-25.773179],[28.193019,-25.773336],[28.193001,-25.77356],[28.192977,-25.773763],[28.192942,-25.774001],[28.192903,-25.774237],[28.192852,-25.774481],[28.192799,-25.774723]]}},{"type":"Feature","properties":{"id":"way/164088877","name":"Gautrain","network":"Gautrain"},"geometry":{"type":"LineString","coordinates":[[28.133572,-25.982328],[28.133261,-25.983269],[28.133008,-25.984221],[28.132862,-25.98481],[28.13275,-25.985392],[28.132677,-25.985927],[28.132626,-25.986457],[28.132612,-25.987085],[28.132622,-25.987578]]}},{"type":"Feature","properties":{"id":"way/164088879","name":"Gautrain","network":"Gautrain"},"geometry":{"type":"LineString","coordinates":[[28.132708,-25.98847],[28.132733,-25.988743],[28.132785,-25.989143],[28.132853,-25.989514],[28.132984,-25.990118],[28.133158,-25.990718],[28.133395,-25.991412],[28.133666,-25.992096],[28.133973,-25.9928],[28.13429,-25.99349],[28.134681,-25.994269],[28.135004,-25.994907]]}},{"type":"Feature","properties":{"id":"way/164090371","name":"Gautrain","network":"Gautrain"},"geometry":{"type":"LineString","coordinates":[[28.180223,-26.103464],[28.179841,-26.103231]]}},{"type":"Feature","properties":{"id":"way/164090375","name":"Gautrain","network":"Gautrain"},"geometry":{"type":"LineString","coordinates":[[28.179841,-26.103231],[28.179314,-26.102947],[28.179079,-26.102825]]}},{"type":"Feature","properties":{"id":"way/165511776","name":"Gautrain","network":"Gautrain"},"geometry":{"type":"LineString","coordinates":[[28.180296,-25.821671],[28.180387,-25.822235]]}},{"type":"Feature","properties":{"id":"way/165511778","name":"Gautrain","network":"Gautrain"},"geometry":{"type":"LineString","coordinates":[[28.180387,-25.822235],[28.180523,-25.822889],[28.180686,-25.82353],[28.180873,-25.824173],[28.181053,-25.824732],[28.181246,-25.825268],[28.181431,-25.825802],[28.181614,-25.826308],[28.182026,-25.827475],[28.182416,-25.82856],[28.182595,-25.829107],[28.182741,-25.829647],[28.182861,-25.830102],[28.182959,-25.830558],[28.183105,-25.831426],[28.183341,-25.832984],[28.183564,-25.834526]]}},{"type":"Feature","properties":{"id":"way/171578132","name":"Gautrain","network":"Gautrain"},"geometry":{"type":"LineString","coordinates":[[28.071521,-26.101003],[28.078293,-26.098393],[28.080171,-26.097686],[28.08126,-26.097266],[28.08199,-26.096879],[28.082498,-26.096528],[28.083255,-26.095862],[28.085491,-26.093589],[28.086415,-26.092761],[28.087273,-26.092152],[28.087969,-26.091706],[28.08885,-26.091221],[28.08973,-26.090812],[28.090546,-26.090493],[28.09132,-26.090231],[28.094983,-26.089134],[28.095666,-26.088901],[28.09618,-26.088708],[28.097097,-26.088308],[28.097942,-26.087915],[28.098759,-26.087504],[28.099619,-26.08703]]}},{"type":"Feature","properties":{"id":"way/194557912","name":"Gautrain","network":"Gautrain"},"geometry":{"type":"LineString","coordinates":[[28.192979,-25.762831],[28.193097,-25.762991],[28.193181,-25.763113],[28.19326,-25.763245],[28.193349,-25.763406],[28.193388,-25.763507],[28.19345,-25.763701],[28.193494,-25.763924],[28.193526,-25.764159],[28.193526,-25.764523],[28.193445,-25.765289],[28.193353,-25.766148]]}},{"type":"Feature","properties":{"id":"way/242293592","name":"Unnamed","network":"Gautrain"},"geometry":{"type":"LineString","coordinates":[[28.119174,-26.04399],[28.119177,-26.043722],[28.119198,-26.043498],[28.11928,-26.042987]]}},{"type":"Feature","properties":{"id":"way/242293593","name":"Unnamed","network":"Gautrain"},"geometry":{"type":"LineString","coordinates":[[28.119722,-26.046175],[28.119675,-26.045986],[28.119633,-26.045806],[28.11959,-26.045604],[28.119572,-26.045485],[28.119553,-26.045346],[28.119545,-26.04523],[28.119544,-26.045154],[28.119546,-26.044879],[28.119546,-26.044742],[28.119559,-26.044529],[28.119573,-26.044267],[28.119584,-26.04409],[28.119615,-26.043793],[28.119644,-26.043554],[28.119709,-26.043086],[28.119772,-26.042697],[28.119807,-26.042492],[28.11986,-26.042168],[28.119911,-26.041885],[28.11998,-26.041556],[28.119989,-26.041518],[28.120052,-26.041249],[28.120115,-26.041],[28.120177,-26.040783],[28.120253,-26.040516],[28.120322,-26.040312],[28.120413,-26.040092],[28.120552,-26.039831],[28.120748,-26.039535]]}},{"type":"Feature","properties":{"id":"way/242293594","name":"Unnamed","network":"Gautrain"},"geometry":{"type":"LineString","coordinates":[[28.120603,-26.039586],[28.120486,-26.039734],[28.120391,-26.039846],[28.120258,-26.040004],[28.120187,-26.040089],[28.120036,-26.040297],[28.119969,-26.040406],[28.119884,-26.040552],[28.1198,-26.040739],[28.119726,-26.040924],[28.119679,-26.0411],[28.119638,-26.041305],[28.119517,-26.042038],[28.119357,-26.042997],[28.119277,-26.043506],[28.119247,-26.043679],[28.119219,-26.043863],[28.119199,-26.044031],[28.119194,-26.04431]]}},{"type":"Feature","properties":{"id":"way/242293595","name":"Unnamed","network":"Gautrain"},"geometry":{"type":"LineString","coordinates":[[28.12117,-26.038917],[28.120992,-26.039125],[28.120829,-26.039324],[28.120762,-26.039405],[28.120573,-26.039689],[28.12042,-26.039919],[28.12032,-26.040089],[28.120235,-26.040302],[28.120164,-26.040526],[28.120063,-26.040832],[28.119956,-26.041245],[28.119818,-26.04187],[28.119678,-26.042695],[28.119611,-26.043059],[28.119585,-26.043249],[28.119546,-26.043546],[28.119514,-26.043808],[28.119488,-26.044076],[28.119464,-26.044455],[28.119445,-26.045023],[28.11945,-26.045183],[28.119453,-26.04524],[28.119466,-26.045338],[28.119481,-26.045425],[28.119497,-26.045489],[28.119557,-26.045741]]}},{"type":"Feature","properties":{"id":"way/242293596","name":"Unnamed","network":"Gautrain"},"geometry":{"type":"LineString","coordinates":[[28.119512,-26.045695],[28.119447,-26.045466],[28.119417,-26.045329],[28.119402,-26.045192],[28.1194,-26.045032],[28.119404,-26.044808],[28.119426,-26.044372],[28.119467,-26.043852],[28.119496,-26.043542],[28.119543,-26.043213],[28.119622,-26.042692],[28.119692,-26.042262],[28.119767,-26.041861],[28.119909,-26.041227],[28.120021,-26.040823],[28.120118,-26.040465],[28.120178,-26.040284],[28.120286,-26.040058],[28.120396,-26.039878],[28.120603,-26.039586],[28.120829,-26.039324]]}},{"type":"Feature","properties":{"id":"way/242293597","name":"Unnamed","network":"Gautrain"},"geometry":{"type":"LineString","coordinates":[[28.119743,-26.040726],[28.11964,-26.040936],[28.119573,-26.041085],[28.119518,-26.041226],[28.119474,-26.041368],[28.119427,-26.041585],[28.119357,-26.042017],[28.119201,-26.042976],[28.119159,-26.043238],[28.119145,-26.043388],[28.119144,-26.043499],[28.119154,-26.043698],[28.119174,-26.04399],[28.119175,-26.044038],[28.119182,-26.044158],[28.119194,-26.04431],[28.119201,-26.044414],[28.119221,-26.044617]]}},{"type":"Feature","properties":{"id":"way/242668439","name":"Gautrain","network":"Gautrain"},"geometry":{"type":"LineString","coordinates":[[28.213967,-25.760059],[28.213337,-25.760303],[28.21271,-25.760542],[28.212228,-25.760723],[28.211992,-25.760776],[28.211801,-25.760803],[28.211433,-25.76083],[28.210923,-25.760813],[28.209074,-25.760573],[28.207179,-25.760321],[28.205241,-25.760061],[28.203758,-25.759853],[28.203258,-25.759791],[28.202957,-25.759765],[28.202753,-25.759755],[28.202585,-25.759757],[28.202409,-25.759769],[28.202215,-25.759791],[28.202055,-25.759818],[28.201884,-25.759856],[28.20172,-25.759904],[28.201592,-25.759943],[28.201424,-25.760007],[28.201313,-25.760056],[28.20119,-25.760115],[28.201097,-25.760168],[28.20096,-25.760247],[28.200785,-25.760364],[28.200504,-25.760573],[28.200229,-25.760788],[28.199899,-25.761053]]}},{"type":"Feature","properties":{"id":"way/242668440","name":"Gautrain","network":"Gautrain"},"geometry":{"type":"LineString","coordinates":[[28.215106,-25.759818],[28.214901,-25.75982],[28.214698,-25.759841],[28.214339,-25.759927],[28.213967,-25.760059]]}},{"type":"Feature","properties":{"id":"way/258987060","name":"Unnamed","network":"Gautrain"},"geometry":{"type":"LineString","coordinates":[[28.119639,-26.046031],[28.119563,-26.045766],[28.119557,-26.045741],[28.11952,-26.045505],[28.119506,-26.045361],[28.119495,-26.045235],[28.11949,-26.0451],[28.119492,-26.044909],[28.119497,-26.044668],[28.119515,-26.04433],[28.119534,-26.04407],[28.119558,-26.043814],[28.11959,-26.043549],[28.119625,-26.043337],[28.11966,-26.043073],[28.119722,-26.042697],[28.119756,-26.042497],[28.119864,-26.041877],[28.119997,-26.041264],[28.120104,-26.04085],[28.120204,-26.04053],[28.120257,-26.040359],[28.120296,-26.040251],[28.120359,-26.0401],[28.120432,-26.039954],[28.120573,-26.039689]]}},{"type":"Feature","properties":{"id":"way/258987061","name":"Unnamed","network":"Gautrain"},"geometry":{"type":"LineString","coordinates":[[28.120454,-26.049586],[28.120405,-26.049263],[28.120326,-26.048881],[28.120281,-26.048651],[28.12022,-26.048344],[28.120192,-26.048196],[28.120159,-26.047906],[28.12012,-26.047514],[28.120107,-26.047401],[28.120078,-26.04726],[28.120041,-26.047134],[28.119986,-26.046969],[28.119871,-26.046662],[28.119829,-26.04654],[28.119811,-26.046496],[28.119672,-26.046129],[28.119639,-26.046031],[28.119512,-26.045695],[28.119369,-26.045313],[28.119342,-26.045212],[28.119316,-26.04511],[28.11929,-26.044968],[28.11927,-26.044804],[28.119255,-26.044593],[28.11925,-26.044407]]}},{"type":"Feature","properties":{"id":"way/258987063","name":"Gautrain","network":"Gautrain"},"geometry":{"type":"LineString","coordinates":[[28.119811,-26.046496],[28.119739,-26.046245],[28.119722,-26.046175],[28.11969,-26.045983],[28.119666,-26.04579],[28.119651,-26.045628],[28.119642,-26.045555],[28.119642,-26.04546],[28.119655,-26.044896],[28.119662,-26.044711],[28.119665,-26.044548],[28.119685,-26.044243],[28.119719,-26.043857],[28.119756,-26.043562],[28.119795,-26.043252],[28.119827,-26.043058],[28.119892,-26.042673],[28.119937,-26.042394],[28.120015,-26.041902],[28.120062,-26.041623],[28.120113,-26.041376],[28.120139,-26.041249],[28.12021,-26.040957],[28.120253,-26.040782],[28.12032,-26.040565],[28.120376,-26.040372],[28.120409,-26.040266],[28.120481,-26.040062],[28.120591,-26.039829],[28.120663,-26.039689],[28.120748,-26.039535],[28.120865,-26.039366],[28.121007,-26.039141],[28.121099,-26.039014],[28.12117,-26.038917],[28.121242,-26.038823],[28.121514,-26.038508],[28.121789,-26.038181],[28.121998,-26.037929],[28.122134,-26.037738],[28.122213,-26.03762],[28.122282,-26.037511],[28.122395,-26.037297],[28.122452,-26.037183],[28.122727,-26.036675],[28.122901,-26.036338]]}},{"type":"Feature","properties":{"id":"way/258987064","name":"Unnamed","network":"Gautrain"},"geometry":{"type":"LineString","coordinates":[[28.119986,-26.046969],[28.119888,-26.046768],[28.119846,-26.046674],[28.119762,-26.046517],[28.119563,-26.046121],[28.119478,-26.045958],[28.119406,-26.045797],[28.119286,-26.045461],[28.119237,-26.045331],[28.1192,-26.045196],[28.119156,-26.044987],[28.119105,-26.044716],[28.118991,-26.044091],[28.118967,-26.04393]]}},{"type":"Feature","properties":{"id":"way/258987065","name":"Unnamed","network":"Gautrain"},"geometry":{"type":"LineString","coordinates":[[28.119762,-26.046517],[28.119657,-26.046258],[28.119542,-26.045951],[28.11944,-26.045667],[28.119322,-26.045352],[28.119288,-26.04524],[28.119255,-26.04511],[28.119217,-26.044902],[28.119173,-26.044676],[28.119097,-26.044272],[28.119037,-26.043935],[28.119015,-26.043801],[28.11901,-26.04367],[28.119013,-26.043582],[28.119023,-26.043499],[28.119034,-26.043406],[28.119071,-26.043188],[28.119109,-26.042964]]}},{"type":"Feature","properties":{"id":"way/277922785","name":"Gautrain","network":"Gautrain"},"geometry":{"type":"LineString","coordinates":[[28.224586,-26.127271],[28.224616,-26.127325],[28.225021,-26.128032],[28.225296,-26.128523],[28.225379,-26.128671],[28.225568,-26.129007],[28.225755,-26.129346],[28.226075,-26.129927],[28.2263,-26.130323],[28.226449,-26.130539],[28.226585,-26.130704],[28.226783,-26.130898],[28.226972,-26.131049],[28.227094,-26.13113],[28.227218,-26.131205],[28.227348,-26.131269],[28.227464,-26.131321],[28.227614,-26.131376],[28.227815,-26.131437],[28.228122,-26.131513],[28.229294,-26.131765],[28.229512,-26.131811],[28.230926,-26.132117],[28.231229,-26.132181]]}},{"type":"Feature","properties":{"id":"way/410897251","name":"Gautrain","network":"Gautrain"},"geometry":{"type":"LineString","coordinates":[[28.118285,-26.080798],[28.117947,-26.081082]]}},{"type":"Feature","properties":{"id":"way/410897252","name":"Gautrain","network":"Gautrain"},"geometry":{"type":"LineString","coordinates":[[28.118632,-26.080475],[28.118285,-26.080798]]}},{"type":"Feature","properties":{"id":"way/427825937","name":"Gautrain","network":"Gautrain"},"geometry":{"type":"LineString","coordinates":[[28.161284,-25.908661],[28.160997,-25.909661],[28.160852,-25.910181],[28.160719,-25.910726],[28.160464,-25.911453],[28.160174,-25.912233],[28.159901,-25.912895],[28.159626,-25.91353],[28.158955,-25.914834],[28.158512,-25.915643],[28.158067,-25.916374],[28.157125,-25.917896],[28.156201,-25.919408],[28.155183,-25.921],[28.154523,-25.922029],[28.153649,-25.923375],[28.152164,-25.925676]]}},{"type":"Feature","properties":{"id":"way/427825938","name":"Gautrain","network":"Gautrain"},"geometry":{"type":"LineString","coordinates":[[28.162197,-25.905233],[28.161888,-25.906403]]}},{"type":"Feature","properties":{"id":"way/536994744","name":"Gautrain","network":"Gautrain"},"geometry":{"type":"LineString","coordinates":[[28.158024,-26.09684],[28.156981,-26.096337],[28.155857,-26.095802],[28.155195,-26.095484],[28.154539,-26.095165],[28.153961,-26.094859],[28.153385,-26.094545],[28.153145,-26.094416]]}},{"type":"Feature","properties":{"id":"way/536994745","name":"Gautrain","network":"Gautrain"},"geometry":{"type":"LineString","coordinates":[[28.15862,-26.097119],[28.158024,-26.09684]]}},{"type":"Feature","properties":{"id":"way/537266054","name":"Gautrain","network":"Gautrain"},"geometry":{"type":"LineString","coordinates":[[28.192814,-25.762432],[28.1931,-25.762764]]}},{"type":"Feature","properties":{"id":"way/537266055","name":"Gautrain","network":"Gautrain"},"geometry":{"type":"LineString","coordinates":[[28.191013,-25.760344],[28.191288,-25.760669],[28.191361,-25.760744],[28.191441,-25.760836],[28.191599,-25.761007],[28.191847,-25.761297]]}},{"type":"Feature","properties":{"id":"way/537266056","name":"Gautrain","network":"Gautrain"},"geometry":{"type":"LineString","coordinates":[[28.191847,-25.761297],[28.192119,-25.761648],[28.192276,-25.76185]]}},{"type":"Feature","properties":{"id":"way/537266825","name":"Gautrain","network":"Gautrain"},"geometry":{"type":"LineString","coordinates":[[28.192276,-25.76185],[28.192743,-25.762521]]}},{"type":"Feature","properties":{"id":"way/537266827","name":"Gautrain","network":"Gautrain"},"geometry":{"type":"LineString","coordinates":[[28.193047,-25.762797],[28.193214,-25.762973],[28.193329,-25.763078],[28.193492,-25.763242],[28.193617,-25.76335],[28.19372,-25.763429],[28.193872,-25.763529],[28.19402,-25.763619],[28.194208,-25.76371],[28.194374,-25.763784],[28.194527,-25.763843],[28.194669,-25.763885],[28.194878,-25.763921],[28.195029,-25.763941],[28.195169,-25.763949],[28.195297,-25.763953],[28.195467,-25.763949],[28.195643,-25.763934],[28.195853,-25.763905],[28.19602,-25.763868],[28.196244,-25.763799],[28.196476,-25.763708],[28.19661,-25.763647],[28.196765,-25.763561],[28.196969,-25.76343]]}},{"type":"Feature","properties":{"id":"way/537267722","name":"Gautrain","network":"Gautrain"},"geometry":{"type":"LineString","coordinates":[[28.19993,-25.761085],[28.200258,-25.760821],[28.200514,-25.760615],[28.200793,-25.760411],[28.200956,-25.7603],[28.201054,-25.760239],[28.201204,-25.760154],[28.201354,-25.760085],[28.201502,-25.76002],[28.201674,-25.759959],[28.201826,-25.759914],[28.201969,-25.759877],[28.202142,-25.759844],[28.202274,-25.759825],[28.202415,-25.759809],[28.202574,-25.759802],[28.202753,-25.759799],[28.202958,-25.759806],[28.203247,-25.759835],[28.203764,-25.759898],[28.205244,-25.760105],[28.207183,-25.760361],[28.209079,-25.76061],[28.210922,-25.760846],[28.211453,-25.760863],[28.21181,-25.760839],[28.212022,-25.76081],[28.212247,-25.760752],[28.212722,-25.760576],[28.213357,-25.760329],[28.213977,-25.7601]]}},{"type":"Feature","properties":{"id":"way/537268862","name":"Gautrain","network":"Gautrain"},"geometry":{"type":"LineString","coordinates":[[28.192961,-25.770094],[28.19295,-25.770819],[28.19301,-25.772391],[28.193009,-25.77263],[28.193007,-25.77286],[28.192996,-25.773094],[28.192985,-25.773318],[28.192969,-25.77349],[28.192933,-25.773772],[28.192916,-25.773927],[28.19287,-25.774198],[28.192825,-25.774421],[28.192759,-25.774719]]}},{"type":"Feature","properties":{"id":"way/537268864","name":"Gautrain","network":"Gautrain"},"geometry":{"type":"LineString","coordinates":[[28.192627,-25.762308],[28.19281,-25.762542],[28.193014,-25.762813]]}},{"type":"Feature","properties":{"id":"way/537274084","name":"Gautrain","network":"Gautrain"},"geometry":{"type":"LineString","coordinates":[[28.231853,-25.749867],[28.232574,-25.749633],[28.233986,-25.749175],[28.234196,-25.749107],[28.234847,-25.748877],[28.235484,-25.748643],[28.235983,-25.748472],[28.236481,-25.748305],[28.237077,-25.748102]]}},{"type":"Feature","properties":{"id":"way/537274776","name":"Gautrain","network":"Gautrain"},"geometry":{"type":"LineString","coordinates":[[28.224775,-25.75575],[28.225414,-25.755024],[28.225612,-25.754822],[28.226449,-25.753889],[28.226607,-25.753722],[28.227106,-25.753176],[28.227337,-25.752923],[28.228311,-25.751848],[28.228633,-25.751502],[28.228962,-25.751205],[28.229367,-25.750891],[28.229754,-25.750659],[28.229976,-25.750548],[28.230207,-25.750447],[28.230599,-25.750289],[28.231853,-25.749867]]}},{"type":"Feature","properties":{"id":"way/537276025","name":"Gautrain","network":"Gautrain"},"geometry":{"type":"LineString","coordinates":[[28.215133,-25.759849],[28.215428,-25.759863],[28.216335,-25.759994],[28.217314,-25.760105],[28.218,-25.760197],[28.218657,-25.760264],[28.219046,-25.76025],[28.219484,-25.76018]]}},{"type":"Feature","properties":{"id":"way/537276026","name":"Gautrain","network":"Gautrain"},"geometry":{"type":"LineString","coordinates":[[28.213977,-25.7601],[28.214361,-25.75996],[28.214709,-25.759875],[28.214913,-25.759853],[28.215133,-25.759849]]}},{"type":"Feature","properties":{"id":"way/537276027","name":"Gautrain","network":"Gautrain"},"geometry":{"type":"LineString","coordinates":[[28.219988,-25.760066],[28.220173,-25.760006]]}},{"type":"Feature","properties":{"id":"way/537276028","name":"Gautrain","network":"Gautrain"},"geometry":{"type":"LineString","coordinates":[[28.219622,-25.760153],[28.21976,-25.760126],[28.219988,-25.760066]]}},{"type":"Feature","properties":{"id":"way/537276029","name":"Gautrain","network":"Gautrain"},"geometry":{"type":"LineString","coordinates":[[28.219484,-25.76018],[28.219622,-25.760153]]}},{"type":"Feature","properties":{"id":"way/537276030","name":"Gautrain","network":"Gautrain"},"geometry":{"type":"LineString","coordinates":[[28.224441,-25.756104],[28.224775,-25.75575]]}},{"type":"Feature","properties":{"id":"way/537276031","name":"Gautrain","network":"Gautrain"},"geometry":{"type":"LineString","coordinates":[[28.220173,-25.760006],[28.220562,-25.75987],[28.220881,-25.759709],[28.221136,-25.759554],[28.221417,-25.759361],[28.22179,-25.759022],[28.222152,-25.758648],[28.224441,-25.756104]]}},{"type":"Feature","properties":{"id":"way/539423297","name":"Gautrain","network":"Gautrain"},"geometry":{"type":"LineString","coordinates":[[28.192969,-25.76986],[28.192961,-25.770094]]}},{"type":"Feature","properties":{"id":"way/539423298","name":"Gautrain","network":"Gautrain"},"geometry":{"type":"LineString","coordinates":[[28.193353,-25.766148],[28.193333,-25.766327],[28.193221,-25.76731],[28.193145,-25.76794],[28.193068,-25.768599],[28.192995,-25.769393],[28.192969,-25.76986]]}},{"type":"Feature","properties":{"id":"way/539423299","name":"Gautrain","network":"Gautrain"},"geometry":{"type":"LineString","coordinates":[[28.192048,-25.776903],[28.191409,-25.778746],[28.190787,-25.780353]]}},{"type":"Feature","properties":{"id":"way/539423300","name":"Gautrain","network":"Gautrain"},"geometry":{"type":"LineString","coordinates":[[28.192759,-25.774719],[28.192048,-25.776903]]}},{"type":"Feature","properties":{"id":"way/539425914","name":"Gautrain","network":"Gautrain"},"geometry":{"type":"LineString","coordinates":[[28.189224,-25.784678],[28.189102,-25.785022],[28.188992,-25.785317],[28.188896,-25.785559],[28.18874,-25.785924],[28.188363,-25.786675],[28.188163,-25.787053],[28.187941,-25.787398],[28.187724,-25.787714],[28.187442,-25.788109],[28.187133,-25.788497],[28.186554,-25.78913],[28.186259,-25.789415],[28.185816,-25.789817],[28.1851,-25.79042],[28.184915,-25.790574],[28.184777,-25.790684],[28.184502,-25.790885],[28.183952,-25.791316],[28.183436,-25.791724],[28.182984,-25.792109],[28.182757,-25.792316],[28.182347,-25.792741],[28.182139,-25.792964],[28.18193,-25.793207],[28.181613,-25.793601],[28.181351,-25.793961],[28.18108,-25.794363],[28.180923,-25.794622],[28.180683,-25.795065],[28.180463,-25.795498],[28.180255,-25.795958],[28.18006,-25.79645],[28.179908,-25.796928],[28.179816,-25.797254],[28.179752,-25.79754],[28.179639,-25.798178],[28.179556,-25.798955],[28.179547,-25.799143]]}},{"type":"Feature","properties":{"id":"way/539425915","name":"Gautrain","network":"Gautrain"},"geometry":{"type":"LineString","coordinates":[[28.18931,-25.784431],[28.189224,-25.784678]]}},{"type":"Feature","properties":{"id":"way/539425916","name":"Gautrain","network":"Gautrain"},"geometry":{"type":"LineString","coordinates":[[28.189393,-25.784201],[28.18931,-25.784431]]}},{"type":"Feature","properties":{"id":"way/539425917","name":"Gautrain","network":"Gautrain"},"geometry":{"type":"LineString","coordinates":[[28.189476,-25.783973],[28.189393,-25.784201]]}},{"type":"Feature","properties":{"id":"way/539425918","name":"Gautrain","network":"Gautrain"},"geometry":{"type":"LineString","coordinates":[[28.189885,-25.78278],[28.189476,-25.783973]]}},{"type":"Feature","properties":{"id":"way/539425919","name":"Gautrain","network":"Gautrain"},"geometry":{"type":"LineString","coordinates":[[28.190321,-25.781568],[28.189885,-25.78278]]}},{"type":"Feature","properties":{"id":"way/539429407","name":"Gautrain","network":"Gautrain"},"geometry":{"type":"LineString","coordinates":[[28.179573,-25.799479],[28.179595,-25.799143]]}},{"type":"Feature","properties":{"id":"way/539429408","name":"Gautrain","network":"Gautrain"},"geometry":{"type":"LineString","coordinates":[[28.179573,-25.799479],[28.179566,-25.799712],[28.179566,-25.800054],[28.179615,-25.801891],[28.179636,-25.802718],[28.179685,-25.804339],[28.179717,-25.805493],[28.179729,-25.806057],[28.179749,-25.807049],[28.17978,-25.808052],[28.1798,-25.80919]]}},{"type":"Feature","properties":{"id":"way/539430416","name":"Gautrain","network":"Gautrain"},"geometry":{"type":"LineString","coordinates":[[28.179824,-25.809787],[28.179884,-25.811803]]}},{"type":"Feature","properties":{"id":"way/539430417","name":"Gautrain","network":"Gautrain"},"geometry":{"type":"LineString","coordinates":[[28.1798,-25.80919],[28.179824,-25.809787]]}},{"type":"Feature","properties":{"id":"way/539434570","name":"Gautrain","network":"Gautrain"},"geometry":{"type":"LineString","coordinates":[[28.180003,-25.818013],[28.180042,-25.819474],[28.180099,-25.820422],[28.180182,-25.821223],[28.180252,-25.821675]]}},{"type":"Feature","properties":{"id":"way/539434571","name":"Gautrain","network":"Gautrain"},"geometry":{"type":"LineString","coordinates":[[28.179985,-25.817634],[28.180003,-25.818013]]}},{"type":"Feature","properties":{"id":"way/539434572","name":"Gautrain","network":"Gautrain"},"geometry":{"type":"LineString","coordinates":[[28.179776,-25.809789],[28.179845,-25.811803]]}},{"type":"Feature","properties":{"id":"way/539434573","name":"Gautrain","network":"Gautrain"},"geometry":{"type":"LineString","coordinates":[[28.179776,-25.809789],[28.179753,-25.809196]]}},{"type":"Feature","properties":{"id":"way/539434574","name":"Gautrain","network":"Gautrain"},"geometry":{"type":"LineString","coordinates":[[28.179855,-25.81211],[28.179895,-25.813824],[28.179912,-25.814761],[28.17993,-25.815599],[28.179954,-25.816604],[28.179985,-25.817634]]}},{"type":"Feature","properties":{"id":"way/539434575","name":"Gautrain","network":"Gautrain"},"geometry":{"type":"LineString","coordinates":[[28.179845,-25.811803],[28.179855,-25.81211]]}},{"type":"Feature","properties":{"id":"way/539434576","name":"Gautrain","network":"Gautrain"},"geometry":{"type":"LineString","coordinates":[[28.179537,-25.799468],[28.179525,-25.799706],[28.179529,-25.800077],[28.179572,-25.801886],[28.179594,-25.80272],[28.179639,-25.804343],[28.179673,-25.805501],[28.179686,-25.806061],[28.179709,-25.807053],[28.17974,-25.808055],[28.179753,-25.809196]]}},{"type":"Feature","properties":{"id":"way/539434577","name":"Gautrain","network":"Gautrain"},"geometry":{"type":"LineString","coordinates":[[28.179547,-25.799143],[28.179537,-25.799468]]}},{"type":"Feature","properties":{"id":"way/539437986","name":"Gautrain","network":"Gautrain"},"geometry":{"type":"LineString","coordinates":[[28.1876,-25.869768],[28.186956,-25.87009],[28.185464,-25.870782],[28.183956,-25.871496],[28.1825,-25.872202],[28.181725,-25.872571],[28.181009,-25.872888],[28.180191,-25.873269],[28.179378,-25.873628],[28.178522,-25.874016],[28.177675,-25.874395],[28.176823,-25.87478],[28.17586,-25.875228],[28.175574,-25.875377],[28.175305,-25.875529],[28.174793,-25.875832],[28.174157,-25.876231],[28.173808,-25.876454],[28.17349,-25.876693],[28.172958,-25.877079],[28.172466,-25.877495],[28.172041,-25.877865],[28.171556,-25.878327],[28.171206,-25.878673],[28.17083,-25.879084],[28.170176,-25.879866],[28.169859,-25.880276],[28.169609,-25.880649],[28.169316,-25.881099],[28.169074,-25.88151],[28.168615,-25.882352],[28.168405,-25.88279],[28.168204,-25.883258],[28.167964,-25.88385],[28.167752,-25.884507],[28.167425,-25.885647],[28.167081,-25.886894],[28.166749,-25.888112],[28.166428,-25.889362],[28.166287,-25.889875],[28.166173,-25.890284],[28.165886,-25.891387],[28.165582,-25.89247],[28.165404,-25.893137],[28.165214,-25.893863],[28.164825,-25.895239],[28.164631,-25.895963],[28.164458,-25.896647],[28.164261,-25.897372],[28.164073,-25.898046],[28.163427,-25.900447],[28.1632,-25.901399],[28.162979,-25.902149],[28.162771,-25.902936],[28.162554,-25.903721],[28.162154,-25.905222]]}},{"type":"Feature","properties":{"id":"way/539437987","name":"Gautrain","network":"Gautrain"},"geometry":{"type":"LineString","coordinates":[[28.18352,-25.834533],[28.183696,-25.835695],[28.183943,-25.837472],[28.184135,-25.838757],[28.184331,-25.84006],[28.184791,-25.842957],[28.184937,-25.843671],[28.185057,-25.844137],[28.185205,-25.844639],[28.185377,-25.845161],[28.185548,-25.845619],[28.185721,-25.846019],[28.186111,-25.846834],[28.186474,-25.847495],[28.1869,-25.848181],[28.187254,-25.848683],[28.188888,-25.850891],[28.189123,-25.851213]]}},{"type":"Feature","properties":{"id":"way/539437988","name":"Gautrain","network":"Gautrain"},"geometry":{"type":"LineString","coordinates":[[28.180343,-25.822237],[28.180479,-25.822905],[28.180645,-25.823537],[28.180826,-25.824183],[28.181013,-25.824752],[28.181202,-25.825287],[28.181388,-25.825813],[28.181569,-25.826321],[28.181985,-25.827482],[28.182371,-25.828571],[28.18255,-25.829122],[28.182698,-25.829658],[28.182812,-25.830113],[28.182912,-25.830568],[28.183065,-25.831436],[28.183303,-25.832994],[28.18352,-25.834533]]}},{"type":"Feature","properties":{"id":"way/539437989","name":"Gautrain","network":"Gautrain"},"geometry":{"type":"LineString","coordinates":[[28.180252,-25.821675],[28.180343,-25.822237]]}},{"type":"Feature","properties":{"id":"way/539451991","name":"Gautrain","network":"Gautrain"},"geometry":{"type":"LineString","coordinates":[[28.161404,-25.908216],[28.161284,-25.908661]]}},{"type":"Feature","properties":{"id":"way/539451992","name":"Gautrain","network":"Gautrain"},"geometry":{"type":"LineString","coordinates":[[28.161888,-25.906403],[28.161642,-25.90736],[28.161404,-25.908216]]}},{"type":"Feature","properties":{"id":"way/539466737","name":"Gautrain","network":"Gautrain"},"geometry":{"type":"LineString","coordinates":[[28.148735,-25.93231],[28.148205,-25.933848],[28.147932,-25.934621],[28.147674,-25.935349],[28.147044,-25.937205],[28.146384,-25.939049],[28.145578,-25.941344],[28.145149,-25.94251],[28.144722,-25.943695],[28.143896,-25.945981],[28.143479,-25.947115],[28.143092,-25.948195]]}},{"type":"Feature","properties":{"id":"way/539466738","name":"Gautrain","network":"Gautrain"},"geometry":{"type":"LineString","coordinates":[[28.149737,-25.929702],[28.149309,-25.930697]]}},{"type":"Feature","properties":{"id":"way/539466739","name":"Gautrain","network":"Gautrain"},"geometry":{"type":"LineString","coordinates":[[28.151885,-25.926035],[28.150595,-25.92808],[28.150254,-25.928658],[28.149981,-25.929179],[28.149737,-25.929702]]}},{"type":"Feature","properties":{"id":"way/539466740","name":"Gautrain","network":"Gautrain"},"geometry":{"type":"LineString","coordinates":[[28.152127,-25.925664],[28.151885,-25.926035]]}},{"type":"Feature","properties":{"id":"way/539466741","name":"Gautrain","network":"Gautrain"},"geometry":{"type":"LineString","coordinates":[[28.161246,-25.908661],[28.160964,-25.909655],[28.160801,-25.910204],[28.160661,-25.910723],[28.160419,-25.911466],[28.160136,-25.912223],[28.159869,-25.912883],[28.159582,-25.913518],[28.158914,-25.914831],[28.158474,-25.915632],[28.158021,-25.916371],[28.15709,-25.917876],[28.156163,-25.919392],[28.155141,-25.920986],[28.154479,-25.922018],[28.153608,-25.923357],[28.152127,-25.925664]]}},{"type":"Feature","properties":{"id":"way/539466742","name":"Gautrain","network":"Gautrain"},"geometry":{"type":"LineString","coordinates":[[28.161364,-25.908217],[28.161246,-25.908661]]}},{"type":"Feature","properties":{"id":"way/539466743","name":"Gautrain","network":"Gautrain"},"geometry":{"type":"LineString","coordinates":[[28.161836,-25.906396],[28.161591,-25.907342],[28.161364,-25.908217]]}},{"type":"Feature","properties":{"id":"way/539466744","name":"Gautrain","network":"Gautrain"},"geometry":{"type":"LineString","coordinates":[[28.162154,-25.905222],[28.161836,-25.906396]]}},{"type":"Feature","properties":{"id":"way/539486448","name":"Gautrain","network":"Gautrain"},"geometry":{"type":"LineString","coordinates":[[28.125893,-26.031189],[28.125689,-26.031526],[28.125592,-26.031668],[28.125473,-26.031881],[28.125353,-26.032101],[28.125111,-26.032551],[28.124934,-26.032877],[28.124601,-26.033491],[28.124497,-26.033679],[28.124297,-26.034047],[28.124198,-26.034231],[28.124139,-26.034344],[28.124079,-26.034479],[28.12401,-26.034634],[28.123864,-26.034933]]}},{"type":"Feature","properties":{"id":"way/539487973","name":"Gautrain","network":"Gautrain"},"geometry":{"type":"LineString","coordinates":[[28.123005,-26.036357],[28.123368,-26.03568]]}},{"type":"Feature","properties":{"id":"way/539487974","name":"Gautrain","network":"Gautrain"},"geometry":{"type":"LineString","coordinates":[[28.123368,-26.03568],[28.123503,-26.035436],[28.123675,-26.035117],[28.123761,-26.034959],[28.123975,-26.03456],[28.124023,-26.034473],[28.124059,-26.034411],[28.124077,-26.034374],[28.124293,-26.033973],[28.124398,-26.033784],[28.12448,-26.03363],[28.124656,-26.033306],[28.124892,-26.032875],[28.125146,-26.032398],[28.125247,-26.032216],[28.125384,-26.031956],[28.125645,-26.031485],[28.125905,-26.031023],[28.126275,-26.03037],[28.126502,-26.029956],[28.126753,-26.029468],[28.126892,-26.029087]]}},{"type":"Feature","properties":{"id":"way/539487975","name":"Gautrain","network":"Gautrain"},"geometry":{"type":"LineString","coordinates":[[28.120826,-26.053247],[28.120769,-26.052443],[28.120596,-26.050864],[28.12056,-26.050562],[28.120484,-26.049872],[28.120454,-26.049586],[28.120407,-26.049174],[28.12034,-26.048529],[28.120258,-26.047812],[28.120187,-26.047222],[28.120137,-26.046559],[28.12013,-26.046208],[28.120126,-26.045809],[28.120128,-26.045115],[28.120153,-26.044658],[28.120192,-26.04418],[28.120247,-26.043693],[28.120316,-26.043246],[28.120408,-26.042721],[28.120521,-26.042208],[28.120648,-26.04173],[28.120778,-26.041257],[28.120961,-26.040677],[28.121181,-26.040083],[28.121343,-26.039665],[28.121607,-26.039084],[28.121788,-26.038695],[28.122053,-26.038182],[28.122224,-26.037857],[28.122386,-26.037547],[28.122572,-26.037191],[28.12275,-26.036846],[28.122868,-26.036628],[28.123005,-26.036357]]}},{"type":"Feature","properties":{"id":"way/539487977","name":"Gautrain","network":"Gautrain"},"geometry":{"type":"LineString","coordinates":[[28.124077,-26.034374],[28.124497,-26.033679]]}},{"type":"Feature","properties":{"id":"way/539490339","name":"Gautrain","network":"Gautrain"},"geometry":{"type":"LineString","coordinates":[[28.134964,-25.994917],[28.134648,-25.994276],[28.134266,-25.9935],[28.133948,-25.992808],[28.133634,-25.9921],[28.13337,-25.991421],[28.13313,-25.990726],[28.132958,-25.99012],[28.132819,-25.989512],[28.132753,-25.989144],[28.132695,-25.988744],[28.132671,-25.988469]]}},{"type":"Feature","properties":{"id":"way/539490340","name":"Gautrain","network":"Gautrain"},"geometry":{"type":"LineString","coordinates":[[28.135253,-25.995507],[28.134964,-25.994917]]}},{"type":"Feature","properties":{"id":"way/539490341","name":"Gautrain","network":"Gautrain"},"geometry":{"type":"LineString","coordinates":[[28.13703,-25.999171],[28.136814,-25.998662],[28.136306,-25.997604],[28.135774,-25.996553],[28.135526,-25.996054],[28.135253,-25.995507]]}},{"type":"Feature","properties":{"id":"way/539490342","name":"Gautrain","network":"Gautrain"},"geometry":{"type":"LineString","coordinates":[[28.137488,-26.000794],[28.137306,-26.000022],[28.137179,-25.999601],[28.13703,-25.999171]]}},{"type":"Feature","properties":{"id":"way/539490343","name":"Gautrain","network":"Gautrain"},"geometry":{"type":"LineString","coordinates":[[28.128305,-26.023317],[28.128396,-26.022682],[28.128496,-26.022],[28.128597,-26.021304],[28.128744,-26.02033],[28.128825,-26.019873],[28.128934,-26.019409],[28.129192,-26.018506],[28.129423,-26.017816],[28.129682,-26.017134],[28.129982,-26.016465],[28.130305,-26.015805],[28.130657,-26.015184],[28.130875,-26.01482],[28.13104,-26.014556],[28.131437,-26.014001],[28.131857,-26.013426],[28.132431,-26.012684],[28.133019,-26.011948],[28.133719,-26.011072],[28.134149,-26.01052],[28.134563,-26.009947],[28.134973,-26.009332],[28.135341,-26.008714],[28.135673,-26.008111],[28.136363,-26.006885],[28.136724,-26.006196],[28.136929,-26.005694],[28.137144,-26.005095],[28.137317,-26.004535],[28.137435,-26.003988],[28.137521,-26.003414],[28.137564,-26.003005],[28.13759,-26.002415],[28.137596,-26.001981],[28.137568,-26.001431],[28.137488,-26.000794]]}},{"type":"Feature","properties":{"id":"way/539490344","name":"Gautrain","network":"Gautrain"},"geometry":{"type":"LineString","coordinates":[[28.126892,-26.029087],[28.127045,-26.028744],[28.12719,-26.028387],[28.127376,-26.027873],[28.127532,-26.027369],[28.127658,-26.026916],[28.127752,-26.026555],[28.127913,-26.025872],[28.128001,-26.025285],[28.128167,-26.024331],[28.128305,-26.023317]]}},{"type":"Feature","properties":{"id":"way/539493012","name":"Gautrain","network":"Gautrain"},"geometry":{"type":"LineString","coordinates":[[28.123257,-26.035677],[28.123336,-26.035555],[28.123448,-26.035387],[28.123645,-26.035088],[28.12377,-26.034901],[28.123975,-26.03456]]}},{"type":"Feature","properties":{"id":"way/539493013","name":"Gautrain","network":"Gautrain"},"geometry":{"type":"LineString","coordinates":[[28.122901,-26.036338],[28.123078,-26.035999],[28.123257,-26.035677]]}},{"type":"Feature","properties":{"id":"way/539493014","name":"Gautrain","network":"Gautrain"},"geometry":{"type":"LineString","coordinates":[[28.148881,-25.931903],[28.148735,-25.93231]]}},{"type":"Feature","properties":{"id":"way/539493015","name":"Gautrain","network":"Gautrain"},"geometry":{"type":"LineString","coordinates":[[28.149309,-25.930697],[28.14907,-25.93137],[28.148881,-25.931903]]}},{"type":"Feature","properties":{"id":"way/539493016","name":"Gautrain","network":"Gautrain"},"geometry":{"type":"LineString","coordinates":[[28.142968,-25.948551],[28.143092,-25.948195]]}},{"type":"Feature","properties":{"id":"way/539493017","name":"Gautrain","network":"Gautrain"},"geometry":{"type":"LineString","coordinates":[[28.14241,-25.950409],[28.142662,-25.949518],[28.142968,-25.948551]]}},{"type":"Feature","properties":{"id":"way/539493018","name":"Gautrain","network":"Gautrain"},"geometry":{"type":"LineString","coordinates":[[28.140798,-25.957068],[28.141284,-25.954991],[28.141531,-25.95388],[28.141718,-25.953195],[28.142,-25.952095],[28.14241,-25.950409]]}},{"type":"Feature","properties":{"id":"way/539493019","name":"Gautrain","network":"Gautrain"},"geometry":{"type":"LineString","coordinates":[[28.133692,-25.981762],[28.134023,-25.980696],[28.134294,-25.979786],[28.134565,-25.978865],[28.13515,-25.976989],[28.136281,-25.973381],[28.137357,-25.969878],[28.138434,-25.966426],[28.139002,-25.964366],[28.139277,-25.963375],[28.139555,-25.96233],[28.140184,-25.959734],[28.140798,-25.957068]]}},{"type":"Feature","properties":{"id":"way/539493020","name":"Gautrain","network":"Gautrain"},"geometry":{"type":"LineString","coordinates":[[28.133521,-25.982313],[28.133692,-25.981762]]}},{"type":"Feature","properties":{"id":"way/539493021","name":"Gautrain","network":"Gautrain"},"geometry":{"type":"LineString","coordinates":[[28.133521,-25.982313],[28.133212,-25.98326],[28.132961,-25.98421],[28.132819,-25.984806],[28.132714,-25.985382],[28.132638,-25.98592],[28.132588,-25.986451],[28.132577,-25.987084],[28.132587,-25.987577]]}},{"type":"Feature","properties":{"id":"way/539493022","name":"Gautrain","network":"Gautrain"},"geometry":{"type":"LineString","coordinates":[[28.132671,-25.988469],[28.132587,-25.987577]]}},{"type":"Feature","properties":{"id":"way/539515648","name":"Gautrain","network":"Gautrain"},"geometry":{"type":"LineString","coordinates":[[28.041558,-26.195658],[28.041641,-26.195529],[28.042964,-26.193606],[28.043067,-26.193423],[28.043155,-26.193206],[28.04325,-26.192915],[28.044118,-26.190107],[28.044201,-26.189867],[28.044304,-26.189622],[28.04866,-26.181979],[28.049759,-26.179949],[28.049976,-26.179547],[28.050172,-26.179058],[28.050298,-26.178599],[28.050365,-26.178138],[28.050381,-26.177568],[28.050356,-26.17703],[28.050298,-26.176463],[28.050232,-26.175964],[28.045265,-26.150713],[28.044241,-26.145506],[28.04371,-26.142861],[28.043579,-26.141936],[28.043572,-26.141885],[28.043493,-26.141222],[28.043456,-26.140611],[28.043472,-26.140062],[28.04354,-26.139595],[28.0437,-26.138931],[28.043851,-26.138322],[28.046272,-26.127484],[28.046299,-26.127315],[28.046598,-26.121374],[28.046645,-26.120774],[28.046698,-26.120263],[28.046765,-26.119737],[28.046871,-26.119141],[28.047085,-26.1183],[28.047342,-26.117527],[28.047626,-26.116938],[28.048035,-26.116226],[28.048553,-26.115526],[28.048957,-26.115061],[28.049326,-26.114649],[28.049879,-26.114004],[28.050543,-26.113348],[28.051416,-26.112595],[28.052291,-26.111805],[28.053448,-26.110879],[28.0546,-26.11006],[28.057253,-26.108099]]}},{"type":"Feature","properties":{"id":"way/539515649","name":"Gautrain","network":"Gautrain"},"geometry":{"type":"LineString","coordinates":[[28.099653,-26.087073],[28.099889,-26.08696]]}},{"type":"Feature","properties":{"id":"way/539515650","name":"Gautrain","network":"Gautrain"},"geometry":{"type":"LineString","coordinates":[[28.099619,-26.08703],[28.099848,-26.086882]]}},{"type":"Feature","properties":{"id":"way/539517703","name":"Gautrain","network":"Gautrain"},"geometry":{"type":"LineString","coordinates":[[28.103699,-26.085031],[28.10394,-26.084955],[28.104167,-26.084891]]}},{"type":"Feature","properties":{"id":"way/539517704","name":"Gautrain","network":"Gautrain"},"geometry":{"type":"LineString","coordinates":[[28.105899,-26.084535],[28.106736,-26.084371],[28.107592,-26.084202]]}},{"type":"Feature","properties":{"id":"way/539517705","name":"Gautrain","network":"Gautrain"},"geometry":{"type":"LineString","coordinates":[[28.104184,-26.084925],[28.104611,-26.084813]]}},{"type":"Feature","properties":{"id":"way/539517706","name":"Gautrain","network":"Gautrain"},"geometry":{"type":"LineString","coordinates":[[28.105884,-26.084499],[28.10673,-26.084336],[28.10691,-26.0843],[28.107578,-26.084166]]}},{"type":"Feature","properties":{"id":"way/539517707","name":"Gautrain","network":"Gautrain"},"geometry":{"type":"LineString","coordinates":[[28.104599,-26.084776],[28.105884,-26.084499]]}},{"type":"Feature","properties":{"id":"way/539517708","name":"Gautrain","network":"Gautrain"},"geometry":{"type":"LineString","coordinates":[[28.104167,-26.084891],[28.104599,-26.084776]]}},{"type":"Feature","properties":{"id":"way/539517709","name":"Gautrain","network":"Gautrain"},"geometry":{"type":"LineString","coordinates":[[28.107578,-26.084166],[28.109192,-26.083838],[28.109984,-26.083668]]}},{"type":"Feature","properties":{"id":"way/539517710","name":"Gautrain","network":"Gautrain"},"geometry":{"type":"LineString","coordinates":[[28.099858,-26.086895],[28.100571,-26.086492],[28.101038,-26.08623],[28.101468,-26.085995],[28.102201,-26.085622],[28.102651,-26.085421],[28.103084,-26.08525],[28.103699,-26.085031]]}},{"type":"Feature","properties":{"id":"way/539517711","name":"Gautrain","network":"Gautrain"},"geometry":{"type":"LineString","coordinates":[[28.11826,-26.080773],[28.118602,-26.080451]]}},{"type":"Feature","properties":{"id":"way/539517712","name":"Gautrain","network":"Gautrain"},"geometry":{"type":"LineString","coordinates":[[28.11792,-26.081054],[28.11826,-26.080773]]}},{"type":"Feature","properties":{"id":"way/539517713","name":"Gautrain","network":"Gautrain"},"geometry":{"type":"LineString","coordinates":[[28.113215,-26.082878],[28.113358,-26.08284],[28.114523,-26.082531],[28.115868,-26.08211],[28.116562,-26.081856],[28.117006,-26.081647],[28.117333,-26.081456],[28.117703,-26.081207],[28.11792,-26.081054]]}},{"type":"Feature","properties":{"id":"way/539517714","name":"Gautrain","network":"Gautrain"},"geometry":{"type":"LineString","coordinates":[[28.109984,-26.083668],[28.112041,-26.083168],[28.113215,-26.082878]]}},{"type":"Feature","properties":{"id":"way/539517715","name":"Gautrain","network":"Gautrain"},"geometry":{"type":"LineString","coordinates":[[28.119535,-26.059435],[28.119748,-26.058873]]}},{"type":"Feature","properties":{"id":"way/539517716","name":"Gautrain","network":"Gautrain"},"geometry":{"type":"LineString","coordinates":[[28.118602,-26.080451],[28.11889,-26.080129],[28.119147,-26.079813],[28.119413,-26.079428],[28.119641,-26.07904],[28.119805,-26.078722],[28.119964,-26.078346],[28.120158,-26.077759],[28.120212,-26.077499],[28.120295,-26.077065],[28.120337,-26.076701],[28.120349,-26.076451],[28.120353,-26.076135],[28.120337,-26.075818],[28.120282,-26.07537],[28.120235,-26.075038],[28.12016,-26.074687],[28.119993,-26.074068],[28.119809,-26.07337],[28.119603,-26.072667],[28.119469,-26.072195],[28.119322,-26.071707],[28.119066,-26.070734],[28.118855,-26.069973],[28.118689,-26.069361],[28.118541,-26.068776],[28.118437,-26.068322],[28.118343,-26.06784],[28.118291,-26.06751],[28.118246,-26.067145],[28.118155,-26.066355],[28.118127,-26.065591],[28.11816,-26.06484],[28.118203,-26.064214],[28.118289,-26.063581],[28.118392,-26.063015],[28.118455,-26.062724],[28.118533,-26.062411],[28.118761,-26.061632],[28.119037,-26.060839],[28.119275,-26.060159],[28.119535,-26.059435]]}},{"type":"Feature","properties":{"id":"way/539517717","name":"Gautrain","network":"Gautrain"},"geometry":{"type":"LineString","coordinates":[[28.120232,-26.057462],[28.120478,-26.056507],[28.120673,-26.055722]]}},{"type":"Feature","properties":{"id":"way/539517718","name":"Gautrain","network":"Gautrain"},"geometry":{"type":"LineString","coordinates":[[28.119748,-26.058873],[28.119984,-26.058198],[28.120232,-26.057462]]}},{"type":"Feature","properties":{"id":"way/539517719","name":"Gautrain","network":"Gautrain"},"geometry":{"type":"LineString","coordinates":[[28.120834,-26.053649],[28.120826,-26.053247]]}},{"type":"Feature","properties":{"id":"way/539517720","name":"Gautrain","network":"Gautrain"},"geometry":{"type":"LineString","coordinates":[[28.120673,-26.055722],[28.120732,-26.055341],[28.120761,-26.055096],[28.120801,-26.054676],[28.120829,-26.054138],[28.120834,-26.053649]]}},{"type":"Feature","properties":{"id":"way/539590988","name":"Gautrain","network":"Gautrain"},"geometry":{"type":"LineString","coordinates":[[28.109951,-26.083821],[28.10997,-26.083816],[28.112277,-26.083244],[28.113298,-26.083002]]}},{"type":"Feature","properties":{"id":"way/539590989","name":"Gautrain","network":"Gautrain"},"geometry":{"type":"LineString","coordinates":[[28.107515,-26.084407],[28.108153,-26.084258],[28.108802,-26.084094],[28.109372,-26.083959],[28.109951,-26.083821]]}},{"type":"Feature","properties":{"id":"way/539620195","name":"Gautrain","network":"Gautrain"},"geometry":{"type":"LineString","coordinates":[[28.138994,-26.086129],[28.138132,-26.085615]]}},{"type":"Feature","properties":{"id":"way/539620196","name":"Gautrain","network":"Gautrain"},"geometry":{"type":"LineString","coordinates":[[28.147264,-26.090979],[28.144697,-26.089476],[28.141489,-26.087602],[28.140632,-26.087081],[28.139796,-26.086605],[28.139425,-26.086377],[28.138994,-26.086129]]}},{"type":"Feature","properties":{"id":"way/539640324","name":"Gautrain","network":"Gautrain"},"geometry":{"type":"LineString","coordinates":[[28.139024,-26.0861],[28.139454,-26.086352],[28.13983,-26.08658],[28.140661,-26.087053],[28.141501,-26.087567],[28.142243,-26.087996],[28.143987,-26.089019],[28.147287,-26.090953]]}},{"type":"Feature","properties":{"id":"way/539640327","name":"Gautrain","network":"Gautrain"},"geometry":{"type":"LineString","coordinates":[[28.138156,-26.085586],[28.139024,-26.0861]]}},{"type":"Feature","properties":{"id":"way/539640329","name":"Gautrain","network":"Gautrain"},"geometry":{"type":"LineString","coordinates":[[28.117281,-26.08194],[28.11775,-26.08181],[28.11808,-26.081717],[28.118708,-26.081546],[28.119378,-26.081389],[28.1201,-26.081242],[28.120931,-26.081102],[28.121427,-26.081035],[28.12189,-26.080986],[28.122378,-26.08094],[28.123129,-26.080893],[28.123776,-26.080873],[28.124096,-26.080869],[28.124509,-26.080874],[28.125083,-26.080892],[28.125806,-26.080932],[28.126507,-26.080995],[28.127308,-26.081104],[28.128184,-26.081246],[28.129013,-26.081415],[28.129572,-26.081548],[28.130096,-26.081688],[28.131064,-26.081987],[28.132003,-26.082324],[28.132549,-26.08253],[28.132978,-26.082702],[28.133517,-26.082948],[28.134026,-26.083208],[28.134664,-26.083544],[28.135447,-26.083997],[28.136006,-26.08432],[28.136513,-26.084626],[28.137322,-26.085102],[28.138156,-26.085586]]}},{"type":"Feature","properties":{"id":"way/539640333","name":"Gautrain","network":"Gautrain"},"geometry":{"type":"LineString","coordinates":[[28.113298,-26.083002],[28.113389,-26.08298],[28.114557,-26.082674],[28.115893,-26.082329],[28.117281,-26.08194]]}},{"type":"Feature","properties":{"id":"way/539645355","name":"Gautrain","network":"Gautrain"},"geometry":{"type":"LineString","coordinates":[[28.161111,-26.098277],[28.161982,-26.098697],[28.162546,-26.098957],[28.163297,-26.099268],[28.163946,-26.099508],[28.164622,-26.099734],[28.165137,-26.099894],[28.165682,-26.100039],[28.166341,-26.100179],[28.167016,-26.10031],[28.16762,-26.10042],[28.168178,-26.100507],[28.168982,-26.100621],[28.169867,-26.100763],[28.171095,-26.100942]]}},{"type":"Feature","properties":{"id":"way/539645356","name":"Gautrain","network":"Gautrain"},"geometry":{"type":"LineString","coordinates":[[28.160695,-26.098078],[28.161111,-26.098277]]}},{"type":"Feature","properties":{"id":"way/539645357","name":"Gautrain","network":"Gautrain"},"geometry":{"type":"LineString","coordinates":[[28.158636,-26.097091],[28.160695,-26.098078]]}},{"type":"Feature","properties":{"id":"way/539645358","name":"Gautrain","network":"Gautrain"},"geometry":{"type":"LineString","coordinates":[[28.158039,-26.09681],[28.158636,-26.097091]]}},{"type":"Feature","properties":{"id":"way/539645359","name":"Gautrain","network":"Gautrain"},"geometry":{"type":"LineString","coordinates":[[28.153182,-26.094395],[28.153403,-26.094516],[28.153996,-26.094835],[28.154562,-26.095131],[28.155219,-26.095458],[28.155882,-26.095773],[28.157004,-26.096309],[28.158039,-26.09681]]}},{"type":"Feature","properties":{"id":"way/539645360","name":"Gautrain","network":"Gautrain"},"geometry":{"type":"LineString","coordinates":[[28.15267,-26.094094],[28.153182,-26.094395]]}},{"type":"Feature","properties":{"id":"way/539645361","name":"Gautrain","network":"Gautrain"},"geometry":{"type":"LineString","coordinates":[[28.148107,-26.091428],[28.15267,-26.094094]]}},{"type":"Feature","properties":{"id":"way/539645362","name":"Gautrain","network":"Gautrain"},"geometry":{"type":"LineString","coordinates":[[28.147287,-26.090953],[28.148107,-26.091428]]}},{"type":"Feature","properties":{"id":"way/539646025","name":"Gautrain","network":"Gautrain"},"geometry":{"type":"LineString","coordinates":[[28.180259,-26.103442],[28.180549,-26.103633],[28.180811,-26.103815],[28.18176,-26.104513],[28.182523,-26.105086],[28.183279,-26.105662],[28.184041,-26.106232],[28.184799,-26.106798],[28.185544,-26.107326],[28.185902,-26.107562],[28.186239,-26.107772],[28.186755,-26.108078],[28.187424,-26.108446],[28.188102,-26.108797],[28.188482,-26.108998],[28.188769,-26.109146],[28.191449,-26.110525],[28.192847,-26.11122],[28.194157,-26.111914]]}},{"type":"Feature","properties":{"id":"way/539646026","name":"Gautrain","network":"Gautrain"},"geometry":{"type":"LineString","coordinates":[[28.179861,-26.103202],[28.180259,-26.103442]]}},{"type":"Feature","properties":{"id":"way/539646027","name":"Gautrain","network":"Gautrain"},"geometry":{"type":"LineString","coordinates":[[28.1791,-26.102793],[28.179347,-26.102923],[28.179861,-26.103202]]}},{"type":"Feature","properties":{"id":"way/539646028","name":"Gautrain","network":"Gautrain"},"geometry":{"type":"LineString","coordinates":[[28.178367,-26.102461],[28.178675,-26.102589],[28.1791,-26.102793]]}},{"type":"Feature","properties":{"id":"way/539646029","name":"Gautrain","network":"Gautrain"},"geometry":{"type":"LineString","coordinates":[[28.177173,-26.102015],[28.177495,-26.10212],[28.177832,-26.102247],[28.178367,-26.102461]]}},{"type":"Feature","properties":{"id":"way/539646030","name":"Gautrain","network":"Gautrain"},"geometry":{"type":"LineString","coordinates":[[28.172476,-26.101146],[28.173587,-26.101283],[28.17483,-26.101464],[28.175238,-26.101528],[28.175945,-26.101674],[28.176329,-26.101768],[28.176768,-26.101889],[28.177173,-26.102015]]}},{"type":"Feature","properties":{"id":"way/539646031","name":"Gautrain","network":"Gautrain"},"geometry":{"type":"LineString","coordinates":[[28.171685,-26.101025],[28.172476,-26.101146]]}},{"type":"Feature","properties":{"id":"way/539646032","name":"Gautrain","network":"Gautrain"},"geometry":{"type":"LineString","coordinates":[[28.171095,-26.100942],[28.171685,-26.101025]]}},{"type":"Feature","properties":{"id":"way/539649630","name":"Gautrain","network":"Gautrain"},"geometry":{"type":"LineString","coordinates":[[28.200013,-26.114768],[28.201239,-26.115387],[28.201596,-26.115576],[28.204281,-26.116977],[28.206842,-26.118332],[28.210936,-26.120463],[28.213537,-26.121821],[28.215538,-26.122839],[28.216379,-26.123249],[28.216944,-26.123484],[28.217393,-26.123641],[28.217935,-26.123797],[28.218562,-26.123962],[28.219222,-26.12412],[28.219905,-26.124283],[28.220454,-26.124406]]}},{"type":"Feature","properties":{"id":"way/539649631","name":"Gautrain","network":"Gautrain"},"geometry":{"type":"LineString","coordinates":[[28.194157,-26.111914],[28.195552,-26.112629],[28.196254,-26.112981],[28.196632,-26.113163],[28.197004,-26.113342],[28.197774,-26.113702],[28.198534,-26.114062],[28.199146,-26.114349],[28.199531,-26.114531],[28.200013,-26.114768]]}},{"type":"Feature","properties":{"id":"way/688736651","name":"Gautrain","network":"Gautrain"},"geometry":{"type":"LineString","coordinates":[[28.191113,-25.760282],[28.191408,-25.760667],[28.19215,-25.761626],[28.192814,-25.762432]]}},{"type":"Feature","properties":{"id":"way/688736652","name":"Gautrain","network":"Gautrain"},"geometry":{"type":"LineString","coordinates":[[28.191013,-25.760344],[28.191339,-25.760766],[28.191408,-25.760858],[28.191587,-25.761085],[28.191916,-25.761479],[28.192072,-25.761662],[28.19222,-25.761848],[28.192449,-25.762139],[28.192743,-25.762521]]}},{"type":"Feature","properties":{"id":"way/722661547","name":"Gautrain","network":"Gautrain"},"geometry":{"type":"LineString","coordinates":[[28.238609,-25.747467],[28.23826,-25.747581],[28.237875,-25.747732],[28.237054,-25.747986]]}},{"type":"Feature","properties":{"id":"way/722661548","name":"Gautrain","network":"Gautrain"},"geometry":{"type":"LineString","coordinates":[[28.238649,-25.747577],[28.238893,-25.747491]]}},{"type":"Feature","properties":{"id":"way/722661549","name":"Gautrain","network":"Gautrain"},"geometry":{"type":"LineString","coordinates":[[28.237054,-25.747986],[28.236585,-25.748154],[28.236031,-25.748365],[28.235384,-25.748619],[28.234174,-25.749071],[28.233559,-25.749266],[28.23184,-25.749827],[28.230561,-25.750266],[28.230188,-25.750413],[28.229957,-25.75052],[28.229722,-25.750637],[28.229346,-25.750865],[28.228917,-25.751196],[28.2286,-25.751481],[28.228272,-25.75183],[28.227299,-25.752896],[28.226401,-25.753884],[28.225559,-25.754807],[28.224726,-25.755727]]}},{"type":"Feature","properties":{"id":"way/722661550","name":"Gautrain","network":"Gautrain"},"geometry":{"type":"LineString","coordinates":[[28.237077,-25.748102],[28.237918,-25.747826],[28.238649,-25.747577]]}},{"type":"Feature","properties":{"id":"way/744423347","name":"Gautrain","network":"Gautrain"},"geometry":{"type":"LineString","coordinates":[[28.18916,-25.851192],[28.189653,-25.851845],[28.190106,-25.852478]]}},{"type":"Feature","properties":{"id":"way/744423348","name":"Gautrain","network":"Gautrain"},"geometry":{"type":"LineString","coordinates":[[28.189123,-25.851213],[28.189602,-25.851868],[28.190064,-25.8525]]}},{"type":"Feature","properties":{"id":"way/744423349","name":"Gautrain","network":"Gautrain"},"geometry":{"type":"LineString","coordinates":[[28.190106,-25.852478],[28.190281,-25.852721],[28.190937,-25.8536],[28.191302,-25.854087],[28.191618,-25.854526],[28.19194,-25.854995],[28.192225,-25.855454],[28.192503,-25.855953],[28.192705,-25.856355],[28.192926,-25.856845],[28.193171,-25.857513],[28.193348,-25.858138],[28.193477,-25.858717],[28.193563,-25.859328],[28.193613,-25.859826],[28.19363,-25.86016],[28.193643,-25.860498],[28.193619,-25.861056],[28.193603,-25.861306],[28.193581,-25.861523],[28.193522,-25.861957],[28.193436,-25.862421],[28.193258,-25.863213],[28.193128,-25.863614],[28.192999,-25.863981],[28.192777,-25.86448],[28.192639,-25.864783],[28.192393,-25.865255],[28.192091,-25.865759],[28.191849,-25.866131],[28.191649,-25.866397],[28.191461,-25.86664],[28.190964,-25.867218],[28.190749,-25.867465],[28.190386,-25.867822],[28.189784,-25.868367],[28.189485,-25.868612],[28.188913,-25.869021],[28.18845,-25.869327],[28.188161,-25.8695],[28.187618,-25.869799]]}},{"type":"Feature","properties":{"id":"way/744423350","name":"Gautrain","network":"Gautrain"},"geometry":{"type":"LineString","coordinates":[[28.190064,-25.8525],[28.19025,-25.852755],[28.190909,-25.853635],[28.19126,-25.854115],[28.191568,-25.854545],[28.192189,-25.855482],[28.192479,-25.855994],[28.192669,-25.856366],[28.192881,-25.856858],[28.193117,-25.857524],[28.193302,-25.858147],[28.193434,-25.858729],[28.193528,-25.859339],[28.193571,-25.859839],[28.193595,-25.86017],[28.193598,-25.860508],[28.193581,-25.86106],[28.193557,-25.861311],[28.193533,-25.861545],[28.193477,-25.861965],[28.193394,-25.862417],[28.193203,-25.863223],[28.193085,-25.863623],[28.192954,-25.863978],[28.192726,-25.86448],[28.192586,-25.864782],[28.192353,-25.865231],[28.192053,-25.865733],[28.191814,-25.866101],[28.191436,-25.866604],[28.190925,-25.867204],[28.19072,-25.867442],[28.190357,-25.867796],[28.189755,-25.868339],[28.189452,-25.868583],[28.188877,-25.868997],[28.188413,-25.869302],[28.188131,-25.869469],[28.1876,-25.869768]]}},{"type":"Feature","properties":{"id":"way/746239490","name":"Gautrain","network":"Gautrain"},"geometry":{"type":"LineString","coordinates":[[28.192276,-25.76185],[28.192627,-25.762308]]}},{"type":"Feature","properties":{"id":"way/746239491","name":"Gautrain","network":"Gautrain"},"geometry":{"type":"LineString","coordinates":[[28.099619,-26.08703],[28.099858,-26.086895]]}},{"type":"Feature","properties":{"id":"way/746239492","name":"Gautrain","network":"Gautrain"},"geometry":{"type":"LineString","coordinates":[[28.19104,-25.760187],[28.191113,-25.760282]]}},{"type":"Feature","properties":{"id":"way/746242594","name":"Gautrain","network":"Gautrain"},"geometry":{"type":"LineString","coordinates":[[28.220454,-26.124406],[28.221371,-26.124614],[28.222298,-26.124839],[28.222606,-26.124941],[28.222859,-26.125058],[28.223095,-26.125198],[28.223327,-26.125373],[28.223528,-26.125554],[28.22368,-26.125731],[28.223885,-26.12603],[28.22413,-26.126453],[28.224586,-26.127271]]}},{"type":"Feature","properties":{"id":"way/746242595","name":"Gautrain","network":"Gautrain"},"geometry":{"type":"LineString","coordinates":[[28.099653,-26.087073],[28.099879,-26.086945]]}},{"type":"Feature","properties":{"id":"way/746242596","name":"Gautrain","network":"Gautrain"},"geometry":{"type":"LineString","coordinates":[[28.057253,-26.108099],[28.05865,-26.107119],[28.059445,-26.106604],[28.060191,-26.106168],[28.061796,-26.105261],[28.063693,-26.104235],[28.064503,-26.103846],[28.06512,-26.103564],[28.071536,-26.10104],[28.078324,-26.098461],[28.080203,-26.097752],[28.081299,-26.097329],[28.082031,-26.096932],[28.082551,-26.096573],[28.083313,-26.095908],[28.085555,-26.093632],[28.086467,-26.092815],[28.087307,-26.092198],[28.08801,-26.09175],[28.088891,-26.091272],[28.089752,-26.09087],[28.090577,-26.090548],[28.091346,-26.090284],[28.095006,-26.089185],[28.095692,-26.088951],[28.096204,-26.08876],[28.097123,-26.088359],[28.097971,-26.087964],[28.098793,-26.087549],[28.099653,-26.087073]]}},{"type":"Feature","properties":{"id":"way/754502372","name":"Gautrain","network":"Gautrain"},"geometry":{"type":"LineString","coordinates":[[28.189749,-25.7588],[28.190377,-25.759576],[28.191013,-25.760344]]}},{"type":"Feature","properties":{"id":"way/754502373","name":"Gautrain","network":"Gautrain"},"geometry":{"type":"LineString","coordinates":[[28.191113,-25.760282],[28.191422,-25.760733],[28.191534,-25.760892],[28.191847,-25.761297]]}},{"type":"Feature","properties":{"id":"way/818541697","name":"Gautrain","network":"Gautrain"},"geometry":{"type":"LineString","coordinates":[[28.190787,-25.780353],[28.190552,-25.780964],[28.190321,-25.781568]]}},{"type":"Feature","properties":{"id":"way/833000526","name":"Gautrain","network":"Gautrain"},"geometry":{"type":"LineString","coordinates":[[28.144697,-26.089476],[28.144354,-26.089257],[28.143987,-26.089019]]}},{"type":"Feature","properties":{"id":"way/833000527","name":"Gautrain","network":"Gautrain"},"geometry":{"type":"LineString","coordinates":[[28.141489,-26.087602],[28.142243,-26.087996]]}},{"type":"Feature","properties":{"id":"way/833000537","name":"Unnamed","network":"Gautrain"},"geometry":{"type":"LineString","coordinates":[[28.119221,-26.044617],[28.119253,-26.044781],[28.11929,-26.044968]]}},{"type":"Feature","properties":{"id":"way/833000538","name":"Unnamed","network":"Gautrain"},"geometry":{"type":"LineString","coordinates":[[28.119357,-26.043516],[28.119329,-26.0437],[28.119294,-26.043916],[28.119278,-26.04403],[28.119262,-26.044146],[28.119254,-26.044258],[28.11925,-26.044407]]}},{"type":"Feature","properties":{"id":"way/833000539","name":"Unnamed","network":"Gautrain"},"geometry":{"type":"LineString","coordinates":[[28.119071,-26.043188],[28.119057,-26.043315],[28.119048,-26.043499],[28.119049,-26.043633],[28.119065,-26.043775],[28.119084,-26.043894],[28.119126,-26.044107],[28.119168,-26.044325],[28.119221,-26.044617]]}},{"type":"Feature","properties":{"id":"way/833000540","name":"Unnamed","network":"Gautrain"},"geometry":{"type":"LineString","coordinates":[[28.120187,-26.040089],[28.119997,-26.040316],[28.119931,-26.040403],[28.119855,-26.040513],[28.119786,-26.040638],[28.119743,-26.040726],[28.119643,-26.040985],[28.119598,-26.041136],[28.119554,-26.041313],[28.119516,-26.041563],[28.119439,-26.042028],[28.11928,-26.042987]]}},{"type":"Feature","properties":{"id":"way/833000541","name":"Unnamed","network":"Gautrain"},"geometry":{"type":"LineString","coordinates":[[28.119357,-26.043516],[28.11944,-26.043008],[28.119597,-26.042048],[28.119658,-26.04165],[28.119709,-26.041363],[28.119757,-26.041086],[28.11979,-26.04095],[28.119834,-26.040818],[28.119886,-26.04068],[28.119939,-26.040559],[28.120008,-26.040427],[28.120077,-26.040303],[28.120176,-26.040156],[28.120277,-26.040002],[28.120336,-26.039919],[28.120391,-26.039846]]}},{"type":"Feature","properties":{"id":"way/833000542","name":"Gautrain","network":"Gautrain"},"geometry":{"type":"LineString","coordinates":[[28.120723,-26.051639],[28.120669,-26.051306],[28.120643,-26.05117],[28.120596,-26.050864]]}},{"type":"Feature","properties":{"id":"way/833000543","name":"Unnamed","network":"Gautrain"},"geometry":{"type":"LineString","coordinates":[[28.120371,-26.04949],[28.120355,-26.049289],[28.120354,-26.049124],[28.12035,-26.049051],[28.120326,-26.048881]]}},{"type":"Feature","properties":{"id":"way/833000544","name":"Unnamed","network":"Gautrain"},"geometry":{"type":"LineString","coordinates":[[28.120077,-26.048026],[28.120239,-26.048714],[28.120297,-26.049024],[28.120327,-26.049179],[28.120371,-26.04949],[28.120392,-26.049661],[28.120411,-26.049968]]}},{"type":"Feature","properties":{"id":"way/833000626","name":"Gautrain","network":"Gautrain"},"geometry":{"type":"LineString","coordinates":[[28.210936,-26.120463],[28.210556,-26.120287],[28.210157,-26.120098]]}},{"type":"Feature","properties":{"id":"way/868619712","name":"Gautrain","network":"Gautrain"},"geometry":{"type":"LineString","coordinates":[[28.199378,-25.761471],[28.19905,-25.761732],[28.198546,-25.762136],[28.19827,-25.762357],[28.197988,-25.762579],[28.19727,-25.763157],[28.196944,-25.763397]]}},{"type":"Feature","properties":{"id":"way/868619713","name":"Gautrain","network":"Gautrain"},"geometry":{"type":"LineString","coordinates":[[28.199899,-25.761053],[28.199378,-25.761471]]}},{"type":"Feature","properties":{"id":"way/868619714","name":"Gautrain","network":"Gautrain"},"geometry":{"type":"LineString","coordinates":[[28.19935,-25.761547],[28.19993,-25.761085]]}},{"type":"Feature","properties":{"id":"way/868619715","name":"Gautrain","network":"Gautrain"},"geometry":{"type":"LineString","coordinates":[[28.196969,-25.76343],[28.19708,-25.763353],[28.197296,-25.76319],[28.198029,-25.76261],[28.198316,-25.762377],[28.198592,-25.762154],[28.198667,-25.762093],[28.199083,-25.761762],[28.19935,-25.761547]]}},{"type":"Feature","properties":{"id":"way/1086092323","name":"Unnamed","network":"Gautrain"},"geometry":{"type":"LineString","coordinates":[[28.10997,-26.083816],[28.110622,-26.083689]]}},{"type":"Feature","properties":{"id":"way/1086092324","name":"Unnamed","network":"Gautrain"},"geometry":{"type":"LineString","coordinates":[[28.113218,-26.082883],[28.113358,-26.08284]]}},{"type":"Feature","properties":{"id":"way/1086092325","name":"Unnamed","network":"Gautrain"},"geometry":{"type":"LineString","coordinates":[[28.113299,-26.083007],[28.113389,-26.08298]]}},{"type":"Feature","properties":{"id":"way/1086092326","name":"Unnamed","network":"Gautrain"},"geometry":{"type":"LineString","coordinates":[[28.112731,-26.083175],[28.113299,-26.083007]]}},{"type":"Feature","properties":{"id":"way/1086092327","name":"Unnamed","network":"Gautrain"},"geometry":{"type":"LineString","coordinates":[[28.11269,-26.083045],[28.113218,-26.082883]]}},{"type":"Feature","properties":{"id":"way/1086094081","name":"Unnamed","network":"Gautrain"},"geometry":{"type":"LineString","coordinates":[[28.228405,-26.131612],[28.229294,-26.131765]]}},{"type":"Feature","properties":{"id":"way/1086094082","name":"Unnamed","network":"Gautrain"},"geometry":{"type":"LineString","coordinates":[[28.225296,-26.128523],[28.225664,-26.129261]]}},{"type":"Feature","properties":{"id":"way/1086094083","name":"Unnamed","network":"Gautrain"},"geometry":{"type":"LineString","coordinates":[[28.107589,-26.084195],[28.107744,-26.084171]]}},{"type":"Feature","properties":{"id":"way/1086094084","name":"Unnamed","network":"Gautrain"},"geometry":{"type":"LineString","coordinates":[[28.10691,-26.0843],[28.107589,-26.084195]]}},{"type":"Feature","properties":{"id":"way/1133617128","name":"Unnamed","network":"Gautrain"},"geometry":{"type":"LineString","coordinates":[[28.23184,-25.749827],[28.232574,-25.749633]]}},{"type":"Feature","properties":{"id":"way/1435659590","name":"Gautrain","network":"Gautrain"},"geometry":{"type":"LineString","coordinates":[[28.192743,-25.762521],[28.192979,-25.762831]]}},{"type":"Feature","properties":{"id":"way/1435659591","name":"Gautrain","network":"Gautrain"},"geometry":{"type":"LineString","coordinates":[[28.192627,-25.762308],[28.192871,-25.762594],[28.193047,-25.762797]]}}]}