{"type":"FeatureCollection","features":[{"type":"Feature","properties":{"id":"alexandra","name":"Alexandra","labelPriority":"primary","selectionBasis":"census-main-place","subPlaceCount":70},"geometry":{"type":"Polygon","coordinates":[[[28.085501,-26.101206],[28.085502,-26.102192],[28.087614,-26.106926],[28.089744,-26.111599],[28.090958,-26.114367],[28.091793,-26.116157],[28.095573,-26.115025],[28.096365,-26.114804],[28.100079,-26.113643],[28.101993,-26.11312],[28.105006,-26.112213],[28.108859,-26.111014],[28.113062,-26.109728],[28.113604,-26.109531],[28.114146,-26.1092],[28.114969,-26.10846],[28.115486,-26.107729],[28.115932,-26.106942],[28.11625,-26.10662],[28.117164,-26.106195],[28.116946,-26.105135],[28.116316,-26.105154],[28.115755,-26.105035],[28.114265,-26.103912],[28.113571,-26.10302],[28.112496,-26.101428],[28.111605,-26.099576],[28.110923,-26.098255],[28.110244,-26.097093],[28.110168,-26.097126],[28.109135,-26.095261],[28.108481,-26.093971],[28.106582,-26.094683],[28.106634,-26.093714],[28.106862,-26.093044],[28.106777,-26.092484],[28.10655,-26.091996],[28.10668,-26.091287],[28.106641,-26.090942],[28.10681,-26.089998],[28.107265,-26.089901],[28.107597,-26.089608],[28.108429,-26.088496],[28.106498,-26.088563],[28.106034,-26.088458],[28.105855,-26.089461],[28.104882,-26.089678],[28.104688,-26.089798],[28.105386,-26.090494],[28.105469,-26.090888],[28.105267,-26.091946],[28.105212,-26.092992],[28.104902,-26.093388],[28.104805,-26.094055],[28.104559,-26.094917],[28.1042,-26.095629],[28.1033,-26.095968],[28.100009,-26.096902],[28.08568,-26.101179],[28.085501,-26.101206]]]}},{"type":"Feature","properties":{"id":"soweto","name":"Soweto","labelPriority":"primary","selectionBasis":"census-main-place","subPlaceCount":97},"geometry":{"type":"Polygon","coordinates":[[[27.719822,-26.22679],[27.724951,-26.238701],[27.72579,-26.23942],[27.72653,-26.240191],[27.72611,-26.24037],[27.728531,-26.242491],[27.729151,-26.24629],[27.753481,-26.258039],[27.750519,-26.265215],[27.74465,-26.27949],[27.743799,-26.28722],[27.77651,-26.28533],[27.782801,-26.30435],[27.789721,-26.303909],[27.792299,-26.28747],[27.799669,-26.28684],[27.808451,-26.2861],[27.813681,-26.28565],[27.813801,-26.284769],[27.814211,-26.284731],[27.81484,-26.285],[27.815041,-26.28554],[27.815149,-26.286921],[27.81522,-26.294559],[27.81525,-26.299358],[27.821405,-26.297714],[27.827593,-26.296075],[27.82842,-26.295872],[27.829928,-26.295586],[27.836788,-26.29454],[27.837446,-26.294492],[27.838591,-26.294518],[27.839784,-26.29466],[27.840572,-26.29483],[27.841448,-26.295101],[27.845142,-26.296566],[27.847408,-26.297438],[27.851793,-26.29919],[27.854343,-26.300188],[27.86215,-26.303286],[27.863607,-26.303765],[27.864716,-26.304025],[27.866351,-26.304275],[27.867628,-26.30437],[27.868518,-26.30437],[27.875674,-26.304282],[27.87991,-26.304259],[27.879752,-26.303383],[27.879798,-26.303178],[27.880274,-26.302893],[27.880525,-26.302425],[27.880821,-26.302113],[27.880924,-26.301444],[27.88146,-26.300729],[27.881663,-26.300067],[27.881702,-26.299475],[27.881917,-26.299197],[27.881791,-26.298894],[27.881978,-26.298675],[27.881946,-26.298274],[27.882185,-26.298049],[27.882083,-26.297443],[27.882127,-26.297056],[27.882389,-26.296182],[27.882222,-26.295943],[27.882783,-26.295637],[27.883219,-26.295558],[27.884339,-26.294886],[27.885007,-26.294747],[27.885544,-26.294172],[27.885686,-26.292678],[27.885655,-26.291967],[27.885765,-26.291516],[27.885637,-26.291129],[27.885625,-26.289951],[27.88659,-26.289609],[27.887151,-26.289528],[27.888042,-26.289664],[27.888577,-26.28994],[27.888657,-26.289216],[27.888965,-26.288757],[27.88989,-26.287757],[27.890513,-26.286782],[27.891144,-26.28674],[27.891801,-26.279049],[27.904248,-26.281181],[27.910213,-26.282153],[27.913084,-26.282652],[27.914868,-26.282863],[27.91603,-26.282771],[27.917999,-26.282502],[27.919039,-26.282595],[27.920169,-26.283126],[27.922674,-26.284776],[27.923898,-26.285494],[27.924941,-26.285906],[27.926852,-26.286426],[27.927604,-26.283706],[27.927639,-26.28238],[27.927746,-26.282074],[27.92778,-26.280149],[27.931451,-26.280217],[27.931478,-26.279389],[27.931954,-26.279011],[27.932975,-26.279011],[27.933118,-26.271302],[27.932904,-26.270553],[27.932727,-26.270348],[27.933405,-26.270261],[27.93506,-26.270583],[27.94308,-26.272238],[27.94495,-26.272669],[27.947605,-26.27317],[27.948094,-26.271714],[27.948684,-26.270425],[27.949199,-26.269558],[27.950172,-26.268177],[27.950735,-26.267536],[27.951585,-26.266712],[27.953102,-26.265513],[27.9559,-26.263937],[27.957729,-26.26287],[27.958281,-26.262506],[27.959447,-26.261626],[27.960577,-26.26055],[27.961853,-26.259042],[27.96288,-26.257328],[27.963585,-26.255678],[27.964021,-26.254045],[27.964253,-26.252148],[27.964285,-26.251026],[27.964204,-26.249522],[27.963984,-26.247891],[27.963724,-26.246814],[27.961457,-26.239261],[27.960974,-26.237725],[27.960708,-26.23659],[27.960523,-26.235391],[27.960456,-26.234157],[27.960487,-26.232833],[27.960686,-26.231515],[27.959883,-26.231596],[27.959264,-26.23175],[27.958532,-26.232056],[27.956919,-26.232986],[27.95566,-26.233441],[27.95501,-26.233292],[27.953705,-26.232695],[27.951416,-26.232263],[27.945746,-26.230895],[27.944219,-26.230551],[27.944974,-26.230117],[27.945614,-26.228968],[27.946335,-26.227201],[27.945392,-26.226975],[27.945067,-26.226806],[27.944816,-26.226399],[27.944904,-26.225727],[27.944762,-26.225429],[27.942632,-26.225266],[27.941526,-26.225001],[27.941058,-26.224683],[27.939796,-26.224961],[27.939437,-26.224791],[27.939166,-26.224221],[27.938637,-26.223726],[27.93877,-26.222192],[27.936336,-26.221371],[27.935474,-26.220973],[27.93479,-26.220729],[27.934797,-26.222351],[27.934303,-26.222515],[27.932622,-26.221174],[27.932209,-26.222265],[27.931784,-26.223036],[27.931089,-26.223947],[27.930444,-26.224571],[27.929739,-26.22512],[27.925192,-26.220956],[27.924435,-26.220402],[27.923498,-26.219854],[27.922828,-26.219554],[27.921926,-26.219245],[27.920863,-26.21769],[27.919676,-26.216125],[27.919356,-26.215861],[27.917222,-26.214793],[27.916286,-26.214512],[27.889619,-26.205404],[27.888102,-26.205066],[27.885407,-26.20416],[27.885506,-26.203921],[27.883713,-26.203325],[27.883717,-26.203404],[27.879146,-26.201825],[27.879265,-26.201256],[27.876247,-26.199345],[27.878998,-26.192454],[27.877059,-26.191364],[27.876371,-26.191077],[27.87618,-26.190629],[27.875593,-26.190643],[27.874286,-26.190312],[27.871102,-26.189079],[27.869771,-26.189084],[27.868918,-26.188836],[27.867796,-26.18884],[27.868101,-26.187396],[27.866947,-26.187118],[27.866834,-26.186942],[27.865317,-26.186563],[27.863936,-26.186309],[27.862296,-26.18618],[27.861549,-26.185956],[27.861026,-26.185937],[27.860078,-26.186039],[27.856714,-26.186274],[27.856762,-26.184243],[27.856715,-26.183163],[27.855995,-26.183273],[27.855709,-26.181559],[27.854055,-26.181499],[27.846362,-26.182027],[27.840236,-26.182475],[27.840187,-26.182817],[27.839185,-26.184669],[27.838652,-26.185197],[27.838106,-26.186181],[27.834978,-26.18475],[27.832054,-26.181578],[27.831922,-26.181556],[27.827142,-26.181742],[27.825925,-26.181735],[27.818782,-26.182074],[27.818579,-26.181545],[27.818053,-26.180859],[27.818008,-26.180299],[27.81815,-26.179701],[27.818437,-26.179179],[27.81853,-26.178742],[27.818082,-26.17838],[27.817917,-26.177851],[27.817983,-26.17716],[27.817872,-26.176797],[27.817865,-26.175965],[27.81352,-26.17606],[27.81201,-26.17589],[27.809059,-26.17506],[27.8106,-26.182079],[27.799709,-26.181971],[27.795139,-26.18199],[27.78945,-26.18198],[27.78614,-26.18195],[27.784571,-26.18548],[27.78134,-26.1926],[27.779684,-26.19622],[27.77199,-26.213209],[27.760584,-26.210178],[27.752961,-26.219732],[27.751718,-26.219539],[27.750332,-26.219582],[27.748567,-26.220015],[27.746324,-26.220631],[27.74579,-26.220988],[27.745478,-26.221406],[27.745347,-26.222098],[27.745655,-26.222959],[27.747981,-26.227233],[27.748295,-26.228077],[27.748241,-26.228913],[27.747981,-26.22946],[27.747604,-26.229963],[27.746948,-26.230358],[27.746104,-26.230628],[27.74526,-26.230592],[27.741668,-26.229469],[27.741039,-26.22938],[27.740536,-26.229451],[27.739728,-26.229972],[27.739468,-26.230403],[27.738074,-26.233541],[27.737588,-26.233374],[27.7373,-26.230401],[27.737209,-26.228506],[27.737255,-26.227671],[27.737321,-26.224941],[27.721359,-26.226567],[27.719822,-26.22679]]]}},{"type":"Feature","properties":{"id":"diepsloot","name":"Diepsloot","labelPriority":"primary","selectionBasis":"census-main-place","subPlaceCount":14},"geometry":{"type":"Polygon","coordinates":[[[27.93699,-25.923124],[27.940849,-25.928379],[27.942113,-25.930051],[27.945184,-25.929848],[27.94622,-25.932194],[27.946829,-25.933507],[27.94485,-25.939307],[27.945952,-25.941588],[27.948251,-25.946443],[27.97557,-25.940387],[27.973029,-25.957092],[27.972991,-25.957379],[27.981637,-25.95828],[27.986824,-25.958811],[27.988096,-25.958958],[27.987806,-25.959685],[27.987992,-25.960342],[27.988922,-25.961277],[27.989731,-25.962453],[27.989911,-25.963224],[27.989304,-25.964093],[27.988993,-25.964651],[27.997202,-25.96586],[28.007881,-25.967394],[28.007945,-25.969055],[28.009729,-25.96932],[28.009871,-25.967801],[28.012938,-25.968255],[28.013273,-25.968265],[28.017578,-25.969543],[28.019304,-25.963499],[28.019371,-25.963077],[28.019333,-25.96219],[28.019143,-25.961492],[28.01792,-25.958194],[28.019467,-25.958425],[28.020542,-25.959063],[28.022614,-25.952013],[28.025482,-25.951363],[28.032755,-25.949673],[28.035202,-25.947501],[28.036008,-25.946837],[28.038677,-25.944436],[28.039835,-25.942484],[28.040366,-25.941733],[28.041988,-25.939231],[28.042467,-25.938563],[28.043871,-25.936425],[28.043925,-25.936182],[28.044608,-25.935316],[28.044823,-25.935232],[28.045946,-25.9335],[28.046723,-25.93237],[28.03933,-25.926531],[28.039141,-25.926358],[28.035268,-25.929646],[28.035069,-25.929856],[28.02948,-25.934593],[28.027388,-25.936354],[28.022379,-25.94061],[28.020348,-25.942347],[28.020045,-25.942418],[28.020977,-25.936092],[28.021368,-25.933254],[28.021957,-25.929188],[28.022196,-25.927676],[28.023209,-25.920574],[28.023422,-25.919659],[28.02378,-25.918733],[28.024309,-25.917752],[28.025319,-25.916354],[28.025789,-25.915409],[28.026015,-25.914524],[28.026198,-25.913123],[28.01663,-25.91832],[28.004471,-25.92494],[27.996929,-25.929029],[27.991739,-25.93187],[27.98786,-25.93401],[27.9863,-25.92152],[27.98592,-25.9184],[27.98514,-25.91217],[27.98476,-25.90906],[27.98398,-25.90283],[27.976681,-25.906269],[27.96686,-25.910919],[27.965621,-25.910785],[27.959779,-25.913317],[27.947009,-25.918819],[27.942128,-25.920897],[27.93699,-25.923124]]]}},{"type":"Feature","properties":{"id":"orange-farm","name":"Orange Farm","labelPriority":"primary","selectionBasis":"census-main-place","subPlaceCount":8},"geometry":{"type":"Polygon","coordinates":[[[27.846927,-26.449663],[27.847428,-26.450557],[27.847214,-26.450771],[27.847415,-26.451058],[27.847855,-26.450724],[27.849397,-26.452332],[27.847926,-26.453488],[27.848731,-26.454459],[27.849447,-26.45523],[27.849041,-26.455531],[27.848334,-26.456448],[27.84907,-26.456823],[27.848895,-26.457129],[27.849226,-26.457278],[27.849362,-26.457065],[27.850674,-26.457681],[27.851241,-26.458003],[27.851511,-26.457947],[27.850516,-26.459799],[27.851279,-26.460162],[27.851741,-26.460615],[27.85399,-26.461973],[27.854469,-26.462148],[27.853127,-26.465798],[27.852279,-26.466983],[27.853965,-26.468116],[27.854343,-26.468637],[27.855118,-26.470775],[27.855069,-26.471353],[27.848555,-26.473196],[27.848249,-26.473257],[27.848519,-26.473357],[27.851715,-26.474768],[27.853801,-26.476147],[27.854753,-26.477079],[27.855477,-26.478136],[27.855233,-26.478186],[27.855383,-26.478866],[27.855407,-26.481554],[27.855319,-26.481556],[27.855348,-26.483089],[27.855261,-26.483553],[27.855425,-26.483551],[27.855451,-26.486335],[27.860199,-26.486053],[27.861977,-26.486073],[27.862406,-26.485978],[27.865074,-26.485902],[27.865068,-26.485834],[27.866264,-26.485716],[27.867355,-26.485673],[27.868266,-26.485573],[27.866276,-26.489665],[27.864755,-26.492728],[27.873172,-26.494395],[27.87334,-26.494438],[27.874963,-26.501689],[27.883162,-26.504346],[27.883287,-26.504544],[27.884698,-26.504133],[27.884893,-26.504341],[27.88482,-26.504883],[27.88578,-26.50519],[27.88612,-26.50444],[27.88209,-26.489759],[27.881781,-26.48885],[27.881041,-26.487499],[27.880501,-26.486811],[27.87536,-26.48089],[27.874981,-26.480505],[27.87254,-26.478769],[27.872049,-26.47818],[27.870729,-26.475611],[27.870621,-26.474991],[27.870781,-26.472799],[27.87075,-26.472759],[27.87042,-26.467871],[27.86972,-26.45726],[27.869471,-26.453329],[27.86965,-26.45421],[27.869841,-26.454229],[27.869699,-26.45212],[27.86948,-26.44659],[27.868179,-26.440682],[27.867294,-26.436335],[27.866972,-26.434627],[27.866793,-26.434055],[27.866489,-26.433421],[27.865302,-26.434501],[27.863297,-26.436155],[27.859037,-26.439584],[27.854661,-26.443089],[27.853782,-26.443793],[27.848189,-26.448438],[27.846927,-26.449663]]]}},{"type":"Feature","properties":{"id":"ivory-park","name":"Ivory Park","labelPriority":"secondary","selectionBasis":"census-main-place","subPlaceCount":9},"geometry":{"type":"Polygon","coordinates":[[[28.171835,-26.008176],[28.172552,-26.009149],[28.176004,-26.014644],[28.175979,-26.014791],[28.179271,-26.019917],[28.179855,-26.020847],[28.181471,-26.019609],[28.182199,-26.01899],[28.186041,-26.016069],[28.186371,-26.0158],[28.189699,-26.013359],[28.207291,-25.999981],[28.209249,-25.998461],[28.21353,-25.995199],[28.21382,-25.994869],[28.21446,-25.99453],[28.213367,-25.988691],[28.212601,-25.98468],[28.21192,-25.98098],[28.211521,-25.978918],[28.210381,-25.978861],[28.209141,-25.978519],[28.206579,-25.97732],[28.205299,-25.97686],[28.202959,-25.976339],[28.201811,-25.976009],[28.20109,-25.975679],[28.19907,-25.97533],[28.19754,-25.97459],[28.195656,-25.980902],[28.194452,-25.9849],[28.193062,-25.984621],[28.192883,-25.9854],[28.192351,-25.986832],[28.191553,-25.988841],[28.1908,-25.990466],[28.189338,-25.99311],[28.188052,-25.995024],[28.187019,-25.996374],[28.185882,-25.997777],[28.184242,-25.999594],[28.182691,-26.001056],[28.181125,-26.002386],[28.179087,-26.003937],[28.177285,-26.005133],[28.175971,-26.005916],[28.173903,-26.007097],[28.171835,-26.008176]]]}},{"type":"Feature","properties":{"id":"kaalfontein","name":"Kaalfontein","labelPriority":"secondary","selectionBasis":"census-main-place","subPlaceCount":17},"geometry":{"type":"Polygon","coordinates":[[[28.165306,-25.998121],[28.170866,-25.99731],[28.172696,-25.997025],[28.178355,-25.996207],[28.178737,-25.996132],[28.183894,-25.995373],[28.184799,-25.995266],[28.187823,-25.994833],[28.188052,-25.995024],[28.189338,-25.99311],[28.1908,-25.990466],[28.191553,-25.988841],[28.192351,-25.986832],[28.192883,-25.9854],[28.193062,-25.984621],[28.16646,-25.979271],[28.166342,-25.979288],[28.162875,-25.981773],[28.160481,-25.983544],[28.15798,-25.985366],[28.157393,-25.985818],[28.158344,-25.987219],[28.159691,-25.989345],[28.160661,-25.990791],[28.162255,-25.993379],[28.163307,-25.994968],[28.163823,-25.995832],[28.165306,-25.998121]]]}},{"type":"Feature","properties":{"id":"ebony-park","name":"Ebony Park","labelPriority":"secondary","selectionBasis":"census-main-place","subPlaceCount":7},"geometry":{"type":"Polygon","coordinates":[[[28.165306,-25.998121],[28.165556,-25.998661],[28.167587,-26.001803],[28.169458,-26.004754],[28.170704,-26.006595],[28.170962,-26.007049],[28.171612,-26.007816],[28.171835,-26.008176],[28.173903,-26.007097],[28.175971,-26.005916],[28.177285,-26.005133],[28.179087,-26.003937],[28.181125,-26.002386],[28.182691,-26.001056],[28.184242,-25.999594],[28.185882,-25.997777],[28.187019,-25.996374],[28.188052,-25.995024],[28.187823,-25.994833],[28.184799,-25.995266],[28.183894,-25.995373],[28.178737,-25.996132],[28.178355,-25.996207],[28.172696,-25.997025],[28.170866,-25.99731],[28.165306,-25.998121]]]}},{"type":"Feature","properties":{"id":"rabie-ridge","name":"Rabie Ridge","labelPriority":"secondary","selectionBasis":"census-main-place","subPlaceCount":4},"geometry":{"type":"Polygon","coordinates":[[[28.171336,-26.028279],[28.171931,-26.029318],[28.172302,-26.029158],[28.172163,-26.028589],[28.172745,-26.028206],[28.173697,-26.028112],[28.175474,-26.028095],[28.176355,-26.028196],[28.177273,-26.028196],[28.178122,-26.028437],[28.17687,-26.035681],[28.18799,-26.03616],[28.189421,-26.03207],[28.187429,-26.03273],[28.186167,-26.030668],[28.18079,-26.022289],[28.179855,-26.020847],[28.179271,-26.019917],[28.175979,-26.014791],[28.176004,-26.014644],[28.172552,-26.009149],[28.171835,-26.008176],[28.170505,-26.008888],[28.164299,-26.012151],[28.162542,-26.013034],[28.165665,-26.018456],[28.171336,-26.028279]]]}},{"type":"Feature","properties":{"id":"mayibuye","name":"Mayibuye","labelPriority":"secondary","selectionBasis":"census-main-place","subPlaceCount":1},"geometry":{"type":"Polygon","coordinates":[[[28.172302,-26.029158],[28.174253,-26.032572],[28.174652,-26.033045],[28.174847,-26.033125],[28.174887,-26.034075],[28.175226,-26.03561],[28.174681,-26.035456],[28.165409,-26.035061],[28.159686,-26.037588],[28.159629,-26.037455],[28.155597,-26.033016],[28.155526,-26.032877],[28.15637,-26.032369],[28.157476,-26.031988],[28.157444,-26.031892],[28.158365,-26.031633],[28.16084,-26.030656],[28.160875,-26.030719],[28.161986,-26.030492],[28.162898,-26.030139],[28.163649,-26.029928],[28.163664,-26.029692],[28.164246,-26.029469],[28.166436,-26.029009],[28.167635,-26.028704],[28.168505,-26.028647],[28.169739,-26.028398],[28.171336,-26.028279],[28.171931,-26.029318],[28.172302,-26.029158]]]}},{"type":"Feature","properties":{"id":"lenasia","name":"Lenasia","labelPriority":"secondary","selectionBasis":"census-main-place","subPlaceCount":18},"geometry":{"type":"MultiPolygon","coordinates":[[[[27.82176,-26.30476],[27.82226,-26.31086],[27.822769,-26.31691],[27.82341,-26.324751],[27.824471,-26.337481],[27.82463,-26.337537],[27.824834,-26.339523],[27.825112,-26.340663],[27.826034,-26.343043],[27.826514,-26.344209],[27.8301,-26.353415],[27.831739,-26.357566],[27.832142,-26.357977],[27.832927,-26.358343],[27.833563,-26.358261],[27.839855,-26.355772],[27.839395,-26.355336],[27.838015,-26.35177],[27.837406,-26.35027],[27.837588,-26.34991],[27.836787,-26.347897],[27.836442,-26.346895],[27.835551,-26.345788],[27.834459,-26.342932],[27.833655,-26.341596],[27.833864,-26.341142],[27.83366,-26.340608],[27.834224,-26.340549],[27.835043,-26.340833],[27.836057,-26.341577],[27.837029,-26.341854],[27.837373,-26.340941],[27.837792,-26.340008],[27.83878,-26.337495],[27.842622,-26.338762],[27.842546,-26.338947],[27.850524,-26.341557],[27.851908,-26.341977],[27.852381,-26.342202],[27.855923,-26.342862],[27.855335,-26.345104],[27.858325,-26.3454],[27.862391,-26.344811],[27.863517,-26.344737],[27.86472,-26.344979],[27.865577,-26.345037],[27.867262,-26.345026],[27.86797,-26.344509],[27.869456,-26.344017],[27.870618,-26.343914],[27.871185,-26.344372],[27.871539,-26.344949],[27.87179,-26.345084],[27.87283,-26.344983],[27.878842,-26.337853],[27.87946,-26.337104],[27.882645,-26.333359],[27.883132,-26.332738],[27.874545,-26.328068],[27.870428,-26.325861],[27.867893,-26.324452],[27.865872,-26.323374],[27.867317,-26.321648],[27.86878,-26.319723],[27.870808,-26.317296],[27.869552,-26.316658],[27.868541,-26.316517],[27.867943,-26.316321],[27.867617,-26.315071],[27.866834,-26.313821],[27.865029,-26.313332],[27.865214,-26.312864],[27.86341,-26.312603],[27.861714,-26.312027],[27.86029,-26.31169],[27.859137,-26.311679],[27.858246,-26.311592],[27.857344,-26.311255],[27.855974,-26.310657],[27.855235,-26.310549],[27.854517,-26.310342],[27.854169,-26.310027],[27.853571,-26.309766],[27.852615,-26.309635],[27.851988,-26.309622],[27.850598,-26.309293],[27.849034,-26.30827],[27.847084,-26.30743],[27.845657,-26.307037],[27.846129,-26.306586],[27.841956,-26.306182],[27.840896,-26.306059],[27.831928,-26.305151],[27.826406,-26.30456],[27.8256,-26.304438],[27.82181,-26.30407],[27.82176,-26.30476]]],[[[27.84092,-26.38768],[27.841092,-26.389328],[27.841682,-26.393992],[27.842314,-26.399106],[27.842473,-26.399861],[27.842897,-26.400994],[27.843574,-26.402122],[27.844095,-26.402756],[27.844688,-26.403336],[27.84533,-26.403837],[27.846301,-26.40443],[27.849001,-26.405663],[27.849873,-26.406197],[27.853307,-26.408612],[27.85441,-26.409616],[27.85526,-26.410764],[27.856859,-26.410561],[27.864528,-26.409509],[27.86631,-26.409323],[27.867699,-26.409321],[27.869169,-26.409442],[27.870977,-26.4098],[27.872661,-26.41027],[27.873142,-26.410342],[27.873191,-26.407994],[27.873356,-26.407153],[27.875112,-26.401222],[27.875873,-26.398839],[27.876357,-26.397476],[27.877153,-26.395508],[27.874137,-26.39428],[27.866657,-26.391203],[27.865634,-26.39052],[27.865103,-26.389927],[27.864583,-26.389066],[27.863757,-26.388183],[27.862631,-26.387415],[27.856451,-26.383296],[27.854877,-26.382398],[27.855035,-26.382048],[27.852208,-26.380197],[27.852062,-26.380218],[27.849694,-26.378648],[27.849546,-26.378427],[27.848543,-26.377772],[27.847957,-26.377398],[27.847513,-26.376701],[27.846586,-26.377259],[27.84543,-26.377834],[27.844285,-26.378469],[27.84378,-26.378867],[27.841207,-26.380603],[27.840635,-26.380846],[27.840036,-26.380912],[27.840126,-26.381343],[27.84092,-26.38768]]],[[[27.873719,-26.424943],[27.874516,-26.423954],[27.877338,-26.420268],[27.881136,-26.415463],[27.877981,-26.412401],[27.877018,-26.411707],[27.876382,-26.411358],[27.87567,-26.411076],[27.873142,-26.410342],[27.873153,-26.411961],[27.873335,-26.413407],[27.873766,-26.4149],[27.874374,-26.416167],[27.87275,-26.416195],[27.872874,-26.417341],[27.873167,-26.418108],[27.873057,-26.419],[27.873719,-26.424943]]]]}},{"type":"Feature","properties":{"id":"lenasia-south","name":"Lenasia South","labelPriority":"secondary","selectionBasis":"census-main-place","subPlaceCount":2},"geometry":{"type":"MultiPolygon","coordinates":[[[[27.848543,-26.377772],[27.849546,-26.378427],[27.849694,-26.378648],[27.852062,-26.380218],[27.852208,-26.380197],[27.855035,-26.382048],[27.854877,-26.382398],[27.856451,-26.383296],[27.862631,-26.387415],[27.863757,-26.388183],[27.864583,-26.389066],[27.865103,-26.389927],[27.865956,-26.38767],[27.865902,-26.386134],[27.865731,-26.385109],[27.865722,-26.383617],[27.864186,-26.383699],[27.864035,-26.382337],[27.863759,-26.378972],[27.861412,-26.378975],[27.858583,-26.377679],[27.85878,-26.376284],[27.858858,-26.375321],[27.85789,-26.375246],[27.857842,-26.375545],[27.854761,-26.374002],[27.854016,-26.374229],[27.853591,-26.374258],[27.853756,-26.374695],[27.852565,-26.37675],[27.850468,-26.375354],[27.850397,-26.375367],[27.848543,-26.377772]]],[[[27.873142,-26.410342],[27.87567,-26.411076],[27.876382,-26.411358],[27.877018,-26.411707],[27.877981,-26.412401],[27.881136,-26.415463],[27.883271,-26.41273],[27.884759,-26.410794],[27.885483,-26.409786],[27.886922,-26.407948],[27.8897,-26.404338],[27.89044,-26.403326],[27.891111,-26.402314],[27.890575,-26.401792],[27.889704,-26.401659],[27.890142,-26.398452],[27.8903,-26.397149],[27.889312,-26.397434],[27.88543,-26.386317],[27.885227,-26.385771],[27.884808,-26.385717],[27.883294,-26.385834],[27.881118,-26.385931],[27.878062,-26.393326],[27.874077,-26.392126],[27.874137,-26.39428],[27.877153,-26.395508],[27.876357,-26.397476],[27.875873,-26.398839],[27.875112,-26.401222],[27.873356,-26.407153],[27.873191,-26.407994],[27.873142,-26.410342]]]]}},{"type":"Feature","properties":{"id":"lehae","name":"Lehae","labelPriority":"secondary","selectionBasis":"census-main-place","subPlaceCount":1},"geometry":{"type":"Polygon","coordinates":[[[27.892108,-26.337605],[27.898563,-26.341112],[27.900255,-26.341803],[27.89953,-26.342979],[27.897609,-26.346742],[27.895565,-26.350704],[27.894612,-26.352784],[27.893768,-26.354768],[27.892796,-26.35722],[27.892212,-26.357211],[27.885001,-26.357388],[27.877841,-26.35496],[27.87828,-26.351376],[27.878941,-26.351201],[27.87869,-26.346862],[27.882516,-26.341261],[27.885156,-26.337505],[27.886476,-26.337653],[27.887154,-26.337509],[27.887518,-26.337029],[27.887772,-26.33525],[27.892108,-26.337605]]]}},{"type":"Feature","properties":{"id":"vlakfontein","name":"Vlakfontein","labelPriority":"secondary","selectionBasis":"census-main-place","subPlaceCount":1},"geometry":{"type":"Polygon","coordinates":[[[27.891111,-26.402314],[27.890575,-26.401792],[27.889704,-26.401659],[27.890142,-26.398452],[27.8903,-26.397149],[27.889312,-26.397434],[27.88543,-26.386317],[27.885227,-26.385771],[27.884808,-26.385717],[27.883294,-26.385834],[27.881118,-26.385931],[27.88267,-26.382128],[27.8804,-26.381862],[27.878436,-26.381838],[27.876159,-26.381326],[27.873687,-26.380509],[27.873502,-26.3748],[27.873085,-26.374788],[27.872935,-26.373896],[27.873304,-26.373931],[27.873443,-26.373384],[27.87336,-26.370445],[27.875347,-26.370935],[27.87593,-26.370639],[27.877587,-26.370851],[27.878319,-26.367789],[27.883705,-26.369814],[27.887198,-26.370971],[27.887747,-26.369664],[27.889141,-26.366219],[27.893439,-26.374532],[27.893572,-26.374878],[27.897149,-26.376285],[27.896441,-26.377871],[27.896021,-26.379539],[27.895741,-26.38051],[27.89546,-26.381769],[27.895121,-26.38525],[27.895189,-26.38789],[27.895189,-26.38949],[27.89526,-26.390539],[27.89526,-26.391649],[27.89484,-26.3936],[27.89463,-26.39534],[27.893999,-26.39715],[27.893847,-26.397467],[27.89403,-26.398359],[27.89436,-26.399191],[27.894211,-26.40032],[27.89356,-26.402031],[27.89361,-26.403139],[27.89316,-26.40431],[27.891111,-26.402314]]]}},{"type":"Feature","properties":{"id":"ennerdale","name":"Ennerdale","labelPriority":"secondary","selectionBasis":"census-main-place","subPlaceCount":13},"geometry":{"type":"Polygon","coordinates":[[[27.854661,-26.443089],[27.859037,-26.439584],[27.863297,-26.436155],[27.865302,-26.434501],[27.866489,-26.433421],[27.867566,-26.432441],[27.869235,-26.430681],[27.870773,-26.428835],[27.872537,-26.42654],[27.873719,-26.424943],[27.873057,-26.419],[27.873167,-26.418108],[27.872874,-26.417341],[27.87275,-26.416195],[27.874374,-26.416167],[27.873766,-26.4149],[27.873335,-26.413407],[27.873153,-26.411961],[27.873142,-26.410342],[27.872661,-26.41027],[27.870977,-26.4098],[27.869169,-26.409442],[27.867699,-26.409321],[27.86631,-26.409323],[27.864528,-26.409509],[27.856859,-26.410561],[27.85526,-26.410764],[27.85441,-26.409616],[27.853307,-26.408612],[27.849873,-26.406197],[27.849001,-26.405663],[27.846301,-26.40443],[27.84533,-26.403837],[27.844688,-26.403336],[27.844095,-26.402756],[27.843574,-26.402122],[27.842897,-26.400994],[27.842473,-26.399861],[27.842314,-26.399106],[27.841682,-26.393992],[27.841092,-26.389328],[27.84092,-26.38768],[27.839297,-26.387894],[27.838238,-26.387943],[27.835391,-26.38832],[27.835055,-26.390004],[27.834331,-26.391132],[27.834072,-26.39208],[27.834052,-26.392561],[27.834234,-26.393716],[27.834287,-26.394779],[27.834243,-26.39645],[27.834323,-26.397994],[27.834496,-26.399514],[27.834249,-26.39997],[27.831645,-26.399824],[27.830525,-26.399535],[27.828926,-26.398855],[27.82832,-26.398509],[27.827796,-26.400482],[27.827576,-26.401678],[27.823316,-26.402143],[27.820023,-26.402443],[27.820049,-26.403204],[27.819902,-26.404341],[27.819581,-26.405482],[27.817976,-26.410066],[27.817469,-26.411195],[27.814927,-26.416248],[27.815113,-26.416334],[27.813241,-26.420018],[27.812943,-26.420803],[27.812825,-26.420623],[27.812301,-26.420879],[27.811067,-26.421607],[27.810704,-26.421992],[27.808967,-26.421689],[27.807677,-26.4238],[27.814467,-26.425308],[27.817536,-26.426011],[27.822555,-26.427137],[27.823663,-26.427463],[27.82466,-26.427601],[27.825981,-26.428049],[27.826122,-26.428526],[27.82844,-26.42878],[27.829465,-26.428936],[27.829456,-26.428723],[27.831058,-26.428817],[27.832028,-26.434537],[27.832439,-26.436782],[27.833389,-26.442735],[27.833991,-26.446697],[27.835779,-26.446363],[27.837567,-26.446099],[27.844652,-26.44492],[27.848999,-26.4441],[27.854661,-26.443089]]]}},{"type":"Feature","properties":{"id":"drie-ziek","name":"Drie Ziek","labelPriority":"secondary","selectionBasis":"census-main-place","subPlaceCount":7},"geometry":{"type":"Polygon","coordinates":[[[27.83507,-26.49045],[27.834761,-26.490116],[27.835068,-26.489467],[27.838661,-26.482491],[27.840233,-26.479484],[27.842921,-26.47441],[27.843285,-26.474562],[27.845328,-26.473954],[27.84642,-26.473711],[27.846792,-26.472875],[27.848249,-26.473257],[27.848555,-26.473196],[27.855069,-26.471353],[27.855118,-26.470775],[27.854343,-26.468637],[27.853965,-26.468116],[27.852279,-26.466983],[27.853127,-26.465798],[27.854469,-26.462148],[27.85399,-26.461973],[27.851741,-26.460615],[27.851279,-26.460162],[27.850516,-26.459799],[27.851511,-26.457947],[27.851241,-26.458003],[27.850674,-26.457681],[27.849362,-26.457065],[27.849226,-26.457278],[27.848895,-26.457129],[27.84907,-26.456823],[27.848334,-26.456448],[27.849041,-26.455531],[27.849447,-26.45523],[27.848731,-26.454459],[27.847926,-26.453488],[27.849397,-26.452332],[27.847855,-26.450724],[27.847415,-26.451058],[27.847214,-26.450771],[27.847428,-26.450557],[27.846927,-26.449663],[27.845619,-26.450962],[27.843557,-26.453127],[27.842162,-26.454679],[27.840315,-26.456852],[27.839137,-26.458315],[27.833299,-26.465418],[27.82897,-26.470559],[27.824374,-26.476002],[27.819044,-26.482526],[27.817727,-26.484343],[27.82169,-26.48488],[27.824469,-26.479877],[27.82518,-26.485189],[27.82773,-26.504431],[27.834749,-26.490749],[27.83507,-26.49045]]]}},{"type":"Feature","properties":{"id":"stretford","name":"Stretford","labelPriority":"secondary","selectionBasis":"census-main-place","subPlaceCount":9},"geometry":{"type":"Polygon","coordinates":[[[27.83507,-26.49045],[27.846821,-26.49688],[27.852011,-26.499729],[27.852921,-26.50029],[27.85401,-26.501181],[27.85985,-26.50647],[27.86043,-26.50626],[27.864548,-26.509998],[27.864658,-26.509583],[27.864538,-26.509488],[27.864414,-26.505674],[27.864416,-26.504849],[27.8742,-26.501419],[27.874963,-26.501689],[27.87334,-26.494438],[27.873172,-26.494395],[27.864755,-26.492728],[27.866276,-26.489665],[27.868266,-26.485573],[27.867355,-26.485673],[27.866264,-26.485716],[27.865068,-26.485834],[27.865074,-26.485902],[27.862406,-26.485978],[27.861977,-26.486073],[27.860199,-26.486053],[27.855451,-26.486335],[27.855425,-26.483551],[27.855261,-26.483553],[27.855348,-26.483089],[27.855319,-26.481556],[27.855407,-26.481554],[27.855383,-26.478866],[27.855233,-26.478186],[27.855477,-26.478136],[27.854753,-26.477079],[27.853801,-26.476147],[27.851715,-26.474768],[27.848519,-26.473357],[27.848249,-26.473257],[27.846792,-26.472875],[27.84642,-26.473711],[27.845328,-26.473954],[27.843285,-26.474562],[27.842921,-26.47441],[27.840233,-26.479484],[27.838661,-26.482491],[27.835068,-26.489467],[27.834761,-26.490116],[27.83507,-26.49045]]]}},{"type":"Feature","properties":{"id":"lakeside","name":"Lakeside","labelPriority":"secondary","selectionBasis":"census-main-place","subPlaceCount":5},"geometry":{"type":"MultiPolygon","coordinates":[[[[27.864548,-26.509998],[27.86458,-26.510731],[27.865641,-26.511681],[27.86614,-26.51251],[27.86689,-26.5128],[27.8713,-26.516741],[27.871799,-26.51757],[27.87254,-26.51786],[27.87414,-26.519291],[27.875629,-26.5205],[27.876459,-26.521009],[27.87734,-26.521441],[27.87826,-26.521811],[27.880199,-26.522261],[27.881201,-26.52235],[27.8836,-26.522329],[27.8836,-26.522369],[27.886709,-26.52236],[27.887051,-26.52622],[27.887369,-26.526291],[27.88702,-26.52236],[27.88653,-26.51652],[27.886089,-26.512051],[27.886009,-26.51086],[27.88604,-26.51025],[27.886551,-26.506929],[27.8866,-26.50639],[27.886551,-26.50544],[27.88578,-26.50519],[27.88482,-26.504883],[27.884893,-26.504341],[27.884698,-26.504133],[27.883287,-26.504544],[27.883162,-26.504346],[27.874963,-26.501689],[27.8742,-26.501419],[27.864416,-26.504849],[27.864414,-26.505674],[27.864538,-26.509488],[27.864658,-26.509583],[27.864548,-26.509998]]],[[[28.137861,-26.103705],[28.13788,-26.104184],[28.145357,-26.106357],[28.14591,-26.106764],[28.14679,-26.107596],[28.147506,-26.107975],[28.148225,-26.103154],[28.147897,-26.103085],[28.148348,-26.102697],[28.15002,-26.102072],[28.151561,-26.101533],[28.151425,-26.100512],[28.151259,-26.099868],[28.150836,-26.098724],[28.150578,-26.097852],[28.150586,-26.097366],[28.15096,-26.096431],[28.151214,-26.09618],[28.150267,-26.095806],[28.148636,-26.095919],[28.146909,-26.095248],[28.146264,-26.095666],[28.145707,-26.097359],[28.14443,-26.102298],[28.144061,-26.103292],[28.137861,-26.103705]]]]}},{"type":"Feature","properties":{"id":"lawley","name":"Lawley","labelPriority":"secondary","selectionBasis":"census-main-place","subPlaceCount":2},"geometry":{"type":"Polygon","coordinates":[[[27.79005,-26.381754],[27.790657,-26.38595],[27.791062,-26.388393],[27.790634,-26.388466],[27.790855,-26.390784],[27.792071,-26.390348],[27.792891,-26.390124],[27.796601,-26.389487],[27.802465,-26.388537],[27.803151,-26.38936],[27.804527,-26.391134],[27.806719,-26.391706],[27.807601,-26.392676],[27.805621,-26.398599],[27.805723,-26.399142],[27.816562,-26.397542],[27.817828,-26.397361],[27.818459,-26.3975],[27.81867,-26.397645],[27.818528,-26.396965],[27.819082,-26.396891],[27.818721,-26.394923],[27.816884,-26.38552],[27.817069,-26.385432],[27.815274,-26.376173],[27.816069,-26.376404],[27.816549,-26.376412],[27.817554,-26.376697],[27.817724,-26.376305],[27.817758,-26.374656],[27.814635,-26.37259],[27.812877,-26.371899],[27.811766,-26.366138],[27.811465,-26.364644],[27.811541,-26.36447],[27.802851,-26.364111],[27.802259,-26.364146],[27.801698,-26.368624],[27.801577,-26.368824],[27.801367,-26.369822],[27.801509,-26.371956],[27.801823,-26.372094],[27.801738,-26.372842],[27.801315,-26.375313],[27.801024,-26.377251],[27.800479,-26.377288],[27.800514,-26.377805],[27.799852,-26.378583],[27.799041,-26.379124],[27.798656,-26.3791],[27.797154,-26.379206],[27.795506,-26.379456],[27.795023,-26.37965],[27.795255,-26.380515],[27.795916,-26.381909],[27.794419,-26.38214],[27.793955,-26.382555],[27.793615,-26.382546],[27.792097,-26.382187],[27.79005,-26.381754]]]}},{"type":"Feature","properties":{"id":"kanana-park","name":"Kanana Park","labelPriority":"secondary","selectionBasis":"census-main-place","subPlaceCount":2},"geometry":{"type":"Polygon","coordinates":[[[27.88103,-26.428745],[27.881535,-26.430117],[27.881686,-26.43069],[27.882167,-26.431985],[27.882114,-26.432404],[27.882341,-26.432685],[27.8824,-26.433402],[27.882604,-26.434134],[27.882341,-26.434125],[27.882102,-26.434606],[27.882208,-26.434689],[27.881673,-26.435673],[27.882082,-26.438555],[27.884574,-26.438291],[27.885438,-26.438229],[27.886653,-26.438435],[27.887278,-26.438078],[27.887813,-26.437567],[27.888108,-26.437399],[27.888733,-26.437275],[27.889731,-26.436826],[27.892918,-26.436199],[27.894741,-26.435906],[27.895121,-26.435917],[27.895973,-26.435683],[27.896516,-26.435667],[27.89714,-26.435434],[27.899126,-26.434918],[27.899815,-26.434663],[27.90026,-26.43462],[27.901373,-26.434261],[27.904072,-26.429151],[27.906073,-26.42526],[27.90734,-26.42287],[27.907405,-26.42268],[27.908368,-26.420921],[27.911012,-26.418057],[27.911798,-26.417453],[27.912545,-26.417099],[27.90766,-26.402769],[27.89894,-26.403705],[27.898216,-26.405159],[27.897537,-26.40696],[27.896857,-26.408573],[27.895567,-26.410561],[27.894355,-26.41238],[27.889802,-26.419033],[27.888998,-26.419992],[27.887943,-26.421087],[27.885302,-26.423732],[27.884337,-26.424672],[27.883503,-26.425304],[27.882946,-26.42561],[27.882157,-26.425934],[27.881324,-26.426162],[27.88103,-26.428745]]]}},{"type":"Feature","properties":{"id":"poortjie","name":"Poortjie","labelPriority":"secondary","selectionBasis":"census-main-place","subPlaceCount":1},"geometry":{"type":"Polygon","coordinates":[[[27.769279,-26.45096],[27.7698,-26.45113],[27.770121,-26.450859],[27.770439,-26.45093],[27.770599,-26.45137],[27.77277,-26.45195],[27.775758,-26.4522],[27.77588,-26.452662],[27.77582,-26.453413],[27.775843,-26.455193],[27.774181,-26.455327],[27.772341,-26.455933],[27.772714,-26.457271],[27.773752,-26.46032],[27.767536,-26.464705],[27.766946,-26.464176],[27.766127,-26.463603],[27.762518,-26.461482],[27.75942,-26.459634],[27.759239,-26.44466],[27.76894,-26.44565],[27.769279,-26.45096]]]}},{"type":"Feature","properties":{"id":"kya-sand","name":"Kya Sand","labelPriority":"secondary","selectionBasis":"census-main-place","subPlaceCount":1},"geometry":{"type":"Polygon","coordinates":[[[27.936706,-26.035527],[27.936642,-26.035405],[27.938902,-26.032303],[27.940307,-26.030318],[27.94265,-26.026353],[27.943706,-26.024639],[27.944591,-26.023069],[27.945743,-26.021147],[27.949865,-26.014157],[27.950159,-26.014747],[27.950045,-26.015493],[27.950293,-26.015524],[27.955681,-26.014615],[27.960499,-26.013832],[27.960814,-26.013691],[27.960889,-26.015136],[27.961085,-26.018002],[27.961383,-26.018157],[27.961446,-26.018427],[27.961341,-26.019211],[27.961449,-26.019679],[27.961669,-26.019894],[27.961479,-26.020193],[27.96101,-26.020599],[27.960318,-26.020811],[27.959674,-26.020895],[27.958854,-26.021965],[27.958691,-26.023465],[27.958501,-26.023852],[27.958283,-26.024716],[27.958088,-26.025817],[27.957761,-26.026044],[27.957524,-26.026784],[27.956864,-26.02719],[27.95652,-26.027532],[27.955911,-26.027942],[27.955232,-26.028186],[27.954832,-26.028148],[27.95331,-26.029207],[27.953507,-26.029562],[27.953545,-26.029949],[27.953355,-26.030592],[27.952834,-26.031143],[27.952972,-26.031319],[27.952065,-26.032116],[27.951239,-26.03267],[27.947153,-26.033251],[27.946951,-26.032384],[27.942225,-26.032933],[27.941567,-26.033062],[27.936854,-26.035435],[27.936706,-26.035527]]]}},{"type":"Feature","properties":{"id":"cosmo-city","name":"Cosmo City","labelPriority":"secondary","selectionBasis":"named-sub-places","subPlaceCount":1},"geometry":{"type":"Polygon","coordinates":[[[27.943706,-26.024639],[27.94265,-26.026353],[27.940307,-26.030318],[27.938902,-26.032303],[27.936642,-26.035405],[27.936706,-26.035527],[27.936508,-26.035731],[27.930409,-26.044085],[27.930181,-26.044521],[27.930067,-26.045364],[27.929169,-26.051129],[27.92886,-26.051035],[27.923331,-26.048591],[27.918322,-26.04635],[27.913514,-26.044217],[27.910712,-26.04296],[27.910182,-26.037574],[27.912075,-26.03583],[27.91264,-26.02821],[27.915191,-26.021216],[27.917057,-26.019235],[27.918141,-26.01799],[27.92095,-26.015012],[27.922809,-26.013452],[27.923827,-26.012704],[27.925155,-26.011192],[27.929674,-26.00619],[27.929804,-26.005874],[27.930387,-26.005253],[27.934137,-26.00871],[27.93525,-26.009936],[27.935462,-26.00989],[27.93655,-26.011078],[27.937655,-26.012447],[27.938448,-26.013712],[27.938783,-26.013584],[27.940739,-26.015727],[27.941126,-26.016306],[27.941882,-26.017626],[27.942417,-26.01886],[27.942716,-26.020259],[27.942862,-26.021824],[27.942436,-26.021995],[27.943706,-26.024639]]]}},{"type":"Feature","properties":{"id":"zandspruit","name":"Zandspruit","labelPriority":"secondary","selectionBasis":"named-sub-places","subPlaceCount":1},"geometry":{"type":"Polygon","coordinates":[[[27.910276,-26.049433],[27.912204,-26.050832],[27.91325,-26.050582],[27.913675,-26.052107],[27.910348,-26.052855],[27.910158,-26.05436],[27.9077,-26.055297],[27.909134,-26.056667],[27.909285,-26.056966],[27.908133,-26.058053],[27.907508,-26.058591],[27.907999,-26.058553],[27.908499,-26.058882],[27.909252,-26.058881],[27.909951,-26.059847],[27.909977,-26.060314],[27.909698,-26.060522],[27.909614,-26.061237],[27.909635,-26.062588],[27.90932,-26.062815],[27.90878,-26.063394],[27.907905,-26.063973],[27.907555,-26.064356],[27.906588,-26.065209],[27.903598,-26.062424],[27.901498,-26.060427],[27.901635,-26.060123],[27.903553,-26.056662],[27.904262,-26.05502],[27.90558,-26.050883],[27.906108,-26.049331],[27.906476,-26.04946],[27.906946,-26.049259],[27.907965,-26.04903],[27.909468,-26.048893],[27.910276,-26.049433]]]}},{"type":"Feature","properties":{"id":"newclare","name":"Newclare","labelPriority":"secondary","selectionBasis":"named-sub-places","subPlaceCount":1},"geometry":{"type":"Polygon","coordinates":[[[27.969294,-26.189263],[27.969163,-26.189161],[27.965654,-26.190534],[27.965772,-26.190702],[27.96543,-26.190811],[27.965307,-26.190599],[27.961084,-26.187541],[27.961921,-26.186645],[27.961937,-26.186065],[27.962462,-26.185995],[27.962923,-26.185589],[27.966056,-26.182286],[27.96725,-26.182539],[27.968264,-26.183057],[27.973336,-26.187525],[27.970115,-26.188785],[27.969922,-26.189023],[27.969294,-26.189263]]]}},{"type":"Feature","properties":{"id":"bosmont","name":"Bosmont","labelPriority":"secondary","selectionBasis":"named-sub-places","subPlaceCount":1},"geometry":{"type":"Polygon","coordinates":[[[27.961084,-26.187541],[27.965307,-26.190599],[27.96543,-26.190811],[27.96526,-26.190967],[27.963082,-26.194752],[27.962396,-26.195998],[27.96016,-26.19984],[27.959759,-26.200573],[27.956063,-26.19949],[27.955315,-26.200185],[27.954923,-26.200702],[27.954372,-26.201775],[27.955081,-26.203275],[27.955832,-26.205133],[27.95174,-26.203652],[27.945361,-26.201294],[27.942566,-26.200211],[27.939715,-26.199136],[27.938885,-26.198882],[27.939186,-26.198058],[27.939097,-26.197871],[27.937037,-26.197612],[27.936283,-26.197395],[27.9366,-26.196762],[27.936003,-26.196511],[27.935962,-26.196186],[27.933926,-26.195158],[27.933921,-26.194766],[27.933318,-26.194584],[27.933432,-26.194447],[27.93285,-26.194189],[27.932925,-26.194058],[27.932312,-26.193728],[27.932363,-26.194031],[27.931521,-26.193813],[27.930957,-26.193583],[27.930835,-26.192991],[27.930572,-26.19298],[27.929596,-26.192603],[27.92973,-26.192324],[27.92877,-26.191981],[27.928748,-26.19207],[27.927366,-26.191458],[27.926887,-26.191047],[27.924437,-26.189771],[27.925602,-26.187779],[27.927927,-26.182997],[27.927666,-26.18219],[27.928455,-26.181856],[27.92992,-26.180903],[27.930474,-26.180669],[27.934776,-26.179602],[27.935393,-26.17942],[27.935408,-26.179921],[27.935664,-26.180184],[27.935389,-26.180341],[27.93523,-26.180786],[27.935008,-26.181991],[27.935103,-26.182596],[27.935044,-26.183677],[27.93518,-26.183744],[27.936367,-26.184852],[27.937277,-26.185112],[27.938753,-26.185029],[27.938839,-26.185102],[27.940185,-26.183657],[27.940758,-26.184058],[27.94529,-26.185638],[27.946322,-26.186031],[27.945717,-26.184604],[27.945432,-26.183433],[27.945366,-26.182817],[27.945361,-26.181834],[27.945421,-26.180909],[27.947576,-26.181691],[27.956233,-26.185793],[27.95738,-26.18621],[27.958626,-26.186409],[27.959384,-26.186409],[27.959562,-26.186635],[27.960992,-26.187643],[27.961084,-26.187541]]]}},{"type":"Feature","properties":{"id":"riverlea","name":"Riverlea","labelPriority":"secondary","selectionBasis":"named-sub-places","subPlaceCount":2},"geometry":{"type":"Polygon","coordinates":[[[27.955832,-26.205133],[27.956999,-26.205524],[27.957028,-26.205845],[27.95682,-26.20616],[27.957157,-26.207268],[27.963659,-26.208834],[27.964098,-26.207697],[27.964623,-26.207205],[27.965128,-26.207371],[27.965305,-26.207203],[27.965944,-26.207425],[27.965991,-26.207222],[27.966356,-26.207193],[27.96873,-26.208495],[27.969713,-26.208979],[27.969434,-26.209806],[27.971636,-26.210913],[27.971556,-26.21124],[27.97175,-26.21128],[27.9718,-26.211646],[27.971416,-26.213216],[27.971312,-26.213196],[27.970815,-26.215339],[27.96867,-26.214851],[27.966219,-26.216227],[27.967228,-26.217701],[27.980624,-26.220796],[27.980603,-26.220919],[27.982651,-26.221091],[27.983315,-26.221222],[27.984561,-26.219068],[27.984729,-26.218535],[27.986544,-26.218914],[27.987294,-26.218689],[27.987637,-26.218395],[27.988051,-26.218381],[27.988513,-26.218185],[27.988814,-26.217912],[27.989176,-26.217096],[27.989598,-26.216364],[27.990813,-26.213972],[27.991259,-26.212683],[27.991643,-26.21184],[27.992151,-26.211233],[27.992353,-26.210443],[27.990698,-26.210217],[27.987938,-26.20989],[27.986602,-26.2096],[27.985659,-26.209227],[27.983734,-26.208367],[27.981435,-26.207293],[27.98065,-26.207676],[27.979884,-26.20818],[27.978931,-26.207797],[27.974568,-26.20576],[27.969672,-26.203966],[27.969354,-26.203564],[27.966374,-26.202742],[27.966084,-26.202966],[27.965112,-26.204405],[27.963785,-26.204125],[27.958715,-26.202431],[27.959759,-26.200573],[27.956063,-26.19949],[27.955315,-26.200185],[27.954923,-26.200702],[27.954372,-26.201775],[27.955081,-26.203275],[27.955832,-26.205133]]]}},{"type":"Feature","properties":{"id":"westbury","name":"Westbury","labelPriority":"secondary","selectionBasis":"named-sub-places","subPlaceCount":1},"geometry":{"type":"Polygon","coordinates":[[[27.980878,-26.187406],[27.977234,-26.186012],[27.973336,-26.187525],[27.968264,-26.183057],[27.96725,-26.182539],[27.966056,-26.182286],[27.966084,-26.182074],[27.967284,-26.18082],[27.968413,-26.179818],[27.970913,-26.177205],[27.971231,-26.176708],[27.975548,-26.179194],[27.979938,-26.181741],[27.979906,-26.181902],[27.979242,-26.182921],[27.981876,-26.184875],[27.982011,-26.184822],[27.982487,-26.185369],[27.983589,-26.186183],[27.982483,-26.186705],[27.980878,-26.187406]]]}},{"type":"Feature","properties":{"id":"coronationville","name":"Coronationville","labelPriority":"secondary","selectionBasis":"named-sub-places","subPlaceCount":1},"geometry":{"type":"Polygon","coordinates":[[[27.980878,-26.187406],[27.982255,-26.18797],[27.981865,-26.189002],[27.980912,-26.191933],[27.979309,-26.196305],[27.97903,-26.196201],[27.977821,-26.197431],[27.975629,-26.19508],[27.973156,-26.192365],[27.971926,-26.191309],[27.969294,-26.189263],[27.969922,-26.189023],[27.970115,-26.188785],[27.973336,-26.187525],[27.977234,-26.186012],[27.980878,-26.187406]]]}}]}