{
  "type": "FeatureCollection",
  "features": [
    {
      "type": "Feature",
      "properties": {
        "id": "node/6983499376",
        "name": "Hatfield",
        "network": "Gautrain"
      },
      "geometry": {
        "type": "Point",
        "coordinates": [
          28.2378733,
          -25.7476402
        ]
      }
    },
    {
      "type": "Feature",
      "properties": {
        "id": "node/6983501555",
        "name": "Pretoria Gautrain Station",
        "network": "Gautrain"
      },
      "geometry": {
        "type": "Point",
        "coordinates": [
          28.190451,
          -25.7595569
        ]
      }
    },
    {
      "type": "Feature",
      "properties": {
        "id": "node/6983528224",
        "name": "Centurion",
        "network": "Gautrain"
      },
      "geometry": {
        "type": "Point",
        "coordinates": [
          28.1895872,
          -25.8516721
        ]
      }
    },
    {
      "type": "Feature",
      "properties": {
        "id": "way/29598349",
        "name": "Gautrain",
        "network": "Gautrain"
      },
      "geometry": {
        "type": "LineString",
        "coordinates": [
          [
            28.189872,
            -25.7586962
          ],
          [
            28.1905072,
            -25.7594981
          ],
          [
            28.1910404,
            -25.7601871
          ]
        ]
      }
    },
    {
      "type": "Feature",
      "properties": {
        "id": "way/64241251",
        "name": "Gautrain",
        "network": "Gautrain"
      },
      "geometry": {
        "type": "LineString",
        "coordinates": [
          [
            28.1969435,
            -25.7633971
          ],
          [
            28.1967407,
            -25.7635271
          ],
          [
            28.1965405,
            -25.7636316
          ],
          [
            28.1964192,
            -25.7636901
          ],
          [
            28.1962368,
            -25.7637578
          ],
          [
            28.196106,
            -25.7637988
          ],
          [
            28.1959974,
            -25.7638284
          ],
          [
            28.1958579,
            -25.7638641
          ],
          [
            28.1956983,
            -25.763887
          ],
          [
            28.1955629,
            -25.7639021
          ],
          [
            28.1953999,
            -25.7639112
          ],
          [
            28.1952491,
            -25.7639112
          ],
          [
            28.1951404,
            -25.7639063
          ],
          [
            28.1950358,
            -25.7638985
          ],
          [
            28.1948749,
            -25.7638786
          ],
          [
            28.1947408,
            -25.7638532
          ],
          [
            28.1945953,
            -25.7638206
          ],
          [
            28.1944484,
            -25.7637644
          ],
          [
            28.1942647,
            -25.7636914
          ],
          [
            28.1940588,
            -25.7635881
          ],
          [
            28.1938764,
            -25.7634824
          ],
          [
            28.1937571,
            -25.7634045
          ],
          [
            28.1936136,
            -25.763294
          ],
          [
            28.1934909,
            -25.7631847
          ],
          [
            28.1933425,
            -25.7630246
          ],
          [
            28.1932033,
            -25.7628854
          ],
          [
            28.1930997,
            -25.762764
          ]
        ]
      }
    },
    {
      "type": "Feature",
      "properties": {
        "id": "way/64241257",
        "name": "Gautrain",
        "network": "Gautrain"
      },
      "geometry": {
        "type": "LineString",
        "coordinates": [
          [
            28.1930143,
            -25.7628133
          ],
          [
            28.1931166,
            -25.7629505
          ],
          [
            28.1932086,
            -25.7630847
          ],
          [
            28.1932914,
            -25.763223
          ],
          [
            28.1934053,
            -25.7634267
          ],
          [
            28.1934974,
            -25.7637157
          ],
          [
            28.1935412,
            -25.7639359
          ],
          [
            28.1935694,
            -25.7641566
          ],
          [
            28.193576,
            -25.7643333
          ],
          [
            28.1935734,
            -25.7645459
          ],
          [
            28.1935519,
            -25.764756
          ],
          [
            28.1935297,
            -25.7649567
          ],
          [
            28.1934567,
            -25.7655387
          ],
          [
            28.1933998,
            -25.7661348
          ]
        ]
      }
    },
    {
      "type": "Feature",
      "properties": {
        "id": "way/64272349",
        "name": "Gautrain",
        "network": "Gautrain"
      },
      "geometry": {
        "type": "LineString",
        "coordinates": [
          [
            28.192087,
            -25.7769135
          ],
          [
            28.1914601,
            -25.7787512
          ],
          [
            28.1908165,
            -25.7803634
          ]
        ]
      }
    },
    {
      "type": "Feature",
      "properties": {
        "id": "way/64272351",
        "name": "Gautrain",
        "network": "Gautrain"
      },
      "geometry": {
        "type": "LineString",
        "coordinates": [
          [
            28.1927988,
            -25.7747228
          ],
          [
            28.1926042,
            -25.7753169
          ],
          [
            28.1923309,
            -25.7761696
          ],
          [
            28.192087,
            -25.7769135
          ]
        ]
      }
    },
    {
      "type": "Feature",
      "properties": {
        "id": "way/64794304",
        "name": "Gautrain",
        "network": "Gautrain"
      },
      "geometry": {
        "type": "LineString",
        "coordinates": [
          [
            28.1835641,
            -25.8345259
          ],
          [
            28.1837431,
            -25.8357269
          ],
          [
            28.1839919,
            -25.8374534
          ],
          [
            28.1841776,
            -25.8387517
          ],
          [
            28.1843778,
            -25.8400514
          ],
          [
            28.1848321,
            -25.8429484
          ],
          [
            28.1849799,
            -25.8436611
          ],
          [
            28.1850976,
            -25.8441205
          ],
          [
            28.1852384,
            -25.8446261
          ],
          [
            28.185419,
            -25.8451567
          ],
          [
            28.1855965,
            -25.8455978
          ],
          [
            28.1857726,
            -25.8460378
          ],
          [
            28.1861462,
            -25.8468041
          ],
          [
            28.1865045,
            -25.8474648
          ],
          [
            28.1869326,
            -25.8481441
          ],
          [
            28.1872858,
            -25.8486506
          ],
          [
            28.1889164,
            -25.8508695
          ],
          [
            28.1891597,
            -25.8511919
          ]
        ]
      }
    },
    {
      "type": "Feature",
      "properties": {
        "id": "way/65502778",
        "name": "Gautrain",
        "network": "Gautrain"
      },
      "geometry": {
        "type": "LineString",
        "coordinates": [
          [
            28.2393416,
            -25.7472716
          ],
          [
            28.2389744,
            -25.7473663
          ],
          [
            28.2386089,
            -25.7474666
          ]
        ]
      }
    },
    {
      "type": "Feature",
      "properties": {
        "id": "way/65582293",
        "name": "Gautrain",
        "network": "Gautrain"
      },
      "geometry": {
        "type": "LineString",
        "coordinates": [
          [
            28.2196089,
            -25.7601285
          ],
          [
            28.2194853,
            -25.760149
          ]
        ]
      }
    },
    {
      "type": "Feature",
      "properties": {
        "id": "way/65582294",
        "name": "Gautrain",
        "network": "Gautrain"
      },
      "geometry": {
        "type": "LineString",
        "coordinates": [
          [
            28.219971,
            -25.7600375
          ],
          [
            28.2197465,
            -25.7600992
          ],
          [
            28.2196089,
            -25.7601285
          ]
        ]
      }
    },
    {
      "type": "Feature",
      "properties": {
        "id": "way/65582318",
        "name": "Gautrain",
        "network": "Gautrain"
      },
      "geometry": {
        "type": "LineString",
        "coordinates": [
          [
            28.2243939,
            -25.7560812
          ],
          [
            28.2221091,
            -25.7586245
          ],
          [
            28.2217433,
            -25.7590114
          ],
          [
            28.2213746,
            -25.7593485
          ],
          [
            28.2211057,
            -25.7595284
          ],
          [
            28.2208532,
            -25.7596758
          ],
          [
            28.2205214,
            -25.7598453
          ],
          [
            28.2201447,
            -25.7599781
          ]
        ]
      }
    },
    {
      "type": "Feature",
      "properties": {
        "id": "way/65582346",
        "name": "Gautrain",
        "network": "Gautrain"
      },
      "geometry": {
        "type": "LineString",
        "coordinates": [
          [
            28.2247261,
            -25.7557266
          ],
          [
            28.2243939,
            -25.7560812
          ]
        ]
      }
    },
    {
      "type": "Feature",
      "properties": {
        "id": "way/65582352",
        "name": "Gautrain",
        "network": "Gautrain"
      },
      "geometry": {
        "type": "LineString",
        "coordinates": [
          [
            28.2201447,
            -25.7599781
          ],
          [
            28.219971,
            -25.7600375
          ]
        ]
      }
    },
    {
      "type": "Feature",
      "properties": {
        "id": "way/65582369",
        "name": "Gautrain",
        "network": "Gautrain"
      },
      "geometry": {
        "type": "LineString",
        "coordinates": [
          [
            28.2194853,
            -25.760149
          ],
          [
            28.2190387,
            -25.7602152
          ],
          [
            28.2186425,
            -25.7602316
          ],
          [
            28.217996,
            -25.7601665
          ],
          [
            28.2172988,
            -25.7600721
          ],
          [
            28.2163413,
            -25.7599598
          ],
          [
            28.2154304,
            -25.7598309
          ],
          [
            28.2151064,
            -25.7598184
          ]
        ]
      }
    },
    {
      "type": "Feature",
      "properties": {
        "id": "way/164088873",
        "name": "Gautrain",
        "network": "Gautrain"
      },
      "geometry": {
        "type": "LineString",
        "coordinates": [
          [
            28.1487765,
            -25.9323231
          ],
          [
            28.148236,
            -25.9338646
          ],
          [
            28.1479731,
            -25.9346304
          ],
          [
            28.1477177,
            -25.9353591
          ],
          [
            28.1470866,
            -25.9372149
          ],
          [
            28.1467541,
            -25.9381267
          ],
          [
            28.1464276,
            -25.9390586
          ],
          [
            28.1456074,
            -25.9413624
          ],
          [
            28.1451876,
            -25.9425225
          ],
          [
            28.1447645,
            -25.9437042
          ],
          [
            28.1439297,
            -25.9459908
          ],
          [
            28.143522,
            -25.9471292
          ],
          [
            28.1431219,
            -25.9482067
          ]
        ]
      }
    },
    {
      "type": "Feature",
      "properties": {
        "id": "way/164088875",
        "name": "Gautrain",
        "network": "Gautrain"
      },
      "geometry": {
        "type": "LineString",
        "coordinates": [
          [
            28.1930015,
            -25.7700986
          ],
          [
            28.1929997,
            -25.7708145
          ],
          [
            28.1930342,
            -25.7718406
          ],
          [
            28.1930476,
            -25.7723829
          ],
          [
            28.1930503,
            -25.7726492
          ],
          [
            28.1930463,
            -25.7728696
          ],
          [
            28.1930389,
            -25.7730755
          ],
          [
            28.1930315,
            -25.7731794
          ],
          [
            28.1930188,
            -25.7733364
          ],
          [
            28.1930007,
            -25.7735598
          ],
          [
            28.1929772,
            -25.7737627
          ],
          [
            28.1929424,
            -25.7740006
          ],
          [
            28.1929028,
            -25.7742367
          ],
          [
            28.1928518,
            -25.7744813
          ],
          [
            28.1927988,
            -25.7747228
          ]
        ]
      }
    },
    {
      "type": "Feature",
      "properties": {
        "id": "way/165511778",
        "name": "Gautrain",
        "network": "Gautrain"
      },
      "geometry": {
        "type": "LineString",
        "coordinates": [
          [
            28.1803865,
            -25.8222349
          ],
          [
            28.1805225,
            -25.8228888
          ],
          [
            28.1806864,
            -25.8235301
          ],
          [
            28.1808733,
            -25.8241729
          ],
          [
            28.1810528,
            -25.8247325
          ],
          [
            28.1812459,
            -25.8252685
          ],
          [
            28.181431,
            -25.8258021
          ],
          [
            28.1816139,
            -25.8263083
          ],
          [
            28.1820264,
            -25.8274752
          ],
          [
            28.1824155,
            -25.8285601
          ],
          [
            28.1825951,
            -25.8291072
          ],
          [
            28.1827411,
            -25.8296471
          ],
          [
            28.1828606,
            -25.8301019
          ],
          [
            28.1829593,
            -25.8305584
          ],
          [
            28.1831048,
            -25.8314262
          ],
          [
            28.1833407,
            -25.8329844
          ],
          [
            28.1835641,
            -25.8345259
          ]
        ]
      }
    },
    {
      "type": "Feature",
      "properties": {
        "id": "way/194557912",
        "name": "Gautrain",
        "network": "Gautrain"
      },
      "geometry": {
        "type": "LineString",
        "coordinates": [
          [
            28.192979,
            -25.7628311
          ],
          [
            28.1930974,
            -25.7629915
          ],
          [
            28.1931805,
            -25.7631132
          ],
          [
            28.1932601,
            -25.7632453
          ],
          [
            28.1933494,
            -25.7634057
          ],
          [
            28.1933883,
            -25.7635072
          ],
          [
            28.1934496,
            -25.7637013
          ],
          [
            28.1934942,
            -25.7639239
          ],
          [
            28.1935264,
            -25.7641594
          ],
          [
            28.1935264,
            -25.7645229
          ],
          [
            28.1934446,
            -25.7652886
          ],
          [
            28.1933525,
            -25.7661485
          ]
        ]
      }
    },
    {
      "type": "Feature",
      "properties": {
        "id": "way/242668439",
        "name": "Gautrain",
        "network": "Gautrain"
      },
      "geometry": {
        "type": "LineString",
        "coordinates": [
          [
            28.2139669,
            -25.7600594
          ],
          [
            28.2133372,
            -25.7603028
          ],
          [
            28.2127104,
            -25.7605424
          ],
          [
            28.2122282,
            -25.7607234
          ],
          [
            28.2119921,
            -25.7607763
          ],
          [
            28.2118006,
            -25.7608029
          ],
          [
            28.211433,
            -25.7608305
          ],
          [
            28.2109232,
            -25.7608128
          ],
          [
            28.2090738,
            -25.7605734
          ],
          [
            28.2071792,
            -25.7603206
          ],
          [
            28.2052406,
            -25.7600607
          ],
          [
            28.2037584,
            -25.7598535
          ],
          [
            28.2032581,
            -25.7597907
          ],
          [
            28.2029571,
            -25.7597654
          ],
          [
            28.2027532,
            -25.7597551
          ],
          [
            28.2025849,
            -25.7597569
          ],
          [
            28.2024086,
            -25.759769
          ],
          [
            28.2022154,
            -25.7597907
          ],
          [
            28.2020552,
            -25.7598185
          ],
          [
            28.2018835,
            -25.7598559
          ],
          [
            28.2017199,
            -25.7599037
          ],
          [
            28.2015918,
            -25.7599435
          ],
          [
            28.2014242,
            -25.7600075
          ],
          [
            28.2013129,
            -25.7600558
          ],
          [
            28.2011895,
            -25.760115
          ],
          [
            28.201097,
            -25.7601682
          ],
          [
            28.2009602,
            -25.7602473
          ],
          [
            28.2007845,
            -25.7603638
          ],
          [
            28.2005042,
            -25.7605734
          ],
          [
            28.2002291,
            -25.7607885
          ],
          [
            28.1998994,
            -25.7610535
          ]
        ]
      }
    },
    {
      "type": "Feature",
      "properties": {
        "id": "way/242668440",
        "name": "Gautrain",
        "network": "Gautrain"
      },
      "geometry": {
        "type": "LineString",
        "coordinates": [
          [
            28.2151064,
            -25.7598184
          ],
          [
            28.2149009,
            -25.7598197
          ],
          [
            28.2146976,
            -25.7598412
          ],
          [
            28.2143388,
            -25.7599271
          ],
          [
            28.2139669,
            -25.7600594
          ]
        ]
      }
    },
    {
      "type": "Feature",
      "properties": {
        "id": "way/427825937",
        "name": "Gautrain",
        "network": "Gautrain"
      },
      "geometry": {
        "type": "LineString",
        "coordinates": [
          [
            28.1612836,
            -25.9086613
          ],
          [
            28.1609966,
            -25.9096614
          ],
          [
            28.1608517,
            -25.9101813
          ],
          [
            28.1607188,
            -25.9107258
          ],
          [
            28.1604642,
            -25.9114527
          ],
          [
            28.1601735,
            -25.9122335
          ],
          [
            28.1599009,
            -25.9128954
          ],
          [
            28.1596261,
            -25.91353
          ],
          [
            28.1589545,
            -25.9148336
          ],
          [
            28.1585115,
            -25.9156433
          ],
          [
            28.1580666,
            -25.9163745
          ],
          [
            28.1571247,
            -25.9178956
          ],
          [
            28.1562008,
            -25.9194079
          ],
          [
            28.155183,
            -25.921
          ],
          [
            28.1545231,
            -25.9220289
          ],
          [
            28.1536487,
            -25.923375
          ],
          [
            28.1521644,
            -25.9256758
          ]
        ]
      }
    },
    {
      "type": "Feature",
      "properties": {
        "id": "way/537266054",
        "name": "Gautrain",
        "network": "Gautrain"
      },
      "geometry": {
        "type": "LineString",
        "coordinates": [
          [
            28.192814,
            -25.762432
          ],
          [
            28.1930997,
            -25.762764
          ]
        ]
      }
    },
    {
      "type": "Feature",
      "properties": {
        "id": "way/537266055",
        "name": "Gautrain",
        "network": "Gautrain"
      },
      "geometry": {
        "type": "LineString",
        "coordinates": [
          [
            28.1910128,
            -25.7603436
          ],
          [
            28.1912884,
            -25.7606688
          ],
          [
            28.1913605,
            -25.7607437
          ],
          [
            28.1914407,
            -25.7608361
          ],
          [
            28.1915986,
            -25.761007
          ],
          [
            28.1918467,
            -25.7612975
          ]
        ]
      }
    },
    {
      "type": "Feature",
      "properties": {
        "id": "way/537266056",
        "name": "Gautrain",
        "network": "Gautrain"
      },
      "geometry": {
        "type": "LineString",
        "coordinates": [
          [
            28.1918467,
            -25.7612975
          ],
          [
            28.1921189,
            -25.7616478
          ],
          [
            28.1922763,
            -25.7618502
          ]
        ]
      }
    },
    {
      "type": "Feature",
      "properties": {
        "id": "way/537266825",
        "name": "Gautrain",
        "network": "Gautrain"
      },
      "geometry": {
        "type": "LineString",
        "coordinates": [
          [
            28.1922763,
            -25.7618502
          ],
          [
            28.1927432,
            -25.762521
          ]
        ]
      }
    },
    {
      "type": "Feature",
      "properties": {
        "id": "way/537266827",
        "name": "Gautrain",
        "network": "Gautrain"
      },
      "geometry": {
        "type": "LineString",
        "coordinates": [
          [
            28.1930467,
            -25.7627968
          ],
          [
            28.1932142,
            -25.7629726
          ],
          [
            28.1933286,
            -25.7630785
          ],
          [
            28.1934922,
            -25.7632421
          ],
          [
            28.1936169,
            -25.7633501
          ],
          [
            28.1937195,
            -25.7634293
          ],
          [
            28.1938724,
            -25.7635295
          ],
          [
            28.1940199,
            -25.7636195
          ],
          [
            28.1942084,
            -25.7637101
          ],
          [
            28.194374,
            -25.7637837
          ],
          [
            28.1945269,
            -25.7638435
          ],
          [
            28.194669,
            -25.7638852
          ],
          [
            28.1948782,
            -25.7639208
          ],
          [
            28.1950285,
            -25.7639408
          ],
          [
            28.1951686,
            -25.7639492
          ],
          [
            28.1952967,
            -25.7639528
          ],
          [
            28.195467,
            -25.7639486
          ],
          [
            28.1956427,
            -25.7639341
          ],
          [
            28.1958526,
            -25.7639051
          ],
          [
            28.1960202,
            -25.7638677
          ],
          [
            28.1962435,
            -25.7637994
          ],
          [
            28.1964762,
            -25.763708
          ],
          [
            28.1966096,
            -25.7636467
          ],
          [
            28.1967648,
            -25.7635612
          ],
          [
            28.196969,
            -25.7634305
          ]
        ]
      }
    },
    {
      "type": "Feature",
      "properties": {
        "id": "way/537267722",
        "name": "Gautrain",
        "network": "Gautrain"
      },
      "geometry": {
        "type": "LineString",
        "coordinates": [
          [
            28.1999296,
            -25.7610849
          ],
          [
            28.2002575,
            -25.760821
          ],
          [
            28.2005136,
            -25.7606151
          ],
          [
            28.2007932,
            -25.7604115
          ],
          [
            28.2009555,
            -25.7602998
          ],
          [
            28.201054,
            -25.7602394
          ],
          [
            28.2012042,
            -25.7601537
          ],
          [
            28.2013544,
            -25.7600848
          ],
          [
            28.201502,
            -25.7600196
          ],
          [
            28.2016743,
            -25.7599592
          ],
          [
            28.2018258,
            -25.7599145
          ],
          [
            28.2019693,
            -25.7598771
          ],
          [
            28.2021423,
            -25.7598445
          ],
          [
            28.2022744,
            -25.7598251
          ],
          [
            28.2024146,
            -25.7598094
          ],
          [
            28.2025742,
            -25.7598016
          ],
          [
            28.2027532,
            -25.7597992
          ],
          [
            28.2029584,
            -25.7598058
          ],
          [
            28.2032474,
            -25.7598348
          ],
          [
            28.2037644,
            -25.7598976
          ],
          [
            28.2052436,
            -25.7601048
          ],
          [
            28.2071829,
            -25.7603608
          ],
          [
            28.2090792,
            -25.7606096
          ],
          [
            28.2109219,
            -25.7608464
          ],
          [
            28.211453,
            -25.7608633
          ],
          [
            28.2118097,
            -25.7608391
          ],
          [
            28.2120216,
            -25.7608101
          ],
          [
            28.2122469,
            -25.7607522
          ],
          [
            28.2127216,
            -25.7605758
          ],
          [
            28.2133573,
            -25.7603294
          ],
          [
            28.2139769,
            -25.7600999
          ]
        ]
      }
    },
    {
      "type": "Feature",
      "properties": {
        "id": "way/537268862",
        "name": "Gautrain",
        "network": "Gautrain"
      },
      "geometry": {
        "type": "LineString",
        "coordinates": [
          [
            28.1929605,
            -25.7700942
          ],
          [
            28.1929497,
            -25.7708189
          ],
          [
            28.1930101,
            -25.7723914
          ],
          [
            28.1930088,
            -25.7726305
          ],
          [
            28.1930067,
            -25.7728605
          ],
          [
            28.192996,
            -25.7730942
          ],
          [
            28.1929846,
            -25.7733177
          ],
          [
            28.1929685,
            -25.7734898
          ],
          [
            28.192933,
            -25.7737724
          ],
          [
            28.1929155,
            -25.7739275
          ],
          [
            28.1928699,
            -25.7741981
          ],
          [
            28.192825,
            -25.7744215
          ],
          [
            28.1927593,
            -25.7747192
          ]
        ]
      }
    },
    {
      "type": "Feature",
      "properties": {
        "id": "way/537268864",
        "name": "Gautrain",
        "network": "Gautrain"
      },
      "geometry": {
        "type": "LineString",
        "coordinates": [
          [
            28.1926273,
            -25.7623082
          ],
          [
            28.1928096,
            -25.7625421
          ],
          [
            28.1930143,
            -25.7628133
          ]
        ]
      }
    },
    {
      "type": "Feature",
      "properties": {
        "id": "way/537274084",
        "name": "Gautrain",
        "network": "Gautrain"
      },
      "geometry": {
        "type": "LineString",
        "coordinates": [
          [
            28.2318525,
            -25.7498674
          ],
          [
            28.232574,
            -25.7496333
          ],
          [
            28.2339864,
            -25.749175
          ],
          [
            28.2341961,
            -25.749107
          ],
          [
            28.2348465,
            -25.7488775
          ],
          [
            28.2354842,
            -25.7486431
          ],
          [
            28.2359831,
            -25.7484716
          ],
          [
            28.2364806,
            -25.7483049
          ],
          [
            28.2370773,
            -25.7481025
          ]
        ]
      }
    },
    {
      "type": "Feature",
      "properties": {
        "id": "way/537274776",
        "name": "Gautrain",
        "network": "Gautrain"
      },
      "geometry": {
        "type": "LineString",
        "coordinates": [
          [
            28.2247749,
            -25.7557504
          ],
          [
            28.2254139,
            -25.7550245
          ],
          [
            28.2256123,
            -25.7548216
          ],
          [
            28.2264492,
            -25.7538891
          ],
          [
            28.2266074,
            -25.7537224
          ],
          [
            28.2271063,
            -25.7531765
          ],
          [
            28.227337,
            -25.7529228
          ],
          [
            28.2283106,
            -25.7518478
          ],
          [
            28.2286325,
            -25.7515023
          ],
          [
            28.2289624,
            -25.7512052
          ],
          [
            28.2293674,
            -25.7508911
          ],
          [
            28.2297537,
            -25.7506592
          ],
          [
            28.2299763,
            -25.750548
          ],
          [
            28.230207,
            -25.7504466
          ],
          [
            28.2305986,
            -25.7502895
          ],
          [
            28.2318525,
            -25.7498674
          ]
        ]
      }
    },
    {
      "type": "Feature",
      "properties": {
        "id": "way/537276025",
        "name": "Gautrain",
        "network": "Gautrain"
      },
      "geometry": {
        "type": "LineString",
        "coordinates": [
          [
            28.2151329,
            -25.7598487
          ],
          [
            28.215428,
            -25.7598632
          ],
          [
            28.2163346,
            -25.7599936
          ],
          [
            28.2173136,
            -25.7601048
          ],
          [
            28.2180002,
            -25.7601966
          ],
          [
            28.2186574,
            -25.7602642
          ],
          [
            28.2190463,
            -25.7602497
          ],
          [
            28.2194835,
            -25.7601796
          ]
        ]
      }
    },
    {
      "type": "Feature",
      "properties": {
        "id": "way/537276026",
        "name": "Gautrain",
        "network": "Gautrain"
      },
      "geometry": {
        "type": "LineString",
        "coordinates": [
          [
            28.2139769,
            -25.7600999
          ],
          [
            28.2143605,
            -25.7599598
          ],
          [
            28.2147092,
            -25.7598753
          ],
          [
            28.214913,
            -25.7598535
          ],
          [
            28.2151329,
            -25.7598487
          ]
        ]
      }
    },
    {
      "type": "Feature",
      "properties": {
        "id": "way/537276027",
        "name": "Gautrain",
        "network": "Gautrain"
      },
      "geometry": {
        "type": "LineString",
        "coordinates": [
          [
            28.2199877,
            -25.7600661
          ],
          [
            28.2201728,
            -25.7600057
          ]
        ]
      }
    },
    {
      "type": "Feature",
      "properties": {
        "id": "way/537276028",
        "name": "Gautrain",
        "network": "Gautrain"
      },
      "geometry": {
        "type": "LineString",
        "coordinates": [
          [
            28.2196218,
            -25.760153
          ],
          [
            28.2197598,
            -25.7601265
          ],
          [
            28.2199877,
            -25.7600661
          ]
        ]
      }
    },
    {
      "type": "Feature",
      "properties": {
        "id": "way/537276029",
        "name": "Gautrain",
        "network": "Gautrain"
      },
      "geometry": {
        "type": "LineString",
        "coordinates": [
          [
            28.2194835,
            -25.7601796
          ],
          [
            28.2196218,
            -25.760153
          ]
        ]
      }
    },
    {
      "type": "Feature",
      "properties": {
        "id": "way/537276030",
        "name": "Gautrain",
        "network": "Gautrain"
      },
      "geometry": {
        "type": "LineString",
        "coordinates": [
          [
            28.2244409,
            -25.7561044
          ],
          [
            28.2247749,
            -25.7557504
          ]
        ]
      }
    },
    {
      "type": "Feature",
      "properties": {
        "id": "way/537276031",
        "name": "Gautrain",
        "network": "Gautrain"
      },
      "geometry": {
        "type": "LineString",
        "coordinates": [
          [
            28.2201728,
            -25.7600057
          ],
          [
            28.2205617,
            -25.7598704
          ],
          [
            28.2208809,
            -25.7597086
          ],
          [
            28.2211357,
            -25.759554
          ],
          [
            28.2214174,
            -25.7593607
          ],
          [
            28.2217902,
            -25.7590225
          ],
          [
            28.2221523,
            -25.7586481
          ],
          [
            28.2244409,
            -25.7561044
          ]
        ]
      }
    },
    {
      "type": "Feature",
      "properties": {
        "id": "way/539423299",
        "name": "Gautrain",
        "network": "Gautrain"
      },
      "geometry": {
        "type": "LineString",
        "coordinates": [
          [
            28.1920479,
            -25.7769026
          ],
          [
            28.1914088,
            -25.7787461
          ],
          [
            28.1907872,
            -25.7803529
          ]
        ]
      }
    },
    {
      "type": "Feature",
      "properties": {
        "id": "way/539423300",
        "name": "Gautrain",
        "network": "Gautrain"
      },
      "geometry": {
        "type": "LineString",
        "coordinates": [
          [
            28.1927593,
            -25.7747192
          ],
          [
            28.1920479,
            -25.7769026
          ]
        ]
      }
    },
    {
      "type": "Feature",
      "properties": {
        "id": "way/539434571",
        "name": "Gautrain",
        "network": "Gautrain"
      },
      "geometry": {
        "type": "LineString",
        "coordinates": [
          [
            28.1799853,
            -25.8176341
          ],
          [
            28.1800027,
            -25.8180132
          ]
        ]
      }
    },
    {
      "type": "Feature",
      "properties": {
        "id": "way/539434576",
        "name": "Gautrain",
        "network": "Gautrain"
      },
      "geometry": {
        "type": "LineString",
        "coordinates": [
          [
            28.1795373,
            -25.799468
          ],
          [
            28.1795253,
            -25.7997064
          ],
          [
            28.1795286,
            -25.8000771
          ],
          [
            28.1795722,
            -25.8018858
          ],
          [
            28.1795937,
            -25.8027201
          ],
          [
            28.1796393,
            -25.8043429
          ],
          [
            28.1796728,
            -25.8055007
          ],
          [
            28.1796862,
            -25.806061
          ],
          [
            28.179709,
            -25.8070534
          ],
          [
            28.1797399,
            -25.8080555
          ],
          [
            28.1797533,
            -25.8091965
          ]
        ]
      }
    },
    {
      "type": "Feature",
      "properties": {
        "id": "way/539437986",
        "name": "Gautrain",
        "network": "Gautrain"
      },
      "geometry": {
        "type": "LineString",
        "coordinates": [
          [
            28.1876001,
            -25.8697683
          ],
          [
            28.1869563,
            -25.8700904
          ],
          [
            28.1854637,
            -25.8707819
          ],
          [
            28.1839563,
            -25.8714963
          ],
          [
            28.1824999,
            -25.8722022
          ],
          [
            28.1817247,
            -25.8725714
          ],
          [
            28.1810085,
            -25.8728876
          ],
          [
            28.1801905,
            -25.8732689
          ],
          [
            28.1793778,
            -25.8736285
          ],
          [
            28.1785221,
            -25.8740158
          ],
          [
            28.1776746,
            -25.8743947
          ],
          [
            28.176823,
            -25.8747796
          ],
          [
            28.17586,
            -25.8752285
          ],
          [
            28.1755744,
            -25.8753769
          ],
          [
            28.1753048,
            -25.8755289
          ],
          [
            28.1747925,
            -25.8758318
          ],
          [
            28.1741568,
            -25.8762312
          ],
          [
            28.1738082,
            -25.8764544
          ],
          [
            28.1734903,
            -25.8766934
          ],
          [
            28.1729579,
            -25.8770795
          ],
          [
            28.1724657,
            -25.8774946
          ],
          [
            28.1720406,
            -25.877865
          ],
          [
            28.1715564,
            -25.8783271
          ],
          [
            28.1712064,
            -25.8786734
          ],
          [
            28.1708296,
            -25.8790837
          ],
          [
            28.1701764,
            -25.8798656
          ],
          [
            28.1698586,
            -25.8802758
          ],
          [
            28.1696092,
            -25.8806487
          ],
          [
            28.1693155,
            -25.8810987
          ],
          [
            28.1690741,
            -25.8815102
          ],
          [
            28.1686154,
            -25.8823524
          ],
          [
            28.1684048,
            -25.8827904
          ],
          [
            28.1682037,
            -25.8832585
          ],
          [
            28.1679636,
            -25.8838497
          ],
          [
            28.1677517,
            -25.8845073
          ],
          [
            28.1674245,
            -25.8856475
          ],
          [
            28.1670812,
            -25.8868938
          ],
          [
            28.1667486,
            -25.8881124
          ],
          [
            28.1664281,
            -25.8893624
          ],
          [
            28.1662872,
            -25.8898752
          ],
          [
            28.1661732,
            -25.8902842
          ],
          [
            28.1658863,
            -25.8913869
          ],
          [
            28.1655818,
            -25.8924703
          ],
          [
            28.1654035,
            -25.8931375
          ],
          [
            28.1652144,
            -25.8938626
          ],
          [
            28.1648254,
            -25.8952392
          ],
          [
            28.164631,
            -25.895963
          ],
          [
            28.164458,
            -25.8966471
          ],
          [
            28.1642608,
            -25.8973721
          ],
          [
            28.1640731,
            -25.8980465
          ],
          [
            28.1634267,
            -25.9004473
          ],
          [
            28.1632,
            -25.9013991
          ],
          [
            28.1629787,
            -25.9021495
          ],
          [
            28.1627709,
            -25.9029361
          ],
          [
            28.1625536,
            -25.9037214
          ],
          [
            28.162154,
            -25.9052221
          ]
        ]
      }
    },
    {
      "type": "Feature",
      "properties": {
        "id": "way/688736651",
        "name": "Gautrain",
        "network": "Gautrain"
      },
      "geometry": {
        "type": "LineString",
        "coordinates": [
          [
            28.1911133,
            -25.7602816
          ],
          [
            28.1914082,
            -25.760667
          ],
          [
            28.1921498,
            -25.761626
          ],
          [
            28.192814,
            -25.762432
          ]
        ]
      }
    },
    {
      "type": "Feature",
      "properties": {
        "id": "way/688736652",
        "name": "Gautrain",
        "network": "Gautrain"
      },
      "geometry": {
        "type": "LineString",
        "coordinates": [
          [
            28.1910128,
            -25.7603436
          ],
          [
            28.191339,
            -25.7607662
          ],
          [
            28.1914081,
            -25.7608584
          ],
          [
            28.1915865,
            -25.7610849
          ],
          [
            28.1919155,
            -25.761479
          ],
          [
            28.192072,
            -25.7616622
          ],
          [
            28.1922201,
            -25.7618481
          ],
          [
            28.1924488,
            -25.7621393
          ],
          [
            28.1927432,
            -25.762521
          ]
        ]
      }
    },
    {
      "type": "Feature",
      "properties": {
        "id": "way/722661547",
        "name": "Gautrain",
        "network": "Gautrain"
      },
      "geometry": {
        "type": "LineString",
        "coordinates": [
          [
            28.2386089,
            -25.7474666
          ],
          [
            28.2382603,
            -25.7475813
          ],
          [
            28.2378752,
            -25.7477324
          ],
          [
            28.2370537,
            -25.7479858
          ]
        ]
      }
    },
    {
      "type": "Feature",
      "properties": {
        "id": "way/722661548",
        "name": "Gautrain",
        "network": "Gautrain"
      },
      "geometry": {
        "type": "LineString",
        "coordinates": [
          [
            28.2386494,
            -25.7475769
          ],
          [
            28.2388933,
            -25.7474913
          ]
        ]
      }
    },
    {
      "type": "Feature",
      "properties": {
        "id": "way/722661549",
        "name": "Gautrain",
        "network": "Gautrain"
      },
      "geometry": {
        "type": "LineString",
        "coordinates": [
          [
            28.2370537,
            -25.7479858
          ],
          [
            28.2365851,
            -25.7481541
          ],
          [
            28.2360314,
            -25.7483653
          ],
          [
            28.2353836,
            -25.748619
          ],
          [
            28.234174,
            -25.7490714
          ],
          [
            28.2335588,
            -25.7492664
          ],
          [
            28.2318397,
            -25.7498266
          ],
          [
            28.2305608,
            -25.7502662
          ],
          [
            28.2301881,
            -25.750413
          ],
          [
            28.2299573,
            -25.7505197
          ],
          [
            28.2297219,
            -25.7506375
          ],
          [
            28.2293456,
            -25.7508648
          ],
          [
            28.2289167,
            -25.7511957
          ],
          [
            28.2286004,
            -25.7514809
          ],
          [
            28.2282724,
            -25.7518302
          ],
          [
            28.2272994,
            -25.7528962
          ],
          [
            28.2264014,
            -25.7538841
          ],
          [
            28.2255587,
            -25.7548071
          ],
          [
            28.2247261,
            -25.7557266
          ]
        ]
      }
    },
    {
      "type": "Feature",
      "properties": {
        "id": "way/722661550",
        "name": "Gautrain",
        "network": "Gautrain"
      },
      "geometry": {
        "type": "LineString",
        "coordinates": [
          [
            28.2370773,
            -25.7481025
          ],
          [
            28.2379177,
            -25.7478258
          ],
          [
            28.2386494,
            -25.7475769
          ]
        ]
      }
    },
    {
      "type": "Feature",
      "properties": {
        "id": "way/744423350",
        "name": "Gautrain",
        "network": "Gautrain"
      },
      "geometry": {
        "type": "LineString",
        "coordinates": [
          [
            28.1900641,
            -25.8525005
          ],
          [
            28.1902501,
            -25.8527548
          ],
          [
            28.1909086,
            -25.8536346
          ],
          [
            28.1912599,
            -25.854115
          ],
          [
            28.1915684,
            -25.8545446
          ],
          [
            28.1921893,
            -25.8554824
          ],
          [
            28.192479,
            -25.8559941
          ],
          [
            28.1926694,
            -25.8563658
          ],
          [
            28.1928813,
            -25.8568582
          ],
          [
            28.1931174,
            -25.8575243
          ],
          [
            28.1933024,
            -25.8581471
          ],
          [
            28.1934339,
            -25.8587288
          ],
          [
            28.1935278,
            -25.8593394
          ],
          [
            28.1935707,
            -25.859839
          ],
          [
            28.1935948,
            -25.8601697
          ],
          [
            28.1935975,
            -25.8605076
          ],
          [
            28.1935814,
            -25.8610603
          ],
          [
            28.1935573,
            -25.8613113
          ],
          [
            28.1935331,
            -25.8615454
          ],
          [
            28.1934768,
            -25.8619654
          ],
          [
            28.1933936,
            -25.8624167
          ],
          [
            28.1932032,
            -25.8632229
          ],
          [
            28.1930852,
            -25.8636235
          ],
          [
            28.1929538,
            -25.8639783
          ],
          [
            28.1927258,
            -25.8644803
          ],
          [
            28.1925863,
            -25.864782
          ],
          [
            28.1923529,
            -25.8652309
          ],
          [
            28.1920525,
            -25.8657329
          ],
          [
            28.1918138,
            -25.866101
          ],
          [
            28.1914356,
            -25.8666042
          ],
          [
            28.1909247,
            -25.867204
          ],
          [
            28.1907195,
            -25.8674417
          ],
          [
            28.1903574,
            -25.8677965
          ],
          [
            28.1897552,
            -25.8683395
          ],
          [
            28.1894521,
            -25.8685833
          ],
          [
            28.1888768,
            -25.8689972
          ],
          [
            28.1884128,
            -25.8693025
          ],
          [
            28.1881312,
            -25.869469
          ],
          [
            28.1876001,
            -25.8697683
          ]
        ]
      }
    },
    {
      "type": "Feature",
      "properties": {
        "id": "way/746239490",
        "name": "Gautrain",
        "network": "Gautrain"
      },
      "geometry": {
        "type": "LineString",
        "coordinates": [
          [
            28.1922763,
            -25.7618502
          ],
          [
            28.1926273,
            -25.7623082
          ]
        ]
      }
    },
    {
      "type": "Feature",
      "properties": {
        "id": "way/746239492",
        "name": "Gautrain",
        "network": "Gautrain"
      },
      "geometry": {
        "type": "LineString",
        "coordinates": [
          [
            28.1910404,
            -25.7601871
          ],
          [
            28.1911133,
            -25.7602816
          ]
        ]
      }
    },
    {
      "type": "Feature",
      "properties": {
        "id": "way/754502372",
        "name": "Gautrain",
        "network": "Gautrain"
      },
      "geometry": {
        "type": "LineString",
        "coordinates": [
          [
            28.189749,
            -25.7588004
          ],
          [
            28.1903771,
            -25.7595762
          ],
          [
            28.1910128,
            -25.7603436
          ]
        ]
      }
    },
    {
      "type": "Feature",
      "properties": {
        "id": "way/754502373",
        "name": "Gautrain",
        "network": "Gautrain"
      },
      "geometry": {
        "type": "LineString",
        "coordinates": [
          [
            28.1911133,
            -25.7602816
          ],
          [
            28.1914222,
            -25.7607328
          ],
          [
            28.1915342,
            -25.7608917
          ],
          [
            28.1918467,
            -25.7612975
          ]
        ]
      }
    },
    {
      "type": "Feature",
      "properties": {
        "id": "way/868619712",
        "name": "Gautrain",
        "network": "Gautrain"
      },
      "geometry": {
        "type": "LineString",
        "coordinates": [
          [
            28.1993783,
            -25.7614708
          ],
          [
            28.1990502,
            -25.7617316
          ],
          [
            28.1985462,
            -25.7621363
          ],
          [
            28.1982699,
            -25.7623567
          ],
          [
            28.1979876,
            -25.762579
          ],
          [
            28.1972704,
            -25.7631572
          ],
          [
            28.1969435,
            -25.7633971
          ]
        ]
      }
    },
    {
      "type": "Feature",
      "properties": {
        "id": "way/868619713",
        "name": "Gautrain",
        "network": "Gautrain"
      },
      "geometry": {
        "type": "LineString",
        "coordinates": [
          [
            28.1998994,
            -25.7610535
          ],
          [
            28.1993783,
            -25.7614708
          ]
        ]
      }
    },
    {
      "type": "Feature",
      "properties": {
        "id": "way/868619714",
        "name": "Gautrain",
        "network": "Gautrain"
      },
      "geometry": {
        "type": "LineString",
        "coordinates": [
          [
            28.1993495,
            -25.7615475
          ],
          [
            28.1999296,
            -25.7610849
          ]
        ]
      }
    },
    {
      "type": "Feature",
      "properties": {
        "id": "way/868619715",
        "name": "Gautrain",
        "network": "Gautrain"
      },
      "geometry": {
        "type": "LineString",
        "coordinates": [
          [
            28.196969,
            -25.7634305
          ],
          [
            28.1970797,
            -25.7633532
          ],
          [
            28.1972963,
            -25.7631898
          ],
          [
            28.1980285,
            -25.7626098
          ],
          [
            28.1983155,
            -25.7623767
          ],
          [
            28.1985924,
            -25.7621538
          ],
          [
            28.1986669,
            -25.7620934
          ],
          [
            28.1990833,
            -25.7617619
          ],
          [
            28.1993495,
            -25.7615475
          ]
        ]
      }
    },
    {
      "type": "Feature",
      "properties": {
        "id": "way/1435659590",
        "name": "Gautrain",
        "network": "Gautrain"
      },
      "geometry": {
        "type": "LineString",
        "coordinates": [
          [
            28.1927432,
            -25.762521
          ],
          [
            28.192979,
            -25.7628311
          ]
        ]
      }
    },
    {
      "type": "Feature",
      "properties": {
        "id": "way/1435659591",
        "name": "Gautrain",
        "network": "Gautrain"
      },
      "geometry": {
        "type": "LineString",
        "coordinates": [
          [
            28.1926273,
            -25.7623082
          ],
          [
            28.1928713,
            -25.7625941
          ],
          [
            28.1930467,
            -25.7627968
          ]
        ]
      }
    }
  ]
}